{"features":[{"geometry":{"coordinates":[[[5.827937095282,49.714975474086],[5.831716,49.713607],[5.837297,49.712936],[5.843705,49.714331],[5.850216,49.714021],[5.856004,49.708078],[5.856403,49.705807],[5.875952,49.709989],[5.919102,49.71092],[5.934294,49.713658],[5.959409,49.721565],[5.994032,49.728851],[5.993722,49.739445],[5.995118,49.7504],[5.998683,49.761252],[5.999303,49.775412],[6.001319,49.781251],[6.013721,49.79032],[6.018682,49.797374],[6.029121,49.806314],[6.031601,49.813006],[6.033772,49.817166],[6.043073,49.824453],[6.059817,49.82962],[6.069428,49.829724],[6.081056,49.828096],[6.095525,49.821895],[6.104517,49.819104],[6.113818,49.81758],[6.147356,49.8236],[6.157278,49.823833],[6.160962072155,49.823236217903],[6.160962072155,49.856115107914],[6.022304832714,49.856115107914],[5.827937095282,49.856115107914],[5.827937095282,49.714975474086]]],"type":"Polygon"},"id":1,"properties":{"parentKey":"LUX:1159310951","sourceCountryId":"LUX","syntheticOperational":true,"territoryId":"territory:catalog:34e0bab2a74a1f6f3964a0f1e3e454e81173135838bf432797237cc8756117f9"},"type":"Feature"},{"geometry":{"coordinates":[[[6.174642,49.689991],[6.251123,49.68875],[6.264817,49.68627],[6.278304,49.680224],[6.285591,49.674333],[6.295048,49.647978],[6.301387955073,49.640287769784],[6.417771892365,49.640287769784],[6.417003,49.645756],[6.410905,49.649632],[6.404498,49.652474],[6.402741,49.655782],[6.418243,49.669889],[6.491727,49.700792],[6.489764,49.702962],[6.482942,49.708078],[6.486353,49.712936],[6.491004,49.714434],[6.493987049029,49.713670542854],[6.493987049029,49.717167018925],[6.492554,49.718413],[6.4878,49.725596],[6.485526,49.733761],[6.48625,49.742701],[6.493987049029,49.747105105109],[6.493987049029,49.756061257561],[6.493691,49.756551],[6.493794,49.76363],[6.493987049029,49.764513275431],[6.493987049029,49.799569013598],[6.493278,49.799597],[6.462478,49.805488],[6.414523,49.805488],[6.397056,49.808589],[6.380106,49.815565],[6.351374,49.83329],[6.334424,49.840215],[6.325639,49.84037],[6.310653,49.834479],[6.302592,49.834944],[6.301558,49.838303],[6.295568,49.848616],[6.295203,49.848586],[6.277064,49.847087],[6.269623,49.844968],[6.263887,49.841092],[6.257996,49.832798],[6.256135,49.828096],[6.258306,49.823884],[6.261561,49.822179],[6.266832,49.820034],[6.266677,49.815693],[6.265902,49.812205],[6.246317,49.790553],[6.262181,49.779081],[6.266987,49.777065],[6.272568,49.77306],[6.274584,49.770089],[6.262957,49.74668],[6.248022,49.746266],[6.241046,49.747093],[6.228333,49.741874],[6.220117,49.736913],[6.174642,49.689991]]],"type":"Polygon"},"id":2,"properties":{"parentKey":"LUX:1159310953","sourceCountryId":"LUX","syntheticOperational":true,"territoryId":"territory:catalog:7fa1161d5869ae5e639639c97b039375d3fa9cb7358a8d62176038c3609d0f9b"},"type":"Feature"},{"geometry":{"coordinates":[[[6.138248847926,49.485813004456],[6.142601,49.486076],[6.138248847926,49.492224893707],[6.138248847926,49.485813004456]]],"type":"Polygon"},"id":3,"properties":{"parentKey":"LUX:1159310955","sourceCountryId":"LUX","syntheticOperational":true,"territoryId":"territory:catalog:4553bdd0e50425c896a19ce674a62f61f4a33ec9ce03c100bee504563ac1e0ba"},"type":"Feature"},{"geometry":{"coordinates":[[[6.160962072155,49.823236217903],[6.184718,49.819388],[6.193865,49.812412],[6.214536,49.799906],[6.246317,49.790553],[6.265902,49.812205],[6.266677,49.815693],[6.266832,49.820034],[6.261561,49.822179],[6.258306,49.823884],[6.256135,49.828096],[6.257996,49.832798],[6.263887,49.841092],[6.269623,49.844968],[6.277064,49.847087],[6.295203,49.848586],[6.295568,49.848616],[6.291533,49.855563],[6.29105377396,49.856115107914],[6.160962072155,49.856115107914],[6.160962072155,49.823236217903]]],"type":"Polygon"},"id":4,"properties":{"parentKey":"LUX:1159310951","sourceCountryId":"LUX","syntheticOperational":true,"territoryId":"territory:catalog:497c02afed8ff1e4945010b94ca1c2457424598c06745566fdecc64bed4da8c8"},"type":"Feature"},{"geometry":{"coordinates":[[[6.138248847926,49.495430309017],[6.193554,49.499409],[6.221976,49.497445],[6.249365,49.490314],[6.251117,49.48946],[6.247092,49.506126],[6.234845,49.540026],[6.233914,49.553565],[6.240891,49.56204],[6.273033,49.582349],[6.28063,49.584932],[6.298768,49.587542],[6.301249,49.593614],[6.299543,49.59842],[6.294428,49.602244],[6.289001,49.6055],[6.285126,49.609117],[6.287141,49.612631],[6.291172,49.615887],[6.312153,49.62723],[6.301387955073,49.640287769784],[6.160962072155,49.640287769784],[6.138248847926,49.640287769784],[6.138248847926,49.495430309017]]],"type":"Polygon"},"id":5,"properties":{"parentKey":"LUX:1159310955","sourceCountryId":"LUX","syntheticOperational":true,"territoryId":"territory:catalog:7a4545da72b9f35b8fb3fbbef1767ad89be4eabe53253737d81c96202b881add"},"type":"Feature"},{"geometry":{"coordinates":[[[5.790685,49.537753],[5.806451612903,49.524086494516],[5.806451612903,49.542653908786],[5.790685,49.537753]]],"type":"Polygon"},"id":6,"properties":{"parentKey":"LUX:1159310955","sourceCountryId":"LUX","syntheticOperational":true,"territoryId":"territory:catalog:3e7cdc67334b768c2c255033afeb5daa7785e079b34e163e5187d29e4457445a"},"type":"Feature"},{"geometry":{"coordinates":[[[5.806451612903,49.524086494516],[5.822104,49.510519],[5.839571,49.499874],[5.864686,49.492174],[5.928142643341,49.482304211009],[5.928144,49.482304],[5.946954,49.469953],[5.9607,49.441324],[5.978064,49.445097],[6.06333,49.448456],[6.078006,49.452021],[6.087721,49.461633],[6.099813,49.46463],[6.102087,49.470005],[6.101984,49.476413],[6.107255,49.48251],[6.114386,49.484371],[6.138248847926,49.485813004456],[6.138248847926,49.492224893707],[6.13609,49.495275],[6.138248847926,49.495430309017],[6.138248847926,49.640287769784],[5.883372004166,49.640287769784],[5.879878,49.634853],[5.869957,49.628858],[5.861998,49.62276],[5.849183,49.599713],[5.841224,49.589687],[5.829959,49.582763],[5.846909,49.576717],[5.8374,49.56111],[5.814456,49.545142],[5.806451612903,49.542653908786],[5.806451612903,49.524086494516]]],"type":"Polygon"},"id":7,"properties":{"parentKey":"LUX:1159310955","sourceCountryId":"LUX","syntheticOperational":true,"territoryId":"territory:catalog:94311b44671afaeb241271f48ff23a6b80033381854d22a7480771a462ca0dba"},"type":"Feature"},{"geometry":{"coordinates":[[[6.233914,49.553565],[6.234845,49.540026],[6.247092,49.506126],[6.251117,49.48946],[6.298768,49.466232],[6.325329,49.456724],[6.345307,49.455349],[6.34538,49.462718],[6.342279,49.493001],[6.348809,49.52529],[6.350754,49.53491],[6.350754,49.566588],[6.356438,49.577595],[6.371528,49.592995],[6.397573,49.613872],[6.407701,49.627411],[6.415246,49.634646],[6.417933,49.639142],[6.417771892365,49.640287769784],[6.301387955073,49.640287769784],[6.312153,49.62723],[6.291172,49.615887],[6.287141,49.612631],[6.285126,49.609117],[6.289001,49.6055],[6.294428,49.602244],[6.299543,49.59842],[6.301249,49.593614],[6.298768,49.587542],[6.28063,49.584932],[6.273033,49.582349],[6.240891,49.56204],[6.233914,49.553565]]],"type":"Polygon"},"id":8,"properties":{"parentKey":"LUX:1159310953","sourceCountryId":"LUX","syntheticOperational":true,"territoryId":"territory:catalog:31331fef5954125b6c74b3e87615f19d65cc20f62deba054fae93865695e9950"},"type":"Feature"},{"geometry":{"coordinates":[[[5.720198,49.824712],[5.721645,49.812775],[5.727743,49.800217],[5.738285,49.788848],[5.748414,49.785644],[5.759162,49.784456],[5.771875,49.779392],[5.778489,49.773035],[5.802054,49.742856],[5.803604,49.738154],[5.805774,49.724201],[5.805361,49.721876],[5.811769,49.718517],[5.825721,49.715778],[5.827937095282,49.714975474086],[5.827937095282,49.856115107914],[5.731945332565,49.856115107914],[5.73198,49.854167],[5.730533,49.85117],[5.728673,49.848845],[5.726916,49.845227],[5.736528,49.83944],[5.724642,49.834272],[5.720198,49.824712]]],"type":"Polygon"},"id":9,"properties":{"parentKey":"LUX:1159310951","sourceCountryId":"LUX","syntheticOperational":true,"territoryId":"territory:catalog:ae813979d756c1961eb287f4bb3f3e462531c125df55c9c87104c26da78962fb"},"type":"Feature"},{"geometry":{"coordinates":[[[6.160962072155,49.640287769784],[6.301387955073,49.640287769784],[6.295048,49.647978],[6.285591,49.674333],[6.278304,49.680224],[6.264817,49.68627],[6.251123,49.68875],[6.174642,49.689991],[6.220117,49.736913],[6.228333,49.741874],[6.241046,49.747093],[6.248022,49.746266],[6.262957,49.74668],[6.274584,49.770089],[6.272568,49.77306],[6.266987,49.777065],[6.262181,49.779081],[6.246317,49.790553],[6.214536,49.799906],[6.193865,49.812412],[6.184718,49.819388],[6.160962072155,49.823236217903],[6.160962072155,49.640287769784]]],"type":"Polygon"},"id":10,"properties":{"parentKey":"LUX:1159310955","sourceCountryId":"LUX","syntheticOperational":true,"territoryId":"territory:catalog:9fe5bf3a5aa8dd7d998b9ee7bec51c076e66a33da1752c938c231f86c0f17d5f"},"type":"Feature"},{"geometry":{"coordinates":[[[6.493987049029,49.713670542854],[6.499686,49.712212],[6.493987049029,49.717167018925],[6.493987049029,49.713670542854]]],"type":"Polygon"},"id":11,"properties":{"parentKey":"LUX:1159310953","sourceCountryId":"LUX","syntheticOperational":true,"territoryId":"territory:catalog:244ff633d54c285dabd3eab794b0884d023bd764ea27595528019529d7727897"},"type":"Feature"},{"geometry":{"coordinates":[[[5.865995214138,50.071942446043],[5.882352941176,50.071942446043],[5.882352941176,50.102717675407],[5.872437,50.096892],[5.86882,50.090535],[5.866856,50.074309],[5.865995214138,50.071942446043]]],"type":"Polygon"},"id":12,"properties":{"parentKey":"LUX:1159310951","sourceCountryId":"LUX","syntheticOperational":true,"territoryId":"territory:catalog:2a69d71a8e23d1703b181e1f8b92b2fc68ee1f514df6e84f278a5557a3dfcb13"},"type":"Feature"},{"geometry":{"coordinates":[[[6.493987049029,49.764513275431],[6.498549,49.785386],[6.499996,49.786058],[6.500099,49.794481],[6.502269,49.795876],[6.502579,49.79567],[6.497205,49.799442],[6.493987049029,49.799569013598],[6.493987049029,49.764513275431]]],"type":"Polygon"},"id":13,"properties":{"parentKey":"LUX:1159310953","sourceCountryId":"LUX","syntheticOperational":true,"territoryId":"territory:catalog:062f3d068c092d76915b32e1fac205c058ecb36be57f1e3993717ddd320a570a"},"type":"Feature"},{"geometry":{"coordinates":[[[6.493987049029,49.747105105109],[6.495965,49.748231],[6.496378,49.752106],[6.493987049029,49.756061257561],[6.493987049029,49.747105105109]]],"type":"Polygon"},"id":14,"properties":{"parentKey":"LUX:1159310953","sourceCountryId":"LUX","syntheticOperational":true,"territoryId":"territory:catalog:465484ce4b33db66ea04fab83ed3de3ee4977b4412cbfbd7c69f2a9576dbc060"},"type":"Feature"},{"geometry":{"coordinates":[[[6.022304832714,49.856115107914],[6.160962072155,49.856115107914],[6.29105377396,49.856115107914],[6.286779,49.86104],[6.272206,49.867138],[6.238306,49.876905],[6.2227,49.887137],[6.189834,49.938297],[6.172677,49.956228],[6.161928,49.942482],[6.15397,49.951216],[6.138777,49.979328],[6.121517,49.996278],[6.117177,50.004391],[6.119967,50.015501],[6.113766,50.036378],[6.107255,50.044595],[6.096403,50.048626],[6.105704,50.060305],[6.109425,50.06356],[6.107151,50.063767],[6.101157,50.063405],[6.0994,50.064129],[6.101152133034,50.071942446043],[6.022304832714,50.071942446043],[6.022304832714,49.856115107914]]],"type":"Polygon"},"id":15,"properties":{"parentKey":"LUX:1159310951","sourceCountryId":"LUX","syntheticOperational":true,"territoryId":"territory:catalog:a5720ceda6e7a601d0c923e365be5cf3fc7c6eff883a2de8d5af0ea8ab8457d0"},"type":"Feature"},{"geometry":{"coordinates":[[[5.882352941176,50.071942446043],[6.022304832714,50.071942446043],[6.101152133034,50.071942446043],[6.105704,50.092241],[6.110562,50.105987],[6.117487,50.120456],[6.102604,50.124745],[6.10033,50.132652],[6.101467,50.142108],[6.097126,50.151307],[6.084207,50.159317],[6.076456,50.158645],[6.070048,50.154201],[6.061366,50.150738],[6.038628,50.148413],[6.027363,50.149447],[6.022967,50.15082],[6.014134,50.153581],[6.008036,50.160919],[6.004729,50.170479],[5.998321,50.174975],[5.982921,50.167068],[5.96163,50.165621],[5.953156,50.156371],[5.949021,50.142677],[5.941063,50.128311],[5.92618,50.118337],[5.888973,50.106607],[5.882352941176,50.102717675407],[5.882352941176,50.071942446043]]],"type":"Polygon"},"id":16,"properties":{"parentKey":"LUX:1159310951","sourceCountryId":"LUX","syntheticOperational":true,"territoryId":"territory:catalog:54827f1869fb04c4d741719ce78b5cb60a03dc04e59fc1f4b708f86d226d8b7a"},"type":"Feature"},{"geometry":{"coordinates":[[[5.842258,49.67392],[5.845772,49.666582],[5.852593,49.663223],[5.872644,49.661724],[5.879878,49.657745],[5.885459,49.643534],[5.883372004166,49.640287769784],[6.138248847926,49.640287769784],[6.160962072155,49.640287769784],[6.160962072155,49.823236217903],[6.157278,49.823833],[6.147356,49.8236],[6.113818,49.81758],[6.104517,49.819104],[6.095525,49.821895],[6.081056,49.828096],[6.069428,49.829724],[6.059817,49.82962],[6.043073,49.824453],[6.033772,49.817166],[6.031601,49.813006],[6.029121,49.806314],[6.018682,49.797374],[6.013721,49.79032],[6.001319,49.781251],[5.999303,49.775412],[5.998683,49.761252],[5.995118,49.7504],[5.993722,49.739445],[5.994032,49.728851],[5.959409,49.721565],[5.934294,49.713658],[5.919102,49.71092],[5.875952,49.709989],[5.856403,49.705807],[5.857347,49.70043],[5.853627,49.696296],[5.848769,49.69273],[5.847219,49.687201],[5.846702,49.68069],[5.843705,49.677486],[5.842258,49.67392]]],"type":"Polygon"},"id":17,"properties":{"parentKey":"LUX:1159310955","sourceCountryId":"LUX","syntheticOperational":true,"territoryId":"territory:catalog:e31e86500f5335b634ce0b9c79b03a599f3ec449ab4d46bc1f24da59773e43e5"},"type":"Feature"},{"geometry":{"coordinates":[[[5.714927,49.881866],[5.726709,49.878197],[5.748827,49.867293],[5.758129,49.858198],[5.731877,49.859955],[5.731945332565,49.856115107914],[5.827937095282,49.856115107914],[6.022304832714,49.856115107914],[6.022304832714,50.071942446043],[5.882352941176,50.071942446043],[5.865995214138,50.071942446043],[5.864375,50.067488],[5.858278,50.061803],[5.843705,50.053638],[5.83771,50.047437],[5.838847,50.035862],[5.838847,50.026457],[5.836367,50.01855],[5.829132,50.013589],[5.808875,50.007801],[5.802674,50.002479],[5.801537,49.988681],[5.808565,49.9831],[5.812596,49.977571],[5.80164,49.963825],[5.793372,49.958812],[5.778593,49.95659],[5.771565,49.953541],[5.76371,49.946823],[5.759989,49.941604],[5.757612,49.93654],[5.753581,49.930183],[5.718958,49.891374],[5.714927,49.881866]]],"type":"Polygon"},"id":18,"properties":{"parentKey":"LUX:1159310951","sourceCountryId":"LUX","syntheticOperational":true,"territoryId":"territory:catalog:52db7a8ca28495d981784663d3746877c3bd9c0a012a6cdcd9636b879308b0f1"},"type":"Feature"}],"type":"FeatureCollection"}
