{"type":"FeatureCollection","features":[{"type":"Feature","properties":{"countryId":"AFG","nameKo":"Kabul","nameEn":"Kabul","capitalType":"national","labelRank":3},"geometry":{"type":"Point","coordinates":[69.18131,34.51864]}},{"type":"Feature","properties":{"countryId":"AGO","nameKo":"Luanda","nameEn":"Luanda","capitalType":"national","labelRank":3},"geometry":{"type":"Point","coordinates":[13.23248,-8.83634]}},{"type":"Feature","properties":{"countryId":"ALB","nameKo":"Tirana","nameEn":"Tirana","capitalType":"national","labelRank":6},"geometry":{"type":"Point","coordinates":[19.81888,41.32754]}},{"type":"Feature","properties":{"countryId":"AND","nameKo":"안도라라베야","nameEn":"Andorra","capitalType":"national","labelRank":6},"geometry":{"type":"Point","coordinates":[1.52659,42.51075]}},{"type":"Feature","properties":{"countryId":"ARE","nameKo":"Abu Dhabi","nameEn":"Abu Dhabi","capitalType":"national","labelRank":4},"geometry":{"type":"Point","coordinates":[54.36659,24.46668]}},{"type":"Feature","properties":{"countryId":"ARG","nameKo":"Buenos Aires","nameEn":"Buenos Aires","capitalType":"national","labelRank":2},"geometry":{"type":"Point","coordinates":[-58.43251,-34.61071]}},{"type":"Feature","properties":{"countryId":"ARM","nameKo":"Yerevan","nameEn":"Yerevan","capitalType":"national","labelRank":6},"geometry":{"type":"Point","coordinates":[44.51161,40.1831]}},{"type":"Feature","properties":{"countryId":"ATG","nameKo":"Saint John's","nameEn":"Saint John's","capitalType":"national","labelRank":6},"geometry":{"type":"Point","coordinates":[-61.85003,17.11804]}},{"type":"Feature","properties":{"countryId":"AUS","nameKo":"캔버라","nameEn":"Canberra","capitalType":"national","labelRank":2},"geometry":{"type":"Point","coordinates":[149.12903,-35.28303]}},{"type":"Feature","properties":{"countryId":"AUT","nameKo":"Vienna","nameEn":"Vienna","capitalType":"national","labelRank":4},"geometry":{"type":"Point","coordinates":[16.36469,48.20196]}},{"type":"Feature","properties":{"countryId":"AZE","nameKo":"Baku","nameEn":"Baku","capitalType":"national","labelRank":5},"geometry":{"type":"Point","coordinates":[49.86027,40.39722]}},{"type":"Feature","properties":{"countryId":"BDI","nameKo":"Bujumbura","nameEn":"Bujumbura","capitalType":"national","labelRank":6},"geometry":{"type":"Point","coordinates":[29.36001,-3.37609]}},{"type":"Feature","properties":{"countryId":"BEL","nameKo":"Brussels","nameEn":"Brussels","capitalType":"national","labelRank":2},"geometry":{"type":"Point","coordinates":[4.33137,50.83526]}},{"type":"Feature","properties":{"countryId":"BEN","nameKo":"Cotonou","nameEn":"Cotonou","capitalType":"national","labelRank":5},"geometry":{"type":"Point","coordinates":[2.40435,6.36298]}},{"type":"Feature","properties":{"countryId":"BFA","nameKo":"Ouagadougou","nameEn":"Ouagadougou","capitalType":"national","labelRank":3},"geometry":{"type":"Point","coordinates":[-1.52667,12.37226]}},{"type":"Feature","properties":{"countryId":"BGD","nameKo":"Dhaka","nameEn":"Dhaka","capitalType":"national","labelRank":3},"geometry":{"type":"Point","coordinates":[90.40663,23.72501]}},{"type":"Feature","properties":{"countryId":"BGR","nameKo":"Sofia","nameEn":"Sofia","capitalType":"national","labelRank":4},"geometry":{"type":"Point","coordinates":[23.31471,42.6853]}},{"type":"Feature","properties":{"countryId":"BHR","nameKo":"마나마","nameEn":"Manama","capitalType":"national","labelRank":4},"geometry":{"type":"Point","coordinates":[50.58305,26.23614]}},{"type":"Feature","properties":{"countryId":"BHS","nameKo":"Nassau","nameEn":"Nassau","capitalType":"national","labelRank":4},"geometry":{"type":"Point","coordinates":[-77.35004,25.08339]}},{"type":"Feature","properties":{"countryId":"BIH","nameKo":"Sarajevo","nameEn":"Sarajevo","capitalType":"national","labelRank":5},"geometry":{"type":"Point","coordinates":[18.383,43.85002]}},{"type":"Feature","properties":{"countryId":"BLR","nameKo":"Minsk","nameEn":"Minsk","capitalType":"national","labelRank":4},"geometry":{"type":"Point","coordinates":[27.56468,53.90192]}},{"type":"Feature","properties":{"countryId":"BLZ","nameKo":"Belmopan","nameEn":"Belmopan","capitalType":"national","labelRank":6},"geometry":{"type":"Point","coordinates":[-88.76707,17.25203]}},{"type":"Feature","properties":{"countryId":"BMU","nameKo":"Hamilton","nameEn":"Hamilton","capitalType":"national","labelRank":6},"geometry":{"type":"Point","coordinates":[-64.78394,32.29419]}},{"type":"Feature","properties":{"countryId":"BOL","nameKo":"Sucre","nameEn":"Sucre","capitalType":"national","labelRank":3},"geometry":{"type":"Point","coordinates":[-65.25952,-19.04097]}},{"type":"Feature","properties":{"countryId":"BRA","nameKo":"브라질리아","nameEn":"Brasilia","capitalType":"national","labelRank":2},"geometry":{"type":"Point","coordinates":[-47.918,-15.78139]}},{"type":"Feature","properties":{"countryId":"BRB","nameKo":"Bridgetown","nameEn":"Bridgetown","capitalType":"national","labelRank":5},"geometry":{"type":"Point","coordinates":[-59.61653,13.102]}},{"type":"Feature","properties":{"countryId":"BRN","nameKo":"Bandar Seri Begawan","nameEn":"Bandar Seri Begawan","capitalType":"national","labelRank":6},"geometry":{"type":"Point","coordinates":[114.93328,4.88333]}},{"type":"Feature","properties":{"countryId":"BTN","nameKo":"Thimphu","nameEn":"Thimphu","capitalType":"national","labelRank":5},"geometry":{"type":"Point","coordinates":[89.63901,27.47299]}},{"type":"Feature","properties":{"countryId":"BWA","nameKo":"Gaborone","nameEn":"Gaborone","capitalType":"national","labelRank":4},"geometry":{"type":"Point","coordinates":[25.91195,-24.64631]}},{"type":"Feature","properties":{"countryId":"CAF","nameKo":"Bangui","nameEn":"Bangui","capitalType":"national","labelRank":4},"geometry":{"type":"Point","coordinates":[18.55829,4.36664]}},{"type":"Feature","properties":{"countryId":"CAN","nameKo":"오타와","nameEn":"Ottawa","capitalType":"national","labelRank":2},"geometry":{"type":"Point","coordinates":[-75.70196,45.41864]}},{"type":"Feature","properties":{"countryId":"CHE","nameKo":"Bern","nameEn":"Bern","capitalType":"national","labelRank":4},"geometry":{"type":"Point","coordinates":[7.46698,46.91668]}},{"type":"Feature","properties":{"countryId":"CHL","nameKo":"Santiago","nameEn":"Santiago","capitalType":"national","labelRank":2},"geometry":{"type":"Point","coordinates":[-70.6505,-33.4402]}},{"type":"Feature","properties":{"countryId":"CHN","nameKo":"베이징","nameEn":"Beijing","capitalType":"national","labelRank":2},"geometry":{"type":"Point","coordinates":[116.3942,39.90172]}},{"type":"Feature","properties":{"countryId":"CIV","nameKo":"Yamoussoukro","nameEn":"Yamoussoukro","capitalType":"national","labelRank":3},"geometry":{"type":"Point","coordinates":[-5.2755,6.81838]}},{"type":"Feature","properties":{"countryId":"CMR","nameKo":"Yaounde","nameEn":"Yaounde","capitalType":"national","labelRank":3},"geometry":{"type":"Point","coordinates":[11.51471,3.86865]}},{"type":"Feature","properties":{"countryId":"COD","nameKo":"Kinshasa","nameEn":"Kinshasa","capitalType":"national","labelRank":2},"geometry":{"type":"Point","coordinates":[15.31303,-4.32778]}},{"type":"Feature","properties":{"countryId":"COG","nameKo":"Brazzaville","nameEn":"Brazzaville","capitalType":"national","labelRank":4},"geometry":{"type":"Point","coordinates":[15.28274,-4.25724]}},{"type":"Feature","properties":{"countryId":"COL","nameKo":"Bogota","nameEn":"Bogota","capitalType":"national","labelRank":2},"geometry":{"type":"Point","coordinates":[-74.08529,4.59837]}},{"type":"Feature","properties":{"countryId":"COM","nameKo":"Moroni","nameEn":"Moroni","capitalType":"national","labelRank":6},"geometry":{"type":"Point","coordinates":[43.24024,-11.70416]}},{"type":"Feature","properties":{"countryId":"CPV","nameKo":"Praia","nameEn":"Praia","capitalType":"national","labelRank":4},"geometry":{"type":"Point","coordinates":[-23.51669,14.9167]}},{"type":"Feature","properties":{"countryId":"CRI","nameKo":"San Jose","nameEn":"San Jose","capitalType":"national","labelRank":5},"geometry":{"type":"Point","coordinates":[-84.07881,9.93037]}},{"type":"Feature","properties":{"countryId":"CUB","nameKo":"Havana","nameEn":"Havana","capitalType":"national","labelRank":3},"geometry":{"type":"Point","coordinates":[-82.36613,23.13391]}},{"type":"Feature","properties":{"countryId":"CYP","nameKo":"Nicosia","nameEn":"Nicosia","capitalType":"national","labelRank":5},"geometry":{"type":"Point","coordinates":[33.36664,35.16668]}},{"type":"Feature","properties":{"countryId":"CZE","nameKo":"Prague","nameEn":"Prague","capitalType":"national","labelRank":5},"geometry":{"type":"Point","coordinates":[14.42294,50.08697]}},{"type":"Feature","properties":{"countryId":"DEU","nameKo":"베를린","nameEn":"Berlin","capitalType":"national","labelRank":2},"geometry":{"type":"Point","coordinates":[13.3996,52.52376]}},{"type":"Feature","properties":{"countryId":"DJI","nameKo":"Djibouti","nameEn":"Djibouti","capitalType":"national","labelRank":5},"geometry":{"type":"Point","coordinates":[43.148,11.59501]}},{"type":"Feature","properties":{"countryId":"DMA","nameKo":"Roseau","nameEn":"Roseau","capitalType":"national","labelRank":6},"geometry":{"type":"Point","coordinates":[-61.38701,15.30102]}},{"type":"Feature","properties":{"countryId":"DNK","nameKo":"Kobenhavn","nameEn":"Kobenhavn","capitalType":"national","labelRank":4},"geometry":{"type":"Point","coordinates":[12.56154,55.68051]}},{"type":"Feature","properties":{"countryId":"DOM","nameKo":"Santo Domingo","nameEn":"Santo Domingo","capitalType":"national","labelRank":5},"geometry":{"type":"Point","coordinates":[-69.92974,18.47075]}},{"type":"Feature","properties":{"countryId":"DZA","nameKo":"Algiers","nameEn":"Algiers","capitalType":"national","labelRank":3},"geometry":{"type":"Point","coordinates":[3.04861,36.76501]}},{"type":"Feature","properties":{"countryId":"ECU","nameKo":"Quito","nameEn":"Quito","capitalType":"national","labelRank":3},"geometry":{"type":"Point","coordinates":[-78.502,-0.21304]}},{"type":"Feature","properties":{"countryId":"EGY","nameKo":"Cairo","nameEn":"Cairo","capitalType":"national","labelRank":2},"geometry":{"type":"Point","coordinates":[31.24802,30.05191]}},{"type":"Feature","properties":{"countryId":"ERI","nameKo":"Asmara","nameEn":"Asmara","capitalType":"national","labelRank":4},"geometry":{"type":"Point","coordinates":[38.93332,15.33334]}},{"type":"Feature","properties":{"countryId":"ESP","nameKo":"마드리드","nameEn":"Madrid","capitalType":"national","labelRank":2},"geometry":{"type":"Point","coordinates":[-3.6853,40.40197]}},{"type":"Feature","properties":{"countryId":"EST","nameKo":"Tallinn","nameEn":"Tallinn","capitalType":"national","labelRank":6},"geometry":{"type":"Point","coordinates":[24.72804,59.43388]}},{"type":"Feature","properties":{"countryId":"ETH","nameKo":"Addis Ababa","nameEn":"Addis Ababa","capitalType":"national","labelRank":2},"geometry":{"type":"Point","coordinates":[38.69806,9.03526]}},{"type":"Feature","properties":{"countryId":"FIN","nameKo":"Helsinki","nameEn":"Helsinki","capitalType":"national","labelRank":3},"geometry":{"type":"Point","coordinates":[24.93246,60.1638]}},{"type":"Feature","properties":{"countryId":"FJI","nameKo":"Suva","nameEn":"Suva","capitalType":"national","labelRank":6},"geometry":{"type":"Point","coordinates":[178.44171,-18.13302]}},{"type":"Feature","properties":{"countryId":"FRA","nameKo":"파리","nameEn":"Paris","capitalType":"national","labelRank":2},"geometry":{"type":"Point","coordinates":[2.35299,48.85809]}},{"type":"Feature","properties":{"countryId":"FSM","nameKo":"Palikir","nameEn":"Palikir","capitalType":"national","labelRank":6},"geometry":{"type":"Point","coordinates":[158.14997,6.91664]}},{"type":"Feature","properties":{"countryId":"GAB","nameKo":"Libreville","nameEn":"Libreville","capitalType":"national","labelRank":4},"geometry":{"type":"Point","coordinates":[9.45797,0.38539]}},{"type":"Feature","properties":{"countryId":"GBR","nameKo":"런던","nameEn":"London","capitalType":"national","labelRank":2},"geometry":{"type":"Point","coordinates":[-0.11867,51.50194]}},{"type":"Feature","properties":{"countryId":"GEO","nameKo":"Tbilisi","nameEn":"Tbilisi","capitalType":"national","labelRank":5},"geometry":{"type":"Point","coordinates":[44.78885,41.72696]}},{"type":"Feature","properties":{"countryId":"GHA","nameKo":"Accra","nameEn":"Accra","capitalType":"national","labelRank":3},"geometry":{"type":"Point","coordinates":[-0.21866,5.55198]}},{"type":"Feature","properties":{"countryId":"GIN","nameKo":"Conakry","nameEn":"Conakry","capitalType":"national","labelRank":3},"geometry":{"type":"Point","coordinates":[-13.68218,9.53347]}},{"type":"Feature","properties":{"countryId":"GMB","nameKo":"Banjul","nameEn":"Banjul","capitalType":"national","labelRank":6},"geometry":{"type":"Point","coordinates":[-16.5917,13.45388]}},{"type":"Feature","properties":{"countryId":"GNB","nameKo":"Bissau","nameEn":"Bissau","capitalType":"national","labelRank":6},"geometry":{"type":"Point","coordinates":[-15.59836,11.86502]}},{"type":"Feature","properties":{"countryId":"GNQ","nameKo":"Malabo","nameEn":"Malabo","capitalType":"national","labelRank":4},"geometry":{"type":"Point","coordinates":[8.78328,3.75002]}},{"type":"Feature","properties":{"countryId":"GRC","nameKo":"Athens","nameEn":"Athens","capitalType":"national","labelRank":3},"geometry":{"type":"Point","coordinates":[23.73138,37.98527]}},{"type":"Feature","properties":{"countryId":"GRD","nameKo":"Saint George's","nameEn":"Saint George's","capitalType":"national","labelRank":6},"geometry":{"type":"Point","coordinates":[-61.74164,12.05263]}},{"type":"Feature","properties":{"countryId":"GTM","nameKo":"Guatemala","nameEn":"Guatemala","capitalType":"national","labelRank":3},"geometry":{"type":"Point","coordinates":[-90.52891,14.62308]}},{"type":"Feature","properties":{"countryId":"GUY","nameKo":"Georgetown","nameEn":"Georgetown","capitalType":"national","labelRank":4},"geometry":{"type":"Point","coordinates":[-58.16703,6.80197]}},{"type":"Feature","properties":{"countryId":"HND","nameKo":"Tegucigalpa","nameEn":"Tegucigalpa","capitalType":"national","labelRank":5},"geometry":{"type":"Point","coordinates":[-87.21947,14.10399]}},{"type":"Feature","properties":{"countryId":"HRV","nameKo":"Zagreb","nameEn":"Zagreb","capitalType":"national","labelRank":6},"geometry":{"type":"Point","coordinates":[16,45.80001]}},{"type":"Feature","properties":{"countryId":"HTI","nameKo":"Port-au-Prince","nameEn":"Port-au-Prince","capitalType":"national","labelRank":5},"geometry":{"type":"Point","coordinates":[-72.33798,18.54297]}},{"type":"Feature","properties":{"countryId":"HUN","nameKo":"Budapest","nameEn":"Budapest","capitalType":"national","labelRank":5},"geometry":{"type":"Point","coordinates":[19.08138,47.50195]}},{"type":"Feature","properties":{"countryId":"IDN","nameKo":"Jakarta","nameEn":"Jakarta","capitalType":"national","labelRank":2},"geometry":{"type":"Point","coordinates":[106.82749,-6.17247]}},{"type":"Feature","properties":{"countryId":"IND","nameKo":"뉴델리","nameEn":"New Delhi","capitalType":"national","labelRank":2},"geometry":{"type":"Point","coordinates":[77.19998,28.60002]}},{"type":"Feature","properties":{"countryId":"IRL","nameKo":"Dublin","nameEn":"Dublin","capitalType":"national","labelRank":3},"geometry":{"type":"Point","coordinates":[-6.25698,53.34673]}},{"type":"Feature","properties":{"countryId":"IRN","nameKo":"Tehran","nameEn":"Tehran","capitalType":"national","labelRank":2},"geometry":{"type":"Point","coordinates":[51.4224,35.67389]}},{"type":"Feature","properties":{"countryId":"IRQ","nameKo":"Baghdad","nameEn":"Baghdad","capitalType":"national","labelRank":3},"geometry":{"type":"Point","coordinates":[44.39192,33.34059]}},{"type":"Feature","properties":{"countryId":"ISL","nameKo":"Reykjavik","nameEn":"Reykjavik","capitalType":"national","labelRank":3},"geometry":{"type":"Point","coordinates":[-21.93655,64.14346]}},{"type":"Feature","properties":{"countryId":"ISR","nameKo":"Jerusalem","nameEn":"Jerusalem","capitalType":"national","labelRank":4},"geometry":{"type":"Point","coordinates":[35.20663,31.77841]}},{"type":"Feature","properties":{"countryId":"ITA","nameKo":"로마","nameEn":"Rome","capitalType":"national","labelRank":2},"geometry":{"type":"Point","coordinates":[12.48131,41.8979]}},{"type":"Feature","properties":{"countryId":"JAM","nameKo":"Kingston","nameEn":"Kingston","capitalType":"national","labelRank":4},"geometry":{"type":"Point","coordinates":[-76.76743,17.97708]}},{"type":"Feature","properties":{"countryId":"JOR","nameKo":"Amman","nameEn":"Amman","capitalType":"national","labelRank":4},"geometry":{"type":"Point","coordinates":[35.93135,31.95197]}},{"type":"Feature","properties":{"countryId":"JPN","nameKo":"도쿄","nameEn":"Tokyo","capitalType":"national","labelRank":2},"geometry":{"type":"Point","coordinates":[139.74946,35.68696]}},{"type":"Feature","properties":{"countryId":"KAZ","nameKo":"Astana","nameEn":"Astana","capitalType":"national","labelRank":3},"geometry":{"type":"Point","coordinates":[71.42777,51.18113]}},{"type":"Feature","properties":{"countryId":"KEN","nameKo":"Nairobi","nameEn":"Nairobi","capitalType":"national","labelRank":2},"geometry":{"type":"Point","coordinates":[36.81471,-1.2814]}},{"type":"Feature","properties":{"countryId":"KGZ","nameKo":"Bishkek","nameEn":"Bishkek","capitalType":"national","labelRank":4},"geometry":{"type":"Point","coordinates":[74.58326,42.87503]}},{"type":"Feature","properties":{"countryId":"KHM","nameKo":"Phnom Penh","nameEn":"Phnom Penh","capitalType":"national","labelRank":3},"geometry":{"type":"Point","coordinates":[104.91469,11.55198]}},{"type":"Feature","properties":{"countryId":"KIR","nameKo":"Tarawa","nameEn":"Tarawa","capitalType":"national","labelRank":6},"geometry":{"type":"Point","coordinates":[173.01757,1.33819]}},{"type":"Feature","properties":{"countryId":"KNA","nameKo":"Basseterre","nameEn":"Basseterre","capitalType":"national","labelRank":6},"geometry":{"type":"Point","coordinates":[-62.71701,17.30203]}},{"type":"Feature","properties":{"countryId":"KOR","nameKo":"서울","nameEn":"Seoul","capitalType":"national","labelRank":2},"geometry":{"type":"Point","coordinates":[126.99779,37.5683]}},{"type":"Feature","properties":{"countryId":"KWT","nameKo":"Kuwait City","nameEn":"Kuwait City","capitalType":"national","labelRank":6},"geometry":{"type":"Point","coordinates":[47.97636,29.37166]}},{"type":"Feature","properties":{"countryId":"LAO","nameKo":"Vientiane","nameEn":"Vientiane","capitalType":"national","labelRank":4},"geometry":{"type":"Point","coordinates":[102.59998,17.96669]}},{"type":"Feature","properties":{"countryId":"LBN","nameKo":"Beirut","nameEn":"Beirut","capitalType":"national","labelRank":5},"geometry":{"type":"Point","coordinates":[35.50776,33.87392]}},{"type":"Feature","properties":{"countryId":"LBR","nameKo":"Monrovia","nameEn":"Monrovia","capitalType":"national","labelRank":4},"geometry":{"type":"Point","coordinates":[-10.79966,6.31458]}},{"type":"Feature","properties":{"countryId":"LBY","nameKo":"Tripoli","nameEn":"Tripoli","capitalType":"national","labelRank":3},"geometry":{"type":"Point","coordinates":[13.18001,32.8925]}},{"type":"Feature","properties":{"countryId":"LCA","nameKo":"Castries","nameEn":"Castries","capitalType":"national","labelRank":6},"geometry":{"type":"Point","coordinates":[-60.99287,14.00788]}},{"type":"Feature","properties":{"countryId":"LIE","nameKo":"파두츠","nameEn":"Vaduz","capitalType":"national","labelRank":6},"geometry":{"type":"Point","coordinates":[9.51667,47.13372]}},{"type":"Feature","properties":{"countryId":"LKA","nameKo":"Colombo","nameEn":"Colombo","capitalType":"national","labelRank":3},"geometry":{"type":"Point","coordinates":[79.85775,6.93197]}},{"type":"Feature","properties":{"countryId":"LSO","nameKo":"Maseru","nameEn":"Maseru","capitalType":"national","labelRank":6},"geometry":{"type":"Point","coordinates":[27.48327,-29.31667]}},{"type":"Feature","properties":{"countryId":"LTU","nameKo":"Vilnius","nameEn":"Vilnius","capitalType":"national","labelRank":5},"geometry":{"type":"Point","coordinates":[25.31664,54.68337]}},{"type":"Feature","properties":{"countryId":"LUX","nameKo":"Luxembourg","nameEn":"Luxembourg","capitalType":"national","labelRank":6},"geometry":{"type":"Point","coordinates":[6.13,49.61166]}},{"type":"Feature","properties":{"countryId":"LVA","nameKo":"Riga","nameEn":"Riga","capitalType":"national","labelRank":5},"geometry":{"type":"Point","coordinates":[24.09997,56.95002]}},{"type":"Feature","properties":{"countryId":"MAR","nameKo":"Rabat","nameEn":"Rabat","capitalType":"national","labelRank":3},"geometry":{"type":"Point","coordinates":[-6.83641,34.02531]}},{"type":"Feature","properties":{"countryId":"MCO","nameKo":"모나코","nameEn":"Monaco","capitalType":"national","labelRank":6},"geometry":{"type":"Point","coordinates":[7.40691,43.73965]}},{"type":"Feature","properties":{"countryId":"MDA","nameKo":"Chisinau","nameEn":"Chisinau","capitalType":"national","labelRank":6},"geometry":{"type":"Point","coordinates":[28.85771,47.00502]}},{"type":"Feature","properties":{"countryId":"MDG","nameKo":"Antananarivo","nameEn":"Antananarivo","capitalType":"national","labelRank":3},"geometry":{"type":"Point","coordinates":[47.51468,-18.91469]}},{"type":"Feature","properties":{"countryId":"MDV","nameKo":"말레","nameEn":"Male","capitalType":"national","labelRank":5},"geometry":{"type":"Point","coordinates":[73.5089,4.17204]}},{"type":"Feature","properties":{"countryId":"MEX","nameKo":"Mexico City","nameEn":"Mexico City","capitalType":"national","labelRank":2},"geometry":{"type":"Point","coordinates":[-99.13293,19.44439]}},{"type":"Feature","properties":{"countryId":"MHL","nameKo":"Majuro","nameEn":"Majuro","capitalType":"national","labelRank":6},"geometry":{"type":"Point","coordinates":[171.38,7.103]}},{"type":"Feature","properties":{"countryId":"MKD","nameKo":"Skopje","nameEn":"Skopje","capitalType":"national","labelRank":6},"geometry":{"type":"Point","coordinates":[21.43346,42.00001]}},{"type":"Feature","properties":{"countryId":"MLI","nameKo":"Bamako","nameEn":"Bamako","capitalType":"national","labelRank":3},"geometry":{"type":"Point","coordinates":[-8.00198,12.65196]}},{"type":"Feature","properties":{"countryId":"MLT","nameKo":"발레타","nameEn":"Valletta","capitalType":"national","labelRank":5},"geometry":{"type":"Point","coordinates":[14.51471,35.89973]}},{"type":"Feature","properties":{"countryId":"MMR","nameKo":"Naypyidaw","nameEn":"Naypyidaw","capitalType":"national","labelRank":3},"geometry":{"type":"Point","coordinates":[96.11667,19.7685]}},{"type":"Feature","properties":{"countryId":"MNE","nameKo":"Podgorica","nameEn":"Podgorica","capitalType":"national","labelRank":6},"geometry":{"type":"Point","coordinates":[19.26631,42.46597]}},{"type":"Feature","properties":{"countryId":"MNG","nameKo":"Ulaanbaatar","nameEn":"Ulaanbaatar","capitalType":"national","labelRank":3},"geometry":{"type":"Point","coordinates":[106.91467,47.91862]}},{"type":"Feature","properties":{"countryId":"MOZ","nameKo":"Maputo","nameEn":"Maputo","capitalType":"national","labelRank":3},"geometry":{"type":"Point","coordinates":[32.58722,-25.95333]}},{"type":"Feature","properties":{"countryId":"MRT","nameKo":"Nouakchott","nameEn":"Nouakchott","capitalType":"national","labelRank":3},"geometry":{"type":"Point","coordinates":[-15.97534,18.08643]}},{"type":"Feature","properties":{"countryId":"MUS","nameKo":"Port Louis","nameEn":"Port Louis","capitalType":"national","labelRank":5},"geometry":{"type":"Point","coordinates":[57.49999,-20.16664]}},{"type":"Feature","properties":{"countryId":"MWI","nameKo":"Lilongwe","nameEn":"Lilongwe","capitalType":"national","labelRank":6},"geometry":{"type":"Point","coordinates":[33.7833,-13.98329]}},{"type":"Feature","properties":{"countryId":"MYS","nameKo":"Kuala Lumpur","nameEn":"Kuala Lumpur","capitalType":"national","labelRank":3},"geometry":{"type":"Point","coordinates":[101.6887,3.1398]}},{"type":"Feature","properties":{"countryId":"NAM","nameKo":"Windhoek","nameEn":"Windhoek","capitalType":"national","labelRank":3},"geometry":{"type":"Point","coordinates":[17.08355,-22.57001]}},{"type":"Feature","properties":{"countryId":"NER","nameKo":"Niamey","nameEn":"Niamey","capitalType":"national","labelRank":3},"geometry":{"type":"Point","coordinates":[2.11471,13.51865]}},{"type":"Feature","properties":{"countryId":"NGA","nameKo":"Abuja","nameEn":"Abuja","capitalType":"national","labelRank":2},"geometry":{"type":"Point","coordinates":[7.48951,9.05462]}},{"type":"Feature","properties":{"countryId":"NIC","nameKo":"Managua","nameEn":"Managua","capitalType":"national","labelRank":5},"geometry":{"type":"Point","coordinates":[-86.27044,12.15496]}},{"type":"Feature","properties":{"countryId":"NLD","nameKo":"Amsterdam","nameEn":"Amsterdam","capitalType":"national","labelRank":5},"geometry":{"type":"Point","coordinates":[4.91469,52.35191]}},{"type":"Feature","properties":{"countryId":"NOR","nameKo":"Oslo","nameEn":"Oslo","capitalType":"national","labelRank":3},"geometry":{"type":"Point","coordinates":[10.74803,59.91864]}},{"type":"Feature","properties":{"countryId":"NPL","nameKo":"Kathmandu","nameEn":"Kathmandu","capitalType":"national","labelRank":3},"geometry":{"type":"Point","coordinates":[85.3147,27.71864]}},{"type":"Feature","properties":{"countryId":"NZL","nameKo":"Wellington","nameEn":"Wellington","capitalType":"national","labelRank":2},"geometry":{"type":"Point","coordinates":[174.7772,-41.29207]}},{"type":"Feature","properties":{"countryId":"OMN","nameKo":"Muscat","nameEn":"Muscat","capitalType":"national","labelRank":4},"geometry":{"type":"Point","coordinates":[58.37831,23.58518]}},{"type":"Feature","properties":{"countryId":"PAK","nameKo":"Islamabad","nameEn":"Islamabad","capitalType":"national","labelRank":2},"geometry":{"type":"Point","coordinates":[73.08063,33.68937]}},{"type":"Feature","properties":{"countryId":"PAN","nameKo":"Panama City","nameEn":"Panama City","capitalType":"national","labelRank":4},"geometry":{"type":"Point","coordinates":[-79.53498,8.96996]}},{"type":"Feature","properties":{"countryId":"PER","nameKo":"Lima","nameEn":"Lima","capitalType":"national","labelRank":2},"geometry":{"type":"Point","coordinates":[-77.05201,-12.04607]}},{"type":"Feature","properties":{"countryId":"PHL","nameKo":"Manila","nameEn":"Manila","capitalType":"national","labelRank":2},"geometry":{"type":"Point","coordinates":[120.98027,14.60611]}},{"type":"Feature","properties":{"countryId":"PLW","nameKo":"Melekeok","nameEn":"Melekeok","capitalType":"national","labelRank":6},"geometry":{"type":"Point","coordinates":[134.62655,7.4874]}},{"type":"Feature","properties":{"countryId":"PNG","nameKo":"Port Moresby","nameEn":"Port Moresby","capitalType":"national","labelRank":2},"geometry":{"type":"Point","coordinates":[147.1925,-9.46471]}},{"type":"Feature","properties":{"countryId":"POL","nameKo":"Warsaw","nameEn":"Warsaw","capitalType":"national","labelRank":3},"geometry":{"type":"Point","coordinates":[21.00535,52.23087]}},{"type":"Feature","properties":{"countryId":"PRK","nameKo":"평양","nameEn":"Pyongyang","capitalType":"national","labelRank":3},"geometry":{"type":"Point","coordinates":[125.75275,39.02139]}},{"type":"Feature","properties":{"countryId":"PRT","nameKo":"Lisbon","nameEn":"Lisbon","capitalType":"national","labelRank":2},"geometry":{"type":"Point","coordinates":[-9.14681,38.72467]}},{"type":"Feature","properties":{"countryId":"PRY","nameKo":"Asuncion","nameEn":"Asuncion","capitalType":"national","labelRank":4},"geometry":{"type":"Point","coordinates":[-57.62583,-25.29067]}},{"type":"Feature","properties":{"countryId":"QAT","nameKo":"Doha","nameEn":"Doha","capitalType":"national","labelRank":5},"geometry":{"type":"Point","coordinates":[51.53297,25.28656]}},{"type":"Feature","properties":{"countryId":"ROU","nameKo":"Bucharest","nameEn":"Bucharest","capitalType":"national","labelRank":3},"geometry":{"type":"Point","coordinates":[26.098,44.43532]}},{"type":"Feature","properties":{"countryId":"RUS","nameKo":"모스크바","nameEn":"Moscow","capitalType":"national","labelRank":2},"geometry":{"type":"Point","coordinates":[37.61358,55.75411]}},{"type":"Feature","properties":{"countryId":"RWA","nameKo":"Kigali","nameEn":"Kigali","capitalType":"national","labelRank":3},"geometry":{"type":"Point","coordinates":[30.05859,-1.95164]}},{"type":"Feature","properties":{"countryId":"SAU","nameKo":"Riyadh","nameEn":"Riyadh","capitalType":"national","labelRank":2},"geometry":{"type":"Point","coordinates":[46.72049,24.6345]}},{"type":"Feature","properties":{"countryId":"SDN","nameKo":"Khartoum","nameEn":"Khartoum","capitalType":"national","labelRank":3},"geometry":{"type":"Point","coordinates":[32.53223,15.59002]}},{"type":"Feature","properties":{"countryId":"SEN","nameKo":"Dakar","nameEn":"Dakar","capitalType":"national","labelRank":3},"geometry":{"type":"Point","coordinates":[-17.47508,14.71778]}},{"type":"Feature","properties":{"countryId":"SGP","nameKo":"싱가포르","nameEn":"Singapore","capitalType":"national","labelRank":6},"geometry":{"type":"Point","coordinates":[103.85388,1.29498]}},{"type":"Feature","properties":{"countryId":"SLB","nameKo":"Honiara","nameEn":"Honiara","capitalType":"national","labelRank":3},"geometry":{"type":"Point","coordinates":[159.94977,-9.43799]}},{"type":"Feature","properties":{"countryId":"SLE","nameKo":"Freetown","nameEn":"Freetown","capitalType":"national","labelRank":4},"geometry":{"type":"Point","coordinates":[-13.23616,8.47196]}},{"type":"Feature","properties":{"countryId":"SLV","nameKo":"San Salvador","nameEn":"San Salvador","capitalType":"national","labelRank":6},"geometry":{"type":"Point","coordinates":[-89.21558,13.70328]}},{"type":"Feature","properties":{"countryId":"SMR","nameKo":"산마리노","nameEn":"San Marino","capitalType":"national","labelRank":6},"geometry":{"type":"Point","coordinates":[12.44177,43.9361]}},{"type":"Feature","properties":{"countryId":"SOL","nameKo":"Hargeysa","nameEn":"Hargeysa","capitalType":"national","labelRank":5},"geometry":{"type":"Point","coordinates":[44.06531,9.56002]}},{"type":"Feature","properties":{"countryId":"SOM","nameKo":"Mogadishu","nameEn":"Mogadishu","capitalType":"national","labelRank":6},"geometry":{"type":"Point","coordinates":[45.36473,2.06863]}},{"type":"Feature","properties":{"countryId":"SRB","nameKo":"Belgrade","nameEn":"Belgrade","capitalType":"national","labelRank":5},"geometry":{"type":"Point","coordinates":[20.46605,44.82059]}},{"type":"Feature","properties":{"countryId":"STP","nameKo":"Sao Tome","nameEn":"Sao Tome","capitalType":"national","labelRank":6},"geometry":{"type":"Point","coordinates":[6.72965,0.33747]}},{"type":"Feature","properties":{"countryId":"SUR","nameKo":"Paramaribo","nameEn":"Paramaribo","capitalType":"national","labelRank":4},"geometry":{"type":"Point","coordinates":[-55.16703,5.83503]}},{"type":"Feature","properties":{"countryId":"SVK","nameKo":"Bratislava","nameEn":"Bratislava","capitalType":"national","labelRank":6},"geometry":{"type":"Point","coordinates":[17.11698,48.15002]}},{"type":"Feature","properties":{"countryId":"SVN","nameKo":"Ljubljana","nameEn":"Ljubljana","capitalType":"national","labelRank":6},"geometry":{"type":"Point","coordinates":[14.51497,46.05529]}},{"type":"Feature","properties":{"countryId":"SWE","nameKo":"Stockholm","nameEn":"Stockholm","capitalType":"national","labelRank":3},"geometry":{"type":"Point","coordinates":[18.0663,59.32413]}},{"type":"Feature","properties":{"countryId":"SWZ","nameKo":"Mbabane","nameEn":"Mbabane","capitalType":"national","labelRank":4},"geometry":{"type":"Point","coordinates":[31.13334,-26.31665]}},{"type":"Feature","properties":{"countryId":"SYC","nameKo":"Victoria","nameEn":"Victoria","capitalType":"national","labelRank":6},"geometry":{"type":"Point","coordinates":[55.44999,-4.61663]}},{"type":"Feature","properties":{"countryId":"SYR","nameKo":"Damascus","nameEn":"Damascus","capitalType":"national","labelRank":3},"geometry":{"type":"Point","coordinates":[36.29805,33.50198]}},{"type":"Feature","properties":{"countryId":"TCD","nameKo":"Ndjamena","nameEn":"Ndjamena","capitalType":"national","labelRank":3},"geometry":{"type":"Point","coordinates":[15.0472,12.11504]}},{"type":"Feature","properties":{"countryId":"TGO","nameKo":"Lome","nameEn":"Lome","capitalType":"national","labelRank":6},"geometry":{"type":"Point","coordinates":[1.22081,6.13388]}},{"type":"Feature","properties":{"countryId":"THA","nameKo":"Bangkok","nameEn":"Bangkok","capitalType":"national","labelRank":3},"geometry":{"type":"Point","coordinates":[100.5147,13.75195]}},{"type":"Feature","properties":{"countryId":"TJK","nameKo":"Dushanbe","nameEn":"Dushanbe","capitalType":"national","labelRank":4},"geometry":{"type":"Point","coordinates":[68.77388,38.56004]}},{"type":"Feature","properties":{"countryId":"TKM","nameKo":"Ashgabat","nameEn":"Ashgabat","capitalType":"national","labelRank":4},"geometry":{"type":"Point","coordinates":[58.3833,37.95]}},{"type":"Feature","properties":{"countryId":"TLS","nameKo":"Dili","nameEn":"Dili","capitalType":"national","labelRank":5},"geometry":{"type":"Point","coordinates":[125.57946,-8.55939]}},{"type":"Feature","properties":{"countryId":"TON","nameKo":"Nukualofa","nameEn":"Nukualofa","capitalType":"national","labelRank":4},"geometry":{"type":"Point","coordinates":[-175.22056,-21.13851]}},{"type":"Feature","properties":{"countryId":"TTO","nameKo":"Port-of-Spain","nameEn":"Port-of-Spain","capitalType":"national","labelRank":5},"geometry":{"type":"Point","coordinates":[-61.51703,10.652]}},{"type":"Feature","properties":{"countryId":"TUN","nameKo":"Tunis","nameEn":"Tunis","capitalType":"national","labelRank":3},"geometry":{"type":"Point","coordinates":[10.17968,36.80278]}},{"type":"Feature","properties":{"countryId":"TUR","nameKo":"Ankara","nameEn":"Ankara","capitalType":"national","labelRank":2},"geometry":{"type":"Point","coordinates":[32.86245,39.92918]}},{"type":"Feature","properties":{"countryId":"TUV","nameKo":"Funafuti","nameEn":"Funafuti","capitalType":"national","labelRank":6},"geometry":{"type":"Point","coordinates":[179.21665,-8.51665]}},{"type":"Feature","properties":{"countryId":"TWN","nameKo":"Taipei","nameEn":"Taipei","capitalType":"national","labelRank":3},"geometry":{"type":"Point","coordinates":[121.56833,25.03583]}},{"type":"Feature","properties":{"countryId":"TZA","nameKo":"Dar es Salaam","nameEn":"Dar es Salaam","capitalType":"national","labelRank":3},"geometry":{"type":"Point","coordinates":[39.2664,-6.79807]}},{"type":"Feature","properties":{"countryId":"UGA","nameKo":"Kampala","nameEn":"Kampala","capitalType":"national","labelRank":3},"geometry":{"type":"Point","coordinates":[32.58138,0.31861]}},{"type":"Feature","properties":{"countryId":"UKR","nameKo":"Kiev","nameEn":"Kiev","capitalType":"national","labelRank":3},"geometry":{"type":"Point","coordinates":[30.51468,50.43531]}},{"type":"Feature","properties":{"countryId":"URY","nameKo":"Montevideo","nameEn":"Montevideo","capitalType":"national","labelRank":4},"geometry":{"type":"Point","coordinates":[-56.18682,-34.90538]}},{"type":"Feature","properties":{"countryId":"USA","nameKo":"워싱턴 D.C.","nameEn":"Washington, D.C.","capitalType":"national","labelRank":2},"geometry":{"type":"Point","coordinates":[-77.01136,38.90149]}},{"type":"Feature","properties":{"countryId":"UZB","nameKo":"Tashkent","nameEn":"Tashkent","capitalType":"national","labelRank":3},"geometry":{"type":"Point","coordinates":[69.26882,41.30383]}},{"type":"Feature","properties":{"countryId":"VAT","nameKo":"바티칸 시국","nameEn":"Vatican City","capitalType":"national","labelRank":6},"geometry":{"type":"Point","coordinates":[12.45339,41.90328]}},{"type":"Feature","properties":{"countryId":"VCT","nameKo":"Kingstown","nameEn":"Kingstown","capitalType":"national","labelRank":6},"geometry":{"type":"Point","coordinates":[-61.22024,13.15576]}},{"type":"Feature","properties":{"countryId":"VEN","nameKo":"Caracas","nameEn":"Caracas","capitalType":"national","labelRank":3},"geometry":{"type":"Point","coordinates":[-66.91898,10.50294]}},{"type":"Feature","properties":{"countryId":"VNM","nameKo":"Hanoi","nameEn":"Hanoi","capitalType":"national","labelRank":2},"geometry":{"type":"Point","coordinates":[105.84807,21.03527]}},{"type":"Feature","properties":{"countryId":"VUT","nameKo":"Port Vila","nameEn":"Port Vila","capitalType":"national","labelRank":4},"geometry":{"type":"Point","coordinates":[168.31664,-17.73335]}},{"type":"Feature","properties":{"countryId":"WSM","nameKo":"Apia","nameEn":"Apia","capitalType":"national","labelRank":4},"geometry":{"type":"Point","coordinates":[-171.7686,-13.83571]}},{"type":"Feature","properties":{"countryId":"XKX","nameKo":"Pristina","nameEn":"Pristina","capitalType":"national","labelRank":6},"geometry":{"type":"Point","coordinates":[21.16598,42.66671]}},{"type":"Feature","properties":{"countryId":"YEM","nameKo":"Sanaa","nameEn":"Sanaa","capitalType":"national","labelRank":3},"geometry":{"type":"Point","coordinates":[44.20465,15.35668]}},{"type":"Feature","properties":{"countryId":"ZAF","nameKo":"Bloemfontein","nameEn":"Bloemfontein","capitalType":"national","labelRank":2},"geometry":{"type":"Point","coordinates":[26.22991,-29.11999]}},{"type":"Feature","properties":{"countryId":"ZMB","nameKo":"Lusaka","nameEn":"Lusaka","capitalType":"national","labelRank":3},"geometry":{"type":"Point","coordinates":[28.28138,-15.4147]}},{"type":"Feature","properties":{"countryId":"ZWE","nameKo":"Harare","nameEn":"Harare","capitalType":"national","labelRank":3},"geometry":{"type":"Point","coordinates":[31.04276,-17.81584]}}]}
