{"type":"FeatureCollection","features":[{"type":"Feature","properties":{"countryId":"AND","nameKo":"안도라","playable":true},"geometry":{"type":"Point","coordinates":[1.52659,42.51075]}},{"type":"Feature","properties":{"countryId":"BHR","nameKo":"바레인","playable":true},"geometry":{"type":"Point","coordinates":[50.58305,26.23614]}},{"type":"Feature","properties":{"countryId":"CHN","nameKo":"중화인민공화국","playable":true},"geometry":{"type":"Point","coordinates":[116.3942,39.90172]}},{"type":"Feature","properties":{"countryId":"JPN","nameKo":"일본","playable":true},"geometry":{"type":"Point","coordinates":[139.74946,35.68696]}},{"type":"Feature","properties":{"countryId":"KOR","nameKo":"대한민국","playable":true},"geometry":{"type":"Point","coordinates":[126.99779,37.5683]}},{"type":"Feature","properties":{"countryId":"LIE","nameKo":"리히텐슈타인","playable":true},"geometry":{"type":"Point","coordinates":[9.51667,47.13372]}},{"type":"Feature","properties":{"countryId":"MCO","nameKo":"모나코","playable":true},"geometry":{"type":"Point","coordinates":[7.40691,43.73965]}},{"type":"Feature","properties":{"countryId":"MDV","nameKo":"몰디브","playable":true},"geometry":{"type":"Point","coordinates":[73.5089,4.17204]}},{"type":"Feature","properties":{"countryId":"MLT","nameKo":"몰타","playable":true},"geometry":{"type":"Point","coordinates":[14.51471,35.89973]}},{"type":"Feature","properties":{"countryId":"PRK","nameKo":"북한","playable":true},"geometry":{"type":"Point","coordinates":[125.75275,39.02139]}},{"type":"Feature","properties":{"countryId":"SGP","nameKo":"싱가포르","playable":true},"geometry":{"type":"Point","coordinates":[103.85388,1.29498]}},{"type":"Feature","properties":{"countryId":"SMR","nameKo":"산마리노","playable":true},"geometry":{"type":"Point","coordinates":[12.44177,43.9361]}},{"type":"Feature","properties":{"countryId":"USA","nameKo":"미합중국","playable":true},"geometry":{"type":"Point","coordinates":[-77.01136,38.90149]}},{"type":"Feature","properties":{"countryId":"VAT","nameKo":"바티칸 시국","playable":true},"geometry":{"type":"Point","coordinates":[12.45339,41.90328]}}]}
