{"features":[{"geometry":{"coordinates":[[[177.388927,-17.640558],[177.395681,-17.663018],[177.403982,-17.670587],[177.413259,-17.674086],[177.420584,-17.678318],[177.423513,-17.687595],[177.42449,-17.697524],[177.424558845377,-17.697841726619],[177.507866582756,-17.697841726619],[177.510999371465,-17.697841726619],[177.510999371465,-17.511089138942],[177.506358,-17.517836],[177.499278,-17.532647],[177.503917,-17.544529],[177.499522,-17.555759],[177.489594,-17.558852],[177.478201,-17.546319],[177.467459,-17.555352],[177.467133,-17.565362],[177.469005,-17.576349],[177.465099,-17.587986],[177.456554,-17.592706],[177.434337,-17.597914],[177.429698,-17.604669],[177.420421,-17.622328],[177.40211,-17.630548],[177.388927,-17.640558]]],"type":"Polygon"},"id":1,"properties":{"parentKey":"FJI:1159313271","sourceCountryId":"FJI","syntheticOperational":true,"territoryId":"territory:catalog:7da665e1ad3c43d711492ace0447bfb18bc932d464e28027d43c038a76e29358"},"type":"Feature"},{"geometry":{"coordinates":[[[178.754715839341,-16.618705035971],[178.799045649499,-16.618705035971],[178.797699,-16.606622],[178.788341,-16.596938],[178.773285,-16.603285],[178.754715839341,-16.618705035971]]],"type":"Polygon"},"id":2,"properties":{"parentKey":"FJI:1159313293","sourceCountryId":"FJI","syntheticOperational":true,"territoryId":"territory:catalog:418cb1ffd8d0fa4242d870ce7edb4b554f6bd4e83d256dcd7ee3682cfc5d7fea"},"type":"Feature"},{"geometry":{"coordinates":[[[177.281308999371,-17.913669064748],[177.506297229219,-17.913669064748],[177.507866582756,-17.913669064748],[177.507866582756,-17.697841726619],[177.424558845377,-17.697841726619],[177.428722,-17.717055],[177.429698,-17.728204],[177.431977,-17.736505],[177.435313,-17.743259],[177.434337,-17.750177],[177.423513,-17.75921],[177.416026,-17.759861],[177.38087,-17.750177],[177.374278,-17.747491],[177.370291,-17.749688],[177.368907,-17.762628],[177.368907,-17.797459],[177.370616,-17.807794],[177.372895,-17.815199],[177.37143,-17.823419],[177.361501,-17.834893],[177.354177,-17.838637],[177.327322,-17.848565],[177.282074,-17.851739],[177.281308999371,-17.852102605665],[177.281308999371,-17.913669064748]]],"type":"Polygon"},"id":3,"properties":{"parentKey":"FJI:1159313271","sourceCountryId":"FJI","syntheticOperational":true,"territoryId":"territory:catalog:706a0089e11a93ba58bbb4acffca2f657134fd4c1b6230ab1cd3f62ec2dcfb1a"},"type":"Feature"},{"geometry":{"coordinates":[[[177.128834355828,-12.501797126129],[177.12908,-12.501642],[177.128834355828,-12.500756906581],[177.128834355828,-12.501797126129]]],"type":"Polygon"},"id":4,"properties":{"parentKey":"FJI:1159313295","sourceCountryId":"FJI","syntheticOperational":true,"territoryId":"territory:catalog:74651465cfba9c87121b8e13c84b3ffe685257d7b2a686fe878f29146034a68d"},"type":"Feature"},{"geometry":{"coordinates":[[[179.774859287054,-16.724671670441],[179.780772,-16.72503],[179.802013,-16.717706],[179.812022,-16.731215],[179.826345,-16.737074],[179.862153,-16.738214],[179.857921,-16.751886],[179.863617,-16.764825],[179.875743,-16.769464],[179.890147,-16.758722],[179.895763,-16.761814],[179.910655,-16.766046],[179.907074,-16.760024],[179.899913,-16.744236],[179.896332,-16.738214],[179.926524,-16.749607],[179.941905,-16.752618],[179.951671,-16.745701],[179.949718,-16.730076],[179.935557,-16.720392],[179.917491,-16.716567],[179.903819,-16.717706],[179.901134,-16.694757],[179.891938,-16.675958],[179.875011,-16.664321],[179.848643,-16.662367],[179.86964,-16.635837],[179.873709,-16.634861],[179.886241,-16.636814],[179.890147,-16.635837],[179.891124,-16.63128],[179.889415,-16.619399],[179.889522623235,-16.618705035971],[179.775140537164,-16.618705035971],[179.774859287054,-16.618705035971],[179.774859287054,-16.724671670441]]],"type":"Polygon"},"id":5,"properties":{"parentKey":"FJI:1159313293","sourceCountryId":"FJI","syntheticOperational":true,"territoryId":"territory:catalog:c078b3e3dd226bdc2061f1e7c2e1a208324ae3e57381e510e7137afc089109f0"},"type":"Feature"},{"geometry":{"coordinates":[[[178.189817724701,-17.697841726619],[178.4140969163,-17.697841726619],[178.416090509114,-17.697841726619],[178.416090509114,-17.665386699344],[178.407333,-17.664089],[178.385164,-17.655408],[178.376637,-17.650964],[178.368989,-17.648431],[178.360617,-17.647191],[178.341704,-17.647811],[178.331627,-17.646571],[178.322273,-17.643471],[178.297469,-17.626417],[178.290182,-17.622955],[178.282586,-17.62218],[178.279175,-17.625435],[178.27716,-17.629208],[178.276075,-17.634841],[178.275765,-17.638096],[178.274679,-17.642385],[178.271734,-17.647501],[178.261295,-17.655511],[178.245172,-17.660834],[178.213081,-17.668224],[178.189817724701,-17.668935344974],[178.189817724701,-17.697841726619]]],"type":"Polygon"},"id":6,"properties":{"parentKey":"FJI:1159313275","sourceCountryId":"FJI","syntheticOperational":true,"territoryId":"territory:catalog:be7771f8ce01c17f6ec28f04c9a39a5198266a126a711b9e2440ffb68c45c876"},"type":"Feature"},{"geometry":{"coordinates":[[[178.184110970996,-18.234919628489],[178.185395,-18.233819],[178.214203,-18.201104],[178.222911,-18.196059],[178.2435,-18.188653],[178.252208,-18.18377],[178.256602,-18.177667],[178.261892,-18.162774],[178.26588,-18.156427],[178.271821,-18.150323],[178.277029,-18.146254],[178.28419,-18.144138],[178.296886,-18.143487],[178.309337,-18.140232],[178.316905,-18.132908],[178.31971011167,-18.129496402878],[178.186397984887,-18.129496402878],[178.184110970996,-18.129496402878],[178.184110970996,-18.234919628489]]],"type":"Polygon"},"id":7,"properties":{"parentKey":"FJI:1159313275","sourceCountryId":"FJI","syntheticOperational":true,"territoryId":"territory:catalog:4c09b9f2ed5db4cec8abc9adebf5d574aee421de271efb4d2027b77c9402a182"},"type":"Feature"},{"geometry":{"coordinates":[[[-179.175486,-17.439711],[-179.1728,-17.45794],[-179.156606,-17.471368],[-179.137074,-17.468927],[-179.130808,-17.453709],[-179.134714,-17.435317],[-179.145579,-17.424249],[-179.166005,-17.425551],[-179.175486,-17.439711]]],"type":"Polygon"},"id":8,"properties":{"parentKey":"FJI:1159313273","sourceCountryId":"FJI","syntheticOperational":true,"territoryId":"territory:catalog:99872648c230be1fee0dfdd865edbfeac4f65a46430fa96ba3e66bef8ee07ca7"},"type":"Feature"},{"geometry":{"coordinates":[[[178.174904942966,-19.075440168925],[178.183849,-19.068943],[178.188731,-19.083591],[178.19044,-19.078709],[178.190115,-19.057712],[178.195079,-19.047459],[178.207286,-19.045099],[178.222992,-19.044854],[178.238536,-19.040948],[178.281505,-19.00742],[178.307302,-18.997166],[178.333995,-19.006768],[178.330089,-19.009535],[178.325206,-19.015883],[178.320486,-19.02044],[178.327159,-19.024184],[178.332856,-19.025649],[178.339366,-19.024591],[178.348318,-19.02044],[178.346365,-19.027276],[178.343923,-19.041111],[178.341482,-19.047784],[178.358409,-19.043715],[178.382579,-19.042901],[178.403041825095,-19.044384169906],[178.403041825095,-18.992805755396],[178.180624736541,-18.992805755396],[178.176443,-18.999282],[178.176443,-19.017348],[178.174904942966,-19.023761622944],[178.174904942966,-19.075440168925]]],"type":"Polygon"},"id":9,"properties":{"parentKey":"FJI:1159313273","sourceCountryId":"FJI","syntheticOperational":true,"territoryId":"territory:catalog:71e28a780e51221ac484f0dd52a96fa4face66a0ea65047d191e32933acaa844"},"type":"Feature"},{"geometry":{"coordinates":[[[-179.000681,-17.302504],[-178.985829,-17.313572],[-178.980946,-17.295017],[-178.965932,-17.275079],[-178.954919183929,-17.26618705036],[-178.986881440957,-17.26618705036],[-178.99767,-17.283136],[-179.000681,-17.302504]]],"type":"Polygon"},"id":10,"properties":{"parentKey":"FJI:1159313273","sourceCountryId":"FJI","syntheticOperational":true,"territoryId":"territory:catalog:5a51e62ff2e3b0fa1171fa29c50619c71fa9b3032fa864780eed46358162b2a0"},"type":"Feature"},{"geometry":{"coordinates":[[[177.099457,-17.283949],[177.101329,-17.300551],[177.111827,-17.310317],[177.124522,-17.306817],[177.137706,-17.294854],[177.151866,-17.27516],[177.153087,-17.270685],[177.156016,-17.267022],[177.160694455524,-17.26618705036],[177.104486735214,-17.26618705036],[177.104015,-17.270278],[177.099457,-17.283949]]],"type":"Polygon"},"id":11,"properties":{"parentKey":"FJI:1159313271","sourceCountryId":"FJI","syntheticOperational":true,"territoryId":"territory:catalog:bf42f315721eedd3ce25d2bff482ea734ce42ee425a07125eaa10849fee88220"},"type":"Feature"},{"geometry":{"coordinates":[[[-180,-16.834532374101],[-179.867433563461,-16.834532374101],[-179.866526,-16.831638],[-179.856638,-16.813897],[-179.820994,-16.779962],[-179.815663,-16.772231],[-179.820912,-16.763442],[-179.830027,-16.756117],[-179.842397,-16.748712],[-179.842885,-16.738214],[-179.846506,-16.721287],[-179.855702,-16.693048],[-179.864084,-16.681329],[-179.877146,-16.67783],[-179.897654,-16.683526],[-179.915883,-16.694513],[-179.989858,-16.771173],[-180,-16.786733],[-180,-16.834532374101]]],"type":"Polygon"},"id":12,"properties":{"parentKey":"FJI:1159313293","sourceCountryId":"FJI","syntheticOperational":true,"territoryId":"territory:catalog:d7c85d012499a3088cf36af519927884b610e63528cdeea7f7dcfe8df916754e"},"type":"Feature"},{"geometry":{"coordinates":[[[179.339095141438,-16.402877697842],[179.371145708308,-16.402877697842],[179.365733,-16.39129],[179.358735,-16.388116],[179.346202,-16.393813],[179.339095141438,-16.402877697842]]],"type":"Polygon"},"id":13,"properties":{"parentKey":"FJI:1159313293","sourceCountryId":"FJI","syntheticOperational":true,"territoryId":"territory:catalog:eda00b38dad5e5dee838a9dd986c9bce2e8f405ad0b281ba6c69458b8a82edbd"},"type":"Feature"},{"geometry":{"coordinates":[[[179.775140537164,-16.618705035971],[179.889522623235,-16.618705035971],[179.890147,-16.614679],[179.924327,-16.553155],[179.936209,-16.524672],[179.941742,-16.516534],[179.949067,-16.509047],[179.953461,-16.499607],[179.942393,-16.475844],[179.942393,-16.467462],[179.939464,-16.463311],[179.924327,-16.4638],[179.917166,-16.466892],[179.912608,-16.472345],[179.908946,-16.478774],[179.903819,-16.484308],[179.851085,-16.508559],[179.841807,-16.515069],[179.833263,-16.530369],[179.814138,-16.546319],[179.780935,-16.56699],[179.775140537164,-16.568840470504],[179.775140537164,-16.618705035971]]],"type":"Polygon"},"id":14,"properties":{"parentKey":"FJI:1159313293","sourceCountryId":"FJI","syntheticOperational":true,"territoryId":"territory:catalog:58e47e9c7dc6ba582b7791704296eedbe7c8483069864e7dc98dccd432b5f0d5"},"type":"Feature"},{"geometry":{"coordinates":[[[178.647463994991,-16.867075278939],[178.660411,-16.87949],[178.670421,-16.899021],[178.673188,-16.926039],[178.680675,-16.958266],[178.691905,-16.985772],[178.705333,-16.998793],[178.720876,-17.005548],[178.733897,-17.007013],[178.762706,-17.00506],[178.765473,-17.001153],[178.800955,-16.977716],[178.787771,-16.967869],[178.790212,-16.962009],[178.79949,-16.957208],[178.80714,-16.950453],[178.817068,-16.912042],[178.8213,-16.902602],[178.861664,-16.867852],[178.872886662492,-16.861724444424],[178.872886662492,-16.834532374101],[178.649155722326,-16.834532374101],[178.647463994991,-16.834532374101],[178.647463994991,-16.867075278939]]],"type":"Polygon"},"id":15,"properties":{"parentKey":"FJI:1159313293","sourceCountryId":"FJI","syntheticOperational":true,"territoryId":"territory:catalog:b940c4f71c7eea12b74702e6ec2da5a32208d67e08ff13197857db31a60ab195"},"type":"Feature"},{"geometry":{"coordinates":[[[179.328136,-16.333591],[179.343761,-16.338962],[179.361176,-16.340753],[179.377452,-16.339044],[179.389659,-16.333591],[179.376638,-16.328871],[179.362315,-16.326593],[179.328136,-16.326593],[179.328136,-16.333591]]],"type":"Polygon"},"id":16,"properties":{"parentKey":"FJI:1159313293","sourceCountryId":"FJI","syntheticOperational":true,"territoryId":"territory:catalog:8995c7d8a237d08cba32af79c24950f5ed1418cb41549e57e9031f2a5636fd6f"},"type":"Feature"},{"geometry":{"coordinates":[[[-178.845408,-18.21738],[-178.824778,-18.23211],[-178.820261,-18.234308],[-178.814198,-18.238946],[-178.806589,-18.243748],[-178.797434,-18.245864],[-178.763295,-18.245864],[-178.75182,-18.238458],[-178.745676,-18.221612],[-178.749135,-18.20322],[-178.766713,-18.191257],[-178.766713,-18.191176],[-178.789784,-18.172133],[-178.8249,-18.189142],[-178.845408,-18.21738]]],"type":"Polygon"},"id":17,"properties":{"parentKey":"FJI:1159313273","sourceCountryId":"FJI","syntheticOperational":true,"territoryId":"territory:catalog:831849dcf2bc6c28d01b4dee046aece2ad1307714501bcc7c6d3d5ccfcc37087"},"type":"Feature"},{"geometry":{"coordinates":[[[-178.972157,-18.965102],[-178.961537,-18.986749],[-178.944447,-18.987237],[-178.930979,-18.971368],[-178.931223,-18.944106],[-178.943593,-18.926365],[-178.957875,-18.927911],[-178.969065,-18.942641],[-178.972157,-18.965102]]],"type":"Polygon"},"id":18,"properties":{"parentKey":"FJI:1159313273","sourceCountryId":"FJI","syntheticOperational":true,"territoryId":"territory:catalog:795111cb9383e80af4411b373a1df2cec25a0f5e29bd0fd90a22a9fd4f82ec44"},"type":"Feature"},{"geometry":{"coordinates":[[[177.970564,-17.856274],[177.971287,-17.86294],[177.976248,-17.870175],[177.983586,-17.876428],[177.990562,-17.884128],[177.992991,-17.892654],[177.987927,-17.90609],[177.986090534311,-17.913669064748],[178.186397984887,-17.913669064748],[178.187539332914,-17.913669064748],[178.187539332914,-17.697841726619],[178.099127264025,-17.697841726619],[178.099651,-17.701658],[178.098101,-17.71065],[178.09159,-17.720055],[178.078567,-17.732044],[178.058827,-17.741862],[178.037123,-17.759071],[177.990872,-17.807802],[177.986842,-17.814158],[177.984826,-17.826664],[177.981726,-17.834105],[177.976765,-17.841443],[177.972837,-17.848833],[177.970564,-17.856274]]],"type":"Polygon"},"id":19,"properties":{"parentKey":"FJI:1159313275","sourceCountryId":"FJI","syntheticOperational":true,"territoryId":"territory:catalog:1d70e074d696f2e188786cfa558b899cff4a0eeecc1907b9ce80c5247feeb31c"},"type":"Feature"},{"geometry":{"coordinates":[[[177.429698,-16.834405],[177.429867839696,-16.834532374101],[177.451237233556,-16.834532374101],[177.453136,-16.833185],[177.457774,-16.827569],[177.461436,-16.830173],[177.471365,-16.834405],[177.479259,-16.817071],[177.493419,-16.802667],[177.523452157599,-16.779415338816],[177.523452157599,-16.750147791383],[177.51295,-16.758722],[177.475352,-16.796645],[177.456554,-16.805597],[177.444021,-16.79339],[177.437185,-16.79339],[177.436371,-16.803643],[177.430349,-16.82822],[177.429698,-16.834405]]],"type":"Polygon"},"id":20,"properties":{"parentKey":"FJI:1159313271","sourceCountryId":"FJI","syntheticOperational":true,"territoryId":"territory:catalog:a6e0b30bd06bde43856f2fe93d4515ea0f5a2243451c4b3eba3d077234e32014"},"type":"Feature"},{"geometry":{"coordinates":[[[179.549718574109,-16.640975399586],[179.560069,-16.634535],[179.571462,-16.625584],[179.575178127026,-16.618705035971],[179.550281074329,-16.618705035971],[179.549718574109,-16.618705035971],[179.549718574109,-16.640975399586]]],"type":"Polygon"},"id":21,"properties":{"parentKey":"FJI:1159313293","sourceCountryId":"FJI","syntheticOperational":true,"territoryId":"territory:catalog:e19b0821b9c4522beaaa1d3824e247a97f96ee4619c160e4f78fc5c148b49b4b"},"type":"Feature"},{"geometry":{"coordinates":[[[177.507866582756,-17.913669064748],[177.732997481108,-17.913669064748],[177.734424166142,-17.913669064748],[177.734424166142,-17.697841726619],[177.510999371465,-17.697841726619],[177.507866582756,-17.697841726619],[177.507866582756,-17.913669064748]]],"type":"Polygon"},"id":22,"properties":{"parentKey":"FJI:1159313271","sourceCountryId":"FJI","syntheticOperational":true,"territoryId":"territory:catalog:696052a1c72bd6719578ee6d9a988bb35128384fd71208089b9aafab2f94a61a"},"type":"Feature"},{"geometry":{"coordinates":[[[-180,-16.964144],[-179.9829,-16.932387],[-179.951161,-16.905938],[-179.890126,-16.867852],[-179.881459,-16.864516],[-179.875315,-16.865492],[-179.871571,-16.863865],[-179.869333,-16.84059],[-179.867433563461,-16.834532374101],[-180,-16.834532374101],[-180,-16.964144]]],"type":"Polygon"},"id":23,"properties":{"parentKey":"FJI:1159313293","sourceCountryId":"FJI","syntheticOperational":true,"territoryId":"territory:catalog:c7bf34bf87376c1a4f35a8f1b4ad66d372cf1292e7521c6f556e271ce6353f61"},"type":"Feature"},{"geometry":{"coordinates":[[[177.658946,-17.456638],[177.65919,-17.468032],[177.663097,-17.479669],[177.664239487784,-17.482014388489],[177.737272155877,-17.482014388489],[177.74011299435,-17.482014388489],[177.74011299435,-17.427494340235],[177.710134,-17.417901],[177.704112,-17.420343],[177.670584,-17.438409],[177.663097,-17.443943],[177.658946,-17.456638]]],"type":"Polygon"},"id":24,"properties":{"parentKey":"FJI:1159313271","sourceCountryId":"FJI","syntheticOperational":true,"territoryId":"territory:catalog:aace9b7971a1d9102e8c09a4557f938edc6440e3de07f492ec6a1fa6fcc26d0c"},"type":"Feature"},{"geometry":{"coordinates":[[[177.50315258512,-18.156421742443],[177.524913,-18.155369],[177.536876,-18.156834],[177.567638,-18.170099],[177.591645,-18.166681],[177.64503,-18.191095],[177.673025,-18.198012],[177.698578,-18.201349],[177.730138713745,-18.209466026416],[177.730138713745,-18.129496402878],[177.506297229219,-18.129496402878],[177.50315258512,-18.129496402878],[177.50315258512,-18.156421742443]]],"type":"Polygon"},"id":25,"properties":{"parentKey":"FJI:1159313271","sourceCountryId":"FJI","syntheticOperational":true,"territoryId":"territory:catalog:172531dc185902de4c1da8a4509620e22e87b82e4e9bcbaca873e3e63d86d399"},"type":"Feature"},{"geometry":{"coordinates":[[[179.319899244332,-18.100538130907],[179.320974,-18.101821],[179.350271,-18.118829],[179.362966,-18.079767],[179.36085,-18.025974],[179.34547,-17.998793],[179.336762,-17.989353],[179.319899244332,-17.960210492359],[179.319899244332,-18.100538130907]]],"type":"Polygon"},"id":26,"properties":{"parentKey":"FJI:1159313273","sourceCountryId":"FJI","syntheticOperational":true,"territoryId":"territory:catalog:a7081283abee7da73bb684464ac01a4d666fa5f375696baab3c89f612f07584e"},"type":"Feature"},{"geometry":{"coordinates":[[[177.00587,-12.489516],[177.006602,-12.494724],[177.011485,-12.509454],[177.02711,-12.507257],[177.04363,-12.508477],[177.059581,-12.511977],[177.073416,-12.51686],[177.091075,-12.516371],[177.113617,-12.511407],[177.128834355828,-12.501797126129],[177.128834355828,-12.500756906581],[177.124766,-12.486098],[177.111176,-12.480645],[177.075206,-12.480645],[177.059744,-12.475274],[177.03297,-12.491388],[177.020844,-12.493585],[177.00587,-12.489516]]],"type":"Polygon"},"id":27,"properties":{"parentKey":"FJI:1159313295","sourceCountryId":"FJI","syntheticOperational":true,"territoryId":"territory:catalog:3c43c805151c43abf441b5c77855f76c5cd9e66441d3fa6f3df28b6363ddb467"},"type":"Feature"},{"geometry":{"coordinates":[[[177.576533220636,-17.482014388489],[177.654938528751,-17.482014388489],[177.650076,-17.469415],[177.646821,-17.451755],[177.652599,-17.443943],[177.656261,-17.442804],[177.652599,-17.440525],[177.645356,-17.438165],[177.638927,-17.437107],[177.631114,-17.439223],[177.628917,-17.443943],[177.628184,-17.4485],[177.625011,-17.450779],[177.622081,-17.454685],[177.581309,-17.478123],[177.576533220636,-17.482014388489]]],"type":"Polygon"},"id":28,"properties":{"parentKey":"FJI:1159313271","sourceCountryId":"FJI","syntheticOperational":true,"territoryId":"territory:catalog:d83dcf8a49c04433886be1309197ffcb07a3eba142fa3a2fcea6920460cb0746"},"type":"Feature"},{"geometry":{"coordinates":[[[-178.930613,-18.882094],[-178.922597,-18.884373],[-178.914866,-18.884047],[-178.907216,-18.881524],[-178.899648,-18.87713],[-178.893788,-18.872247],[-178.888539,-18.866795],[-178.88386,-18.860772],[-178.879872,-18.854262],[-178.893992,-18.857599],[-178.907297,-18.864028],[-178.919504,-18.872654],[-178.930613,-18.882094]]],"type":"Polygon"},"id":29,"properties":{"parentKey":"FJI:1159313273","sourceCountryId":"FJI","syntheticOperational":true,"territoryId":"territory:catalog:c45f6554dbd242eefe44142a66442bccc858e6d89ca6297176c303212788846a"},"type":"Feature"},{"geometry":{"coordinates":[[[177.74011299435,-17.482014388489],[177.963544940289,-17.482014388489],[177.966101694915,-17.482014388489],[177.966101694915,-17.399906492952],[177.956228,-17.40252],[177.926606,-17.405938],[177.897309,-17.402927],[177.875987,-17.389337],[177.862315,-17.400079],[177.849864,-17.413181],[177.836274,-17.421319],[177.82016,-17.417169],[177.826671,-17.408787],[177.831065,-17.399835],[177.833669,-17.390232],[177.834483,-17.379327],[177.833263,-17.366469],[177.829926,-17.364028],[177.82545,-17.366632],[177.814138,-17.37127],[177.811534,-17.376153],[177.807628,-17.380955],[177.787283,-17.384535],[177.780284,-17.388279],[177.773611,-17.392755],[177.765473,-17.396661],[177.760916,-17.401544],[177.756196,-17.413263],[177.753917,-17.4249],[177.74879,-17.430271],[177.74011299435,-17.427494340235],[177.74011299435,-17.482014388489]]],"type":"Polygon"},"id":30,"properties":{"parentKey":"FJI:1159313271","sourceCountryId":"FJI","syntheticOperational":true,"territoryId":"territory:catalog:e124eeced2338efb38ab27b58ee53340cf334a75c3006044cbef8f1b72feb8a1"},"type":"Feature"},{"geometry":{"coordinates":[[[177.618988,-18.511895],[177.621593,-18.527032],[177.626964,-18.543715],[177.63568158176,-18.561151079137],[177.659187025392,-18.561151079137],[177.656261,-18.540704],[177.655935,-18.517022],[177.654063,-18.504083],[177.648774,-18.492852],[177.64503,-18.491632],[177.641775,-18.490981],[177.638438,-18.489679],[177.635102,-18.486017],[177.620779,-18.504083],[177.618988,-18.511895]]],"type":"Polygon"},"id":31,"properties":{"parentKey":"FJI:1159313271","sourceCountryId":"FJI","syntheticOperational":true,"territoryId":"territory:catalog:ac6639224da2b5de8001c05a8dd83eb6a5ececc3b52d335f5b82d2168365acdb"},"type":"Feature"},{"geometry":{"coordinates":[[[179.890147,-16.953871],[179.894216,-16.967462],[179.912446,-16.983005],[179.917491,-16.998793],[179.928722,-17.00213],[179.941091,-17.001886],[179.953949,-16.998793],[179.966807,-16.993341],[179.981212,-16.984308],[179.992198,-16.97503],[179.998982,-16.964612],[180,-16.962782],[180,-16.834532374101],[179.975816967766,-16.834532374101],[179.972992,-16.844822],[179.967296,-16.858331],[179.931163,-16.909438],[179.907237,-16.927016],[179.895274,-16.939142],[179.890147,-16.953871]]],"type":"Polygon"},"id":32,"properties":{"parentKey":"FJI:1159313293","sourceCountryId":"FJI","syntheticOperational":true,"territoryId":"territory:catalog:e1956a56413bf1754f86ec34302eec0fe68bafdc955d43c4635d97075f394e6f"},"type":"Feature"},{"geometry":{"coordinates":[[[177.27959697733,-18.002861553767],[177.281098,-18.003676],[177.285818,-18.008966],[177.287608,-18.022149],[177.29184,-18.029474],[177.296641,-18.034275],[177.300059,-18.039727],[177.301606,-18.051039],[177.302257,-18.070896],[177.306814,-18.081313],[177.31365,-18.073907],[177.335948,-18.105564],[177.36671,-18.119073],[177.410107490272,-18.129496402878],[177.50315258512,-18.129496402878],[177.506297229219,-18.129496402878],[177.506297229219,-17.913669064748],[177.281308999371,-17.913669064748],[177.27959697733,-17.913669064748],[177.27959697733,-18.002861553767]]],"type":"Polygon"},"id":33,"properties":{"parentKey":"FJI:1159313271","sourceCountryId":"FJI","syntheticOperational":true,"territoryId":"territory:catalog:933e0e0d90d7205c92c37eca2adbb6ebe8e0fb2d461812cd2bed1e4699869ab2"},"type":"Feature"},{"geometry":{"coordinates":[[[179.099437148218,-16.805241194036],[179.110199,-16.799981],[179.123383,-16.789646],[179.129405,-16.775811],[179.122895,-16.758722],[179.152843,-16.73447],[179.172048,-16.722589],[179.24822,-16.694106],[179.258962,-16.69378],[179.266368,-16.689874],[179.28297,-16.698907],[179.307953,-16.717706],[179.324577861163,-16.721210365497],[179.324577861163,-16.618705035971],[179.100562148657,-16.618705035971],[179.099437148218,-16.618705035971],[179.099437148218,-16.805241194036]]],"type":"Polygon"},"id":34,"properties":{"parentKey":"FJI:1159313293","sourceCountryId":"FJI","syntheticOperational":true,"territoryId":"territory:catalog:7bd1e3333f5b3a690ecfaaf6c75be525607da4168cf64fe16018f46900082bd0"},"type":"Feature"},{"geometry":{"coordinates":[[[177.429867839696,-16.834532374101],[177.437185,-16.84002],[177.445567,-16.838556],[177.451237233556,-16.834532374101],[177.429867839696,-16.834532374101]]],"type":"Polygon"},"id":35,"properties":{"parentKey":"FJI:1159313271","sourceCountryId":"FJI","syntheticOperational":true,"territoryId":"territory:catalog:86ac25d9e6709b5ee608fab28806592a344f7103f94d1b62c2a861ea06a26547"},"type":"Feature"},{"geometry":{"coordinates":[[[177.966101694915,-17.482014388489],[178.189817724701,-17.482014388489],[178.19209039548,-17.482014388489],[178.19209039548,-17.301206930958],[178.190115,-17.300551],[178.180837,-17.329278],[178.151052,-17.346856],[178.11378,-17.353204],[178.081391,-17.348321],[178.065929,-17.35589],[178.042247,-17.356866],[178.03004,-17.365411],[178.019379,-17.375177],[178.007172,-17.383477],[177.978363,-17.396661],[177.966101694915,-17.399906492952],[177.966101694915,-17.482014388489]]],"type":"Polygon"},"id":36,"properties":{"parentKey":"FJI:1159313271","sourceCountryId":"FJI","syntheticOperational":true,"territoryId":"territory:catalog:fcdcbe95b1f2ba2c427d3b3bc1b40f59f5a1d1639898184b59831fae80e355e2"},"type":"Feature"},{"geometry":{"coordinates":[[[178.180624736541,-18.992805755396],[178.403041825095,-18.992805755396],[178.405063291139,-18.992805755396],[178.405063291139,-18.938881702744],[178.389822,-18.938165],[178.382579,-18.9249],[178.371918,-18.930352],[178.363455,-18.929783],[178.354991,-18.92669],[178.344981,-18.9249],[178.336762,-18.927016],[178.332205,-18.931736],[178.328624,-18.936293],[178.324067,-18.938572],[178.308849,-18.939548],[178.301931,-18.944024],[178.293712,-18.972589],[178.26588,-18.962091],[178.226085,-18.964125],[178.190684,-18.977227],[178.180624736541,-18.992805755396]]],"type":"Polygon"},"id":37,"properties":{"parentKey":"FJI:1159313273","sourceCountryId":"FJI","syntheticOperational":true,"territoryId":"territory:catalog:39018b0990ea981e68fc86cc0c40bd85269a2488c924d278f8e7b1c55bfcd059"},"type":"Feature"},{"geometry":{"coordinates":[[[178.997406,-17.608005],[179.005382,-17.621352],[179.015636,-17.628188],[179.023204,-17.635431],[179.028982,-17.644301],[179.033376,-17.656183],[179.040782,-17.656183],[179.038097,-17.642022],[179.026052,-17.61061],[179.019705,-17.600844],[179.006847,-17.593194],[178.998546,-17.597101],[178.997406,-17.608005]]],"type":"Polygon"},"id":38,"properties":{"parentKey":"FJI:1159313273","sourceCountryId":"FJI","syntheticOperational":true,"territoryId":"territory:catalog:a0608783c782dbc5ea0ab6397b1a4e8731b2c2be6099fb3f6907614352254c9d"},"type":"Feature"},{"geometry":{"coordinates":[[[-178.357777,-17.914321],[-178.352284,-17.945733],[-178.321034,-17.958429],[-178.298289,-17.963311],[-178.27123,-17.961684],[-178.248647,-17.952569],[-178.239125,-17.934259],[-178.246409,-17.917576],[-178.250374505675,-17.913669064748],[-178.357318981014,-17.913669064748],[-178.357777,-17.914321]]],"type":"Polygon"},"id":39,"properties":{"parentKey":"FJI:1159313273","sourceCountryId":"FJI","syntheticOperational":true,"territoryId":"territory:catalog:6f77d49edbae97ff31e56e1cd73d0ac39f68525ae71e84bffffd184fd3d60caa"},"type":"Feature"},{"geometry":{"coordinates":[[[178.739355,-17.67333],[178.747551124041,-17.697841726619],[178.834670992874,-17.697841726619],[178.835544,-17.693159],[178.831963,-17.67945],[178.830188,-17.665774],[178.825718,-17.652098],[178.816758,-17.628951],[178.797887,-17.618605],[178.782617,-17.622901],[178.776378,-17.628839],[178.751094,-17.643363],[178.739355,-17.67333]]],"type":"Polygon"},"id":40,"properties":{"parentKey":"FJI:1159313273","sourceCountryId":"FJI","syntheticOperational":true,"territoryId":"territory:catalog:8014ddfb5cf48835cbbbc9c8bf5c63376aaa08fbd11d02c9815aaba02edc42d6"},"type":"Feature"},{"geometry":{"coordinates":[[[179.324577861163,-16.804787965497],[179.375743,-16.801039],[179.403819,-16.802341],[179.438243,-16.813897],[179.453949,-16.805108],[179.471446,-16.801202],[179.503184,-16.800226],[179.544932,-16.790785],[179.549718574109,-16.790997494198],[179.549718574109,-16.764788740728],[179.548106,-16.766046],[179.53712,-16.752618],[179.520274,-16.749607],[179.501964,-16.754653],[179.486095,-16.766046],[179.478689,-16.758722],[179.48878,-16.743829],[179.492198,-16.72503],[179.48878,-16.707615],[179.478689,-16.697198],[179.484223,-16.693129],[179.500662,-16.687188],[179.506602,-16.683526],[179.518728,-16.665134],[179.523611,-16.658949],[179.534434,-16.650486],[179.549718574109,-16.640975399586],[179.549718574109,-16.618705035971],[179.325421611493,-16.618705035971],[179.324577861163,-16.618705035971],[179.324577861163,-16.721210365497],[179.33961,-16.724379],[179.35141,-16.731378],[179.348888,-16.745701],[179.354747,-16.758477],[179.341482,-16.765069],[179.324577861163,-16.770780439359],[179.324577861163,-16.804787965497]]],"type":"Polygon"},"id":41,"properties":{"parentKey":"FJI:1159313293","sourceCountryId":"FJI","syntheticOperational":true,"territoryId":"territory:catalog:129ae66cee941c37cd7bb78aa345aba4199753895768586f7b60652363320a24"},"type":"Feature"},{"geometry":{"coordinates":[[[179.550281074329,-16.618705035971],[179.575178127026,-16.618705035971],[179.579112,-16.611423],[179.581065,-16.594985],[179.58074,-16.579278],[179.582286,-16.56699],[179.587657,-16.552911],[179.591807,-16.545343],[179.597911,-16.539809],[179.693858,-16.477309],[179.715831,-16.470636],[179.738455,-16.459242],[179.763438,-16.432794],[179.775140537164,-16.412964663931],[179.775140537164,-16.402877697842],[179.550561797753,-16.402877697842],[179.550281074329,-16.402877697842],[179.550281074329,-16.618705035971]]],"type":"Polygon"},"id":42,"properties":{"parentKey":"FJI:1159313293","sourceCountryId":"FJI","syntheticOperational":true,"territoryId":"territory:catalog:2eec326f5dd40eefa7ea72347e8a681298a7e33a554da09b72f7e40b238ff183"},"type":"Feature"},{"geometry":{"coordinates":[[[177.730138713745,-18.209466026416],[177.783376,-18.223158],[177.79135,-18.210206],[177.794554,-18.197442],[177.797344,-18.170208],[177.799515,-18.163284],[177.803235,-18.155532],[177.821530565895,-18.129496402878],[177.732997481108,-18.129496402878],[177.730138713745,-18.129496402878],[177.730138713745,-18.209466026416]]],"type":"Polygon"},"id":43,"properties":{"parentKey":"FJI:1159313271","sourceCountryId":"FJI","syntheticOperational":true,"territoryId":"territory:catalog:b36e78e8c10d31f5fec723c746b31df0088bc5b5e5e5e1aeb0a26315e43857da"},"type":"Feature"},{"geometry":{"coordinates":[[[178.416090509114,-17.697841726619],[178.589678292797,-17.697841726619],[178.592947,-17.693455],[178.603282,-17.674574],[178.602306,-17.649998],[178.590831,-17.630955],[178.573009,-17.617934],[178.551931,-17.610772],[178.530284,-17.608331],[178.52296,-17.600844],[178.496267,-17.565118],[178.47877,-17.553155],[178.466075,-17.550958],[178.455577,-17.551202],[178.448261002271,-17.550258047067],[178.448622,-17.557739],[178.446762,-17.601819],[178.437615,-17.647036],[178.433274,-17.657113],[178.426866,-17.664193],[178.418495,-17.665743],[178.416090509114,-17.665386699344],[178.416090509114,-17.697841726619]]],"type":"Polygon"},"id":44,"properties":{"parentKey":"FJI:1159313275","sourceCountryId":"FJI","syntheticOperational":true,"territoryId":"territory:catalog:410de08fd7425e10854ec58c6e4791eb02233771ff15aa2539956166c1ca88fc"},"type":"Feature"},{"geometry":{"coordinates":[[[179.232758,-17.944757],[179.235118,-17.954685],[179.244395,-17.970147],[179.24643,-17.974867],[179.245372,-18.003595],[179.249522,-18.032159],[179.25408,-18.039158],[179.26295,-18.036716],[179.265798,-18.02988],[179.263031,-18.009535],[179.266938,-17.998793],[179.271739,-18.01572],[179.278331,-18.027602],[179.297374,-18.050388],[179.303233,-18.062188],[179.310883,-18.089776],[179.319899244332,-18.100538130907],[179.319899244332,-17.960210492359],[179.312511,-17.947442],[179.297374,-17.937921],[179.283946,-17.936293],[179.277517,-17.934015],[179.272146,-17.934503],[179.250336,-17.951267],[179.243419,-17.950942],[179.232758,-17.944757]]],"type":"Polygon"},"id":45,"properties":{"parentKey":"FJI:1159313273","sourceCountryId":"FJI","syntheticOperational":true,"territoryId":"territory:catalog:40de066005359d8ed525709a41e69a3f49ff0f68a89e73945391b8aaeb7ccac0"},"type":"Feature"},{"geometry":{"coordinates":[[[178.713189,-17.710978],[178.719455,-17.729841],[178.734685,-17.767566],[178.747813,-17.769952],[178.752615,-17.776137],[178.759125,-17.77752],[178.76588,-17.772882],[178.772716,-17.780369],[178.775645,-17.776462],[178.77711,-17.773207],[178.779552,-17.766046],[178.762706,-17.761977],[178.741915,-17.749584],[178.725762,-17.72471],[178.713189,-17.710978]]],"type":"Polygon"},"id":46,"properties":{"parentKey":"FJI:1159313273","sourceCountryId":"FJI","syntheticOperational":true,"territoryId":"territory:catalog:63a9a3470ee441fa57d20597cb0b4c09efcf68b3cdc19487688cead85683dd79"},"type":"Feature"},{"geometry":{"coordinates":[[[179.830666,-18.589302],[179.833074,-18.600249],[179.852934,-18.611049],[179.860503,-18.62103],[179.871566,-18.628824],[179.872214,-18.645926],[179.882754,-18.662524],[179.900791,-18.658595],[179.901869,-18.638147],[179.921019,-18.622643],[179.917444,-18.611501],[179.912778,-18.611466],[179.89884,-18.617466],[179.891831,-18.609644],[179.90977,-18.595909],[179.920787,-18.586044],[179.9447,-18.580617],[179.952403,-18.568536],[179.948117,-18.563502],[179.946576220396,-18.561151079137],[179.913704649347,-18.561151079137],[179.888189,-18.566928],[179.850446,-18.580904],[179.830666,-18.589302]]],"type":"Polygon"},"id":47,"properties":{"parentKey":"FJI:1159313273","sourceCountryId":"FJI","syntheticOperational":true,"territoryId":"territory:catalog:338171a912bfabc9f653b240c7ac06d371bef994ddb644251e5968eeed274b49"},"type":"Feature"},{"geometry":{"coordinates":[[[178.416090509114,-17.665386699344],[178.418495,-17.665743],[178.426866,-17.664193],[178.433274,-17.657113],[178.437615,-17.647036],[178.446762,-17.601819],[178.448622,-17.557739],[178.448261002271,-17.550258047067],[178.445486,-17.5499],[178.416090509114,-17.530607170724],[178.416090509114,-17.665386699344]]],"type":"Polygon"},"id":48,"properties":{"parentKey":"FJI:1159313271","sourceCountryId":"FJI","syntheticOperational":true,"territoryId":"territory:catalog:9c04d7e3b1430f9a5ac481faaad957a58a16cc9f8a8d47a1d0e783b828c2be3f"},"type":"Feature"},{"geometry":{"coordinates":[[[-180,-16.169614],[-179.978871,-16.162774],[-179.961781,-16.154718],[-179.948476,-16.142185],[-179.938588,-16.12127],[-179.973012,-16.131036],[-179.987538,-16.138116],[-180,-16.149111],[-180,-16.169614]]],"type":"Polygon"},"id":49,"properties":{"parentKey":"FJI:1159313293","sourceCountryId":"FJI","syntheticOperational":true,"territoryId":"territory:catalog:19dcd63529ed084c0682d3146a2369f8b573379120a1753b3f2532c06e9889de"},"type":"Feature"},{"geometry":{"coordinates":[[[179.371349,-17.259861],[179.371691783986,-17.26618705036],[179.449291818825,-17.26618705036],[179.44809,-17.255141],[179.448253,-17.249119],[179.437836,-17.241795],[179.42921,-17.241143],[179.419688,-17.243748],[179.378673,-17.249444],[179.371349,-17.259861]]],"type":"Polygon"},"id":50,"properties":{"parentKey":"FJI:1159313273","sourceCountryId":"FJI","syntheticOperational":true,"territoryId":"territory:catalog:0e4e2936a3300b77615516d425fa68483b307e22b10c93214ce6a7868a919d93"},"type":"Feature"},{"geometry":{"coordinates":[[[-178.357318981014,-17.913669064748],[-178.250374505675,-17.913669064748],[-178.262929,-17.9013],[-178.281077,-17.888767],[-178.293162,-17.882745],[-178.33788,-17.886],[-178.357318981014,-17.913669064748]]],"type":"Polygon"},"id":51,"properties":{"parentKey":"FJI:1159313273","sourceCountryId":"FJI","syntheticOperational":true,"territoryId":"territory:catalog:1a47f5c2da2f7272addd019be525bb2ec65bfd8300c55e09010a2e9053f72f86"},"type":"Feature"},{"geometry":{"coordinates":[[[-179.157297,-17.272719],[-179.149485,-17.282159],[-179.139272,-17.283298],[-179.130808,-17.277032],[-179.12818732351,-17.26618705036],[-179.157083193964,-17.26618705036],[-179.157297,-17.272719]]],"type":"Polygon"},"id":52,"properties":{"parentKey":"FJI:1159313273","sourceCountryId":"FJI","syntheticOperational":true,"territoryId":"territory:catalog:627d6918c636567de90fbbdaffc77771730dadf848b5e5ca5810f71fcba6a4ba"},"type":"Feature"},{"geometry":{"coordinates":[[[177.523452157599,-16.779415338816],[177.556488,-16.753839],[177.56072,-16.748712],[177.563975,-16.739923],[177.580333,-16.728448],[177.587413,-16.717706],[177.594005,-16.699965],[177.591156,-16.686212],[177.579926,-16.678155],[177.56072,-16.676853],[177.57252,-16.699477],[177.558604,-16.721449],[177.523452157599,-16.750147791383],[177.523452157599,-16.779415338816]]],"type":"Polygon"},"id":53,"properties":{"parentKey":"FJI:1159313271","sourceCountryId":"FJI","syntheticOperational":true,"territoryId":"territory:catalog:502bb802779359af695d922436abb7fc95ce137c27e4cbe0e8d14c9e8d8e15d2"},"type":"Feature"},{"geometry":{"coordinates":[[[178.405063291139,-18.992805755396],[178.497273407012,-18.992805755396],[178.493175,-18.978204],[178.485606,-18.965102],[178.47462,-18.960626],[178.438162,-18.954685],[178.430349,-18.955255],[178.422699,-18.939711],[178.405063291139,-18.938881702744],[178.405063291139,-18.992805755396]]],"type":"Polygon"},"id":54,"properties":{"parentKey":"FJI:1159313273","sourceCountryId":"FJI","syntheticOperational":true,"territoryId":"territory:catalog:d52090326fbb94651a9034d1538daa5dc1cf438a8c461543975c37d3ccbe29c0"},"type":"Feature"},{"geometry":{"coordinates":[[[178.747551124041,-17.697841726619],[178.752615,-17.712986],[178.75819,-17.729916],[178.768077,-17.747166],[178.785114,-17.740221],[178.797714,-17.735954],[178.822909,-17.72913],[178.829218,-17.718856],[178.832829,-17.707722],[178.834670992874,-17.697841726619],[178.747551124041,-17.697841726619]]],"type":"Polygon"},"id":55,"properties":{"parentKey":"FJI:1159313273","sourceCountryId":"FJI","syntheticOperational":true,"territoryId":"territory:catalog:a27d1faeee5f0e908fc0c881c2930e63c9522a3211b92eb45a2f8077a0f480ca"},"type":"Feature"},{"geometry":{"coordinates":[[[177.768199,-18.065977],[177.769439,-18.075486],[177.77564,-18.095536],[177.778741,-18.102771],[177.782358,-18.106956],[177.787732,-18.10923],[177.79507,-18.110057],[177.818635,-18.110936],[177.823906,-18.112693],[177.82649,-18.116723],[177.826076,-18.123028],[177.821530565895,-18.129496402878],[177.957124842371,-18.129496402878],[177.959697732997,-18.129496402878],[177.959697732997,-17.998825979947],[177.957179,-17.999418],[177.945087,-18.000813],[177.93532,-18.000451],[177.858012,-17.980969],[177.84592,-17.979626],[177.833363,-17.980091],[177.815224,-17.985362],[177.805612,-17.992597],[177.799411,-18.001898],[177.79228,-18.021794],[177.787422,-18.030992],[177.773315,-18.050319],[177.769232,-18.057709],[177.768199,-18.065977]]],"type":"Polygon"},"id":56,"properties":{"parentKey":"FJI:1159313275","sourceCountryId":"FJI","syntheticOperational":true,"territoryId":"territory:catalog:c617a11aa00fda56b314164efdcd8e1cd1c50a91ca68f71ae9118604e95f2831"},"type":"Feature"},{"geometry":{"coordinates":[[[179.975816967766,-16.834532374101],[180,-16.834532374101],[180,-16.785349],[179.999209,-16.786848],[179.97755,-16.82822],[179.975816967766,-16.834532374101]]],"type":"Polygon"},"id":57,"properties":{"parentKey":"FJI:1159313293","sourceCountryId":"FJI","syntheticOperational":true,"territoryId":"territory:catalog:710373a4fe8cac1e427babff4f16c87228e5e5c90cbdfcdad51aa45385e25d1c"},"type":"Feature"},{"geometry":{"coordinates":[[[177.957124842371,-18.266297368097],[177.959809,-18.26572],[177.971934,-18.258722],[177.978363,-18.252699],[177.985199,-18.25742],[177.991466,-18.258884],[178.006358,-18.259454],[178.03891,-18.264907],[178.113048,-18.239435],[178.135509,-18.259454],[178.141368,-18.252699],[178.14975,-18.252699],[178.168305,-18.248468],[178.184110970996,-18.234919628489],[178.184110970996,-18.129496402878],[177.959697732997,-18.129496402878],[177.957124842371,-18.129496402878],[177.957124842371,-18.266297368097]]],"type":"Polygon"},"id":58,"properties":{"parentKey":"FJI:1159313275","sourceCountryId":"FJI","syntheticOperational":true,"territoryId":"territory:catalog:ba636ed94acd6b9295b47b0042aa7ad0027ab48019d5317d58983df721a3ef48"},"type":"Feature"},{"geometry":{"coordinates":[[[178.875702685821,-16.618705035971],[179.099437148218,-16.618705035971],[179.100562148657,-16.618705035971],[179.100562148657,-16.43819914588],[179.05421,-16.454034],[179.007823,-16.459568],[178.980154,-16.468194],[178.965099,-16.470636],[178.961111,-16.466404],[178.952159,-16.459649],[178.942719,-16.460382],[178.937348,-16.478123],[178.932872,-16.47617],[178.921235,-16.472752],[178.917003,-16.470636],[178.920421,-16.48447],[178.927908,-16.499933],[178.930919,-16.512628],[178.920421,-16.517836],[178.909434,-16.526544],[178.897634,-16.543064],[178.886241,-16.552341],[178.875987,-16.539646],[178.875702685821,-16.539646],[178.875702685821,-16.618705035971]]],"type":"Polygon"},"id":59,"properties":{"parentKey":"FJI:1159313293","sourceCountryId":"FJI","syntheticOperational":true,"territoryId":"territory:catalog:5a0164c03d49b9917c00babddfc04c152937cb8f14299cd455737e85e6fc0e1f"},"type":"Feature"},{"geometry":{"coordinates":[[[177.960981749528,-17.913669064748],[177.986090534311,-17.913669064748],[177.987927,-17.90609],[177.992991,-17.892654],[177.990562,-17.884128],[177.983586,-17.876428],[177.976248,-17.870175],[177.971287,-17.86294],[177.970564,-17.856274],[177.972837,-17.848833],[177.976765,-17.841443],[177.981726,-17.834105],[177.984826,-17.826664],[177.986842,-17.814158],[177.990872,-17.807802],[178.037123,-17.759071],[178.058827,-17.741862],[178.078567,-17.732044],[178.09159,-17.720055],[178.098101,-17.71065],[178.099651,-17.701658],[178.099127264025,-17.697841726619],[178.064191131294,-17.697841726619],[178.063323,-17.698403],[178.054176,-17.706154],[178.024514,-17.738038],[178.019863,-17.741759],[178.014799,-17.74424],[178.011181,-17.744705],[178.008081,-17.743309],[178.00622,-17.740209],[178.005135,-17.734834],[178.006264064948,-17.697841726619],[177.963544940289,-17.697841726619],[177.960981749528,-17.697841726619],[177.960981749528,-17.913669064748]]],"type":"Polygon"},"id":60,"properties":{"parentKey":"FJI:1159313271","sourceCountryId":"FJI","syntheticOperational":true,"territoryId":"territory:catalog:a8434976829a2cf12fc5d4065724d5349818efd6fa3345b09a5e252709b8a3ce"},"type":"Feature"},{"geometry":{"coordinates":[[[-180,-16.541115],[-179.952016,-16.523045],[-179.934804,-16.510837],[-179.921986,-16.497491],[-179.928334,-16.491143],[-179.937001,-16.486912],[-179.937449,-16.477472],[-179.933298,-16.468032],[-179.928334,-16.4638],[-179.919626,-16.463149],[-179.914296,-16.461602],[-179.909901,-16.459568],[-179.903798,-16.457696],[-179.903798,-16.450291],[-179.910024,-16.445082],[-179.911204,-16.441176],[-179.907053,-16.438246],[-179.897654,-16.436456],[-179.897654,-16.429783],[-179.911814,-16.431573],[-179.950999,-16.443048],[-179.959055,-16.446873],[-179.964711,-16.457452],[-179.991404,-16.475763],[-180,-16.489939],[-180,-16.541115]]],"type":"Polygon"},"id":61,"properties":{"parentKey":"FJI:1159313293","sourceCountryId":"FJI","syntheticOperational":true,"territoryId":"territory:catalog:ef782c810a902282cebd5f548f72e8df794c020722a5421f5115d4589b7e757b"},"type":"Feature"},{"geometry":{"coordinates":[[[177.951182,-19.129653],[177.962657,-19.138116],[177.973969,-19.144789],[177.984141,-19.147068],[177.992035,-19.142755],[177.998871,-19.142755],[178.003673,-19.157485],[178.015391,-19.155938],[178.03712,-19.142755],[178.050141,-19.144952],[178.07602,-19.154718],[178.091645,-19.156996],[178.106619,-19.154555],[178.11378,-19.14837],[178.119151,-19.139581],[178.128673,-19.129653],[178.142914,-19.129653],[178.148204,-19.127537],[178.162852,-19.115981],[178.160167,-19.14186],[178.161632,-19.150567],[178.170177,-19.156996],[178.174904942966,-19.157259052009],[178.174904942966,-19.098909878968],[178.173106,-19.097752],[178.170909,-19.087172],[178.174327,-19.07586],[178.174904942966,-19.075440168925],[178.174904942966,-19.023761622944],[178.17213,-19.035333],[178.163259,-19.044041],[178.14975,-19.034112],[178.139415,-19.041925],[178.136485,-19.05169],[178.134939,-19.061456],[178.128673,-19.068943],[178.119477,-19.070408],[178.063243,-19.05641],[178.051768,-19.056736],[178.041189,-19.061456],[178.033458,-19.072035],[178.029796,-19.093845],[178.019379,-19.102309],[177.999522,-19.094822],[177.981456,-19.101251],[177.951182,-19.129653]]],"type":"Polygon"},"id":62,"properties":{"parentKey":"FJI:1159313273","sourceCountryId":"FJI","syntheticOperational":true,"territoryId":"territory:catalog:6b13d7eaf7d474ce709d4ad296581b0a8746cb91e817a794e6d41f5f19e34560"},"type":"Feature"},{"geometry":{"coordinates":[[[179.37615,-16.360772],[179.386485,-16.367446],[179.395763,-16.378839],[179.402029,-16.392999],[179.40304893234,-16.402877697842],[179.550281074329,-16.402877697842],[179.550561797753,-16.402877697842],[179.550561797753,-16.264035126127],[179.549001,-16.260512],[179.542491,-16.250746],[179.533458,-16.244887],[179.520274,-16.244806],[179.535655,-16.262465],[179.521658,-16.267999],[179.486095,-16.265232],[179.471202,-16.274021],[179.466807,-16.286879],[179.465099,-16.302667],[179.458181,-16.31992],[179.443207,-16.310235],[179.431407,-16.319024],[179.422618,-16.336847],[179.417817,-16.353936],[179.408539,-16.349054],[179.397716,-16.347833],[179.386485,-16.351332],[179.37615,-16.360772]]],"type":"Polygon"},"id":63,"properties":{"parentKey":"FJI:1159313293","sourceCountryId":"FJI","syntheticOperational":true,"territoryId":"territory:catalog:e67615a56aff4763122510db238a2b0f0b224cf57533202ef160d9f1a9ceec93"},"type":"Feature"},{"geometry":{"coordinates":[[[179.756602,-19.127699],[179.757823,-19.139907],[179.767833,-19.15545],[179.771863117871,-19.165237796642],[179.771863117871,-19.124136734762],[179.756602,-19.127699]]],"type":"Polygon"},"id":64,"properties":{"parentKey":"FJI:1159313273","sourceCountryId":"FJI","syntheticOperational":true,"territoryId":"territory:catalog:fe2bdf579d3dd4011f28a6d587f3e61728cb285da6b6409b68f070367cdae198"},"type":"Feature"},{"geometry":{"coordinates":[[[179.305673885946,-16.402877697842],[179.323073724819,-16.402877697842],[179.31422,-16.395603],[179.305673885946,-16.402877697842]]],"type":"Polygon"},"id":65,"properties":{"parentKey":"FJI:1159313293","sourceCountryId":"FJI","syntheticOperational":true,"territoryId":"territory:catalog:c52c24ef3ebb27e14b323684be26843c65f8a16eed3c56c2eb8959ac35db7bb9"},"type":"Feature"},{"geometry":{"coordinates":[[[177.093923,-17.252699],[177.105235,-17.259698],[177.104486735214,-17.26618705036],[177.160694455524,-17.26618705036],[177.162852,-17.265802],[177.149181,-17.245294],[177.132579,-17.25449],[177.120128,-17.255466],[177.093923,-17.245294],[177.093923,-17.252699]]],"type":"Polygon"},"id":66,"properties":{"parentKey":"FJI:1159313271","sourceCountryId":"FJI","syntheticOperational":true,"territoryId":"territory:catalog:1d5859264e483348304c2145ea729c06fb9a7c198e4d8a14e706dcb85cee82b7"},"type":"Feature"},{"geometry":{"coordinates":[[[179.549718574109,-16.790997494198],[179.565115,-16.791681],[179.582286,-16.807061],[179.596853,-16.788751],[179.633311,-16.765883],[179.643809,-16.745701],[179.650564,-16.745701],[179.651866,-16.749282],[179.656749,-16.758722],[179.659841,-16.746759],[179.66627,-16.740655],[179.676036,-16.738458],[179.688324,-16.738214],[179.69988,-16.735284],[179.716482,-16.721938],[179.726329,-16.717706],[179.740245,-16.719334],[179.759288,-16.723728],[179.774859287054,-16.724671670441],[179.774859287054,-16.618705035971],[179.713956790139,-16.618705035971],[179.705821,-16.638116],[179.698416,-16.649509],[179.694509,-16.651462],[179.68214,-16.654067],[179.677908,-16.655532],[179.676117,-16.659356],[179.672699,-16.672947],[179.671072,-16.676853],[179.661876,-16.680271],[179.650564,-16.682224],[179.64088,-16.68727],[179.636974,-16.700616],[179.632579,-16.710219],[179.622081,-16.717869],[179.609548,-16.722752],[179.599376,-16.724542],[179.585216,-16.729425],[179.562511,-16.754815],[179.549718574109,-16.764788740728],[179.549718574109,-16.790997494198]]],"type":"Polygon"},"id":67,"properties":{"parentKey":"FJI:1159313293","sourceCountryId":"FJI","syntheticOperational":true,"territoryId":"territory:catalog:5ce04423f12432da006dca3b77d6ff7ba8e35567ba95b9ae5fa3e320a10ca3cf"},"type":"Feature"},{"geometry":{"coordinates":[[[179.100562148657,-16.618705035971],[179.324577861163,-16.618705035971],[179.325421611493,-16.618705035971],[179.325421611493,-16.404806848168],[179.323073724819,-16.402877697842],[179.305673885946,-16.402877697842],[179.29835,-16.409112],[179.269786,-16.405694],[179.258853478224,-16.402877697842],[179.2137236456,-16.402877697842],[179.198985,-16.405369],[179.191254,-16.407973],[179.187836,-16.412205],[179.180186,-16.426365],[179.177582,-16.429783],[179.167491,-16.431329],[179.136729,-16.429783],[179.106619,-16.43613],[179.100562148657,-16.43819914588],[179.100562148657,-16.618705035971]]],"type":"Polygon"},"id":68,"properties":{"parentKey":"FJI:1159313293","sourceCountryId":"FJI","syntheticOperational":true,"territoryId":"territory:catalog:35a752c536b15a685423924813734ca021307e891b77f8ec9d6a16203510d6f7"},"type":"Feature"},{"geometry":{"coordinates":[[[177.259044,-17.879327],[177.261567,-17.889337],[177.266775,-17.896417],[177.271495,-17.904229],[177.271979048689,-17.913669064748],[177.27959697733,-17.913669064748],[177.281308999371,-17.913669064748],[177.281308999371,-17.852102605665],[177.265636,-17.859552],[177.259044,-17.879327]]],"type":"Polygon"},"id":69,"properties":{"parentKey":"FJI:1159313271","sourceCountryId":"FJI","syntheticOperational":true,"territoryId":"territory:catalog:88d52dfff554f479e598d212aa82448fc929deb35db4c67e4d605e017f706b59"},"type":"Feature"},{"geometry":{"coordinates":[[[-178.403041825095,-19.171280294043],[-178.399607,-19.170994],[-178.391957,-19.165785],[-178.389272,-19.146417],[-178.392934,-19.127537],[-178.401112,-19.133477],[-178.403041825095,-19.136983480935],[-178.403041825095,-19.171280294043]]],"type":"Polygon"},"id":70,"properties":{"parentKey":"FJI:1159313273","sourceCountryId":"FJI","syntheticOperational":true,"territoryId":"territory:catalog:3739e2608089cbe4827784e1202775a09770d429cb0fb17ba6acd3a733d99935"},"type":"Feature"},{"geometry":{"coordinates":[[[-179.871638557001,-18.992805755396],[-179.848429446528,-18.992805755396],[-179.852895,-18.982599],[-179.855214,-18.963149],[-179.837758,-18.948826],[-179.816762,-18.952244],[-179.808217,-18.986423],[-179.78718,-18.955336],[-179.812693,-18.927341],[-179.84968,-18.923435],[-179.862864,-18.965102],[-179.863067,-18.965834],[-179.871638557001,-18.992805755396]]],"type":"Polygon"},"id":71,"properties":{"parentKey":"FJI:1159313273","sourceCountryId":"FJI","syntheticOperational":true,"territoryId":"territory:catalog:1c4917eaf924fd09eb2cf5d8b348e7fba02d560ba1f5818c1ea094bc3d9e27bb"},"type":"Feature"},{"geometry":{"coordinates":[[[178.413098236776,-18.103448659643],[178.421641,-18.108005],[178.438162,-18.122979],[178.439952,-18.126072],[178.439247194276,-18.129496402878],[178.487235227268,-18.129496402878],[178.487804,-18.129083],[178.485606,-18.108657],[178.498383,-18.104425],[178.52711,-18.09002],[178.536957,-18.091241],[178.545665,-18.097263],[178.550792,-18.097752],[178.555024,-18.099216],[178.560557,-18.108657],[178.559337,-18.112726],[178.547618,-18.129083],[178.559744,-18.127048],[178.588634,-18.115492],[178.588634,-18.129496402878],[178.595339318863,-18.129496402878],[178.612966,-18.1124],[178.639798488665,-18.099544853067],[178.639798488665,-17.972695338816],[178.62615,-17.971449],[178.613129,-17.956964],[178.5949,-17.926039],[178.593238833608,-17.913669064748],[178.4140969163,-17.913669064748],[178.413098236776,-17.913669064748],[178.413098236776,-18.103448659643]]],"type":"Polygon"},"id":72,"properties":{"parentKey":"FJI:1159313275","sourceCountryId":"FJI","syntheticOperational":true,"territoryId":"territory:catalog:50f8589d00c286345a14f810c1ee046eea95a26a87d20b65bd835b1ae8889cff"},"type":"Feature"},{"geometry":{"coordinates":[[[179.391775,-17.793064],[179.39503,-17.80641],[179.40268,-17.818617],[179.410411,-17.828058],[179.41684,-17.845473],[179.422618,-17.850518],[179.430837,-17.841078],[179.432302,-17.832778],[179.430512,-17.822931],[179.427257,-17.813653],[179.424083,-17.807061],[179.429454,-17.801365],[179.430837,-17.798517],[179.430837,-17.794041],[179.413748,-17.788995],[179.396739,-17.780369],[179.391775,-17.793064]]],"type":"Polygon"},"id":73,"properties":{"parentKey":"FJI:1159313273","sourceCountryId":"FJI","syntheticOperational":true,"territoryId":"territory:catalog:cab3673317061ee112d2292799bd0b345cd586d607b3525987a0f3cf0de36469"},"type":"Feature"},{"geometry":{"coordinates":[[[179.984386,-16.530206],[179.984548,-16.538263],[179.987478,-16.542413],[179.992524,-16.543145],[179.999216,-16.541452],[180,-16.541275],[180,-16.489519],[179.99915,-16.49133],[179.987153,-16.518324],[179.984386,-16.530206]]],"type":"Polygon"},"id":74,"properties":{"parentKey":"FJI:1159313293","sourceCountryId":"FJI","syntheticOperational":true,"territoryId":"territory:catalog:34eac2716c6d3ec7b960f17094fde12f46a8483ebccf00049b3c3b875e7db468"},"type":"Feature"},{"geometry":{"coordinates":[[[179.368826,-17.286798],[179.376313,-17.300551],[179.381358,-17.315199],[179.383474,-17.331231],[179.383474,-17.390558],[179.39088,-17.396254],[179.417817,-17.375665],[179.432872,-17.358331],[179.44337,-17.338637],[179.44988,-17.316095],[179.451915,-17.290297],[179.449291818825,-17.26618705036],[179.371691783986,-17.26618705036],[179.372081,-17.27337],[179.368826,-17.286798]]],"type":"Polygon"},"id":75,"properties":{"parentKey":"FJI:1159313273","sourceCountryId":"FJI","syntheticOperational":true,"territoryId":"territory:catalog:7376d4daac320c7235db406a4f90979c818660d0163f1b562d549660047b6ade"},"type":"Feature"},{"geometry":{"coordinates":[[[178.479015,-16.765883],[178.481212,-16.777276],[178.492442,-16.786716],[178.490408,-16.790216],[178.490245,-16.791192],[178.485606,-16.79339],[178.511567,-16.814223],[178.540701,-16.809177],[178.602306,-16.779718],[178.606212,-16.792901],[178.615001,-16.799737],[178.636404,-16.807061],[178.628367013793,-16.834532374101],[178.647463994991,-16.834532374101],[178.649155722326,-16.834532374101],[178.649155722326,-16.649381986957],[178.618826,-16.645196],[178.608409,-16.642022],[178.600759,-16.635512],[178.589203,-16.619399],[178.588114270416,-16.618705035971],[178.56278816971,-16.618705035971],[178.533946,-16.629002],[178.542817,-16.647882],[178.552745,-16.658949],[178.567068,-16.660089],[178.588634,-16.649509],[178.585623,-16.665134],[178.572927,-16.688897],[178.568044,-16.704034],[178.55714,-16.698337],[178.552501,-16.704848],[178.548513,-16.716241],[178.540212,-16.724542],[178.540212,-16.704034],[178.506521,-16.730401],[178.496593,-16.747166],[178.499278,-16.766046],[178.492442,-16.766046],[178.483572,-16.759942],[178.479015,-16.765883]]],"type":"Polygon"},"id":76,"properties":{"parentKey":"FJI:1159313293","sourceCountryId":"FJI","syntheticOperational":true,"territoryId":"territory:catalog:3b9a4e8271d225507c5ed9e539457500d2893d30c92e63f26e9c855cef3956ce"},"type":"Feature"},{"geometry":{"coordinates":[[[178.649155722326,-16.834532374101],[178.872886662492,-16.834532374101],[178.874296435272,-16.834532374101],[178.874296435272,-16.618705035971],[178.81684522234,-16.618705035971],[178.817393,-16.622735],[178.813975,-16.629978],[178.800955,-16.635837],[178.799045649499,-16.618705035971],[178.754715839341,-16.618705035971],[178.717621,-16.649509],[178.711436,-16.657322],[178.708995,-16.663018],[178.704275,-16.667087],[178.691091,-16.669854],[178.680919,-16.668064],[178.650076,-16.649509],[178.649155722326,-16.649381986957],[178.649155722326,-16.834532374101]]],"type":"Polygon"},"id":77,"properties":{"parentKey":"FJI:1159313293","sourceCountryId":"FJI","syntheticOperational":true,"territoryId":"territory:catalog:8dd8a4fd344bd61f8264908cd7b6c6b61e65554207b77707a2e38d20f9f9ce31"},"type":"Feature"},{"geometry":{"coordinates":[[[178.588634,-18.136],[178.595339318863,-18.129496402878],[178.588634,-18.129496402878],[178.588634,-18.136]]],"type":"Polygon"},"id":78,"properties":{"parentKey":"FJI:1159313275","sourceCountryId":"FJI","syntheticOperational":true,"territoryId":"territory:catalog:82c436cfda34f4c2dc35fb75b99e7d7cf1330bc5ce17eb38a7311df839335149"},"type":"Feature"},{"geometry":{"coordinates":[[[178.437755,-18.14658],[178.448416,-18.147556],[178.470225,-18.14186],[178.487235227268,-18.129496402878],[178.439247194276,-18.129496402878],[178.438813,-18.131606],[178.437755,-18.14658]]],"type":"Polygon"},"id":79,"properties":{"parentKey":"FJI:1159313275","sourceCountryId":"FJI","syntheticOperational":true,"territoryId":"territory:catalog:9596cd9598790a5b06134f6772708ba27992772076794614b731ce1fd41cf83a"},"type":"Feature"},{"geometry":{"coordinates":[[[179.883311,-16.655532],[179.917491,-16.655532],[179.935802,-16.654067],[179.947439,-16.644464],[179.952647,-16.628351],[179.952187937152,-16.618705035971],[179.945024290597,-16.618705035971],[179.944998,-16.618748],[179.934581,-16.625095],[179.92335,-16.628188],[179.914073,-16.629002],[179.910167,-16.632094],[179.910899,-16.646254],[179.907237,-16.649509],[179.900076,-16.65016],[179.883311,-16.655532]]],"type":"Polygon"},"id":80,"properties":{"parentKey":"FJI:1159313293","sourceCountryId":"FJI","syntheticOperational":true,"territoryId":"territory:catalog:8f2a00daa630e82edd1ccc1523b7dd39d279e68c164c90ed5640d19b638327af"},"type":"Feature"},{"geometry":{"coordinates":[[[178.874296435272,-16.834532374101],[179.040757148994,-16.834532374101],[179.044444,-16.823826],[179.06544,-16.798923],[179.095714,-16.807061],[179.099437148218,-16.805241194036],[179.099437148218,-16.618705035971],[178.875702685821,-16.618705035971],[178.874296435272,-16.618705035971],[178.874296435272,-16.834532374101]]],"type":"Polygon"},"id":81,"properties":{"parentKey":"FJI:1159313293","sourceCountryId":"FJI","syntheticOperational":true,"territoryId":"territory:catalog:701bbf5951d32b6e90f86e0ae163554b5d19003b17c2cce6e778bf6794b11622"},"type":"Feature"},{"geometry":{"coordinates":[[[177.291536050157,-17.075354460867],[177.292654,-17.072361],[177.292247,-17.058526],[177.291536050157,-17.057212141688],[177.291536050157,-17.075354460867]]],"type":"Polygon"},"id":82,"properties":{"parentKey":"FJI:1159313271","sourceCountryId":"FJI","syntheticOperational":true,"territoryId":"territory:catalog:8ed9432f4c5c9341e18869295706eb3d621b1d6393bb6b6a5721bd3e3ee11920"},"type":"Feature"},{"geometry":{"coordinates":[[[177.373057,-16.902927],[177.38559,-16.922459],[177.392589,-16.931329],[177.395356,-16.936782],[177.402599,-16.931085],[177.408458,-16.924493],[177.413259,-16.91725],[177.416515,-16.909438],[177.403656,-16.902602],[177.412934,-16.89129],[177.443696,-16.867852],[177.428233,-16.862888],[177.408214,-16.861098],[177.395763,-16.866143],[177.402843,-16.881524],[177.378917,-16.89365],[177.373057,-16.902927]]],"type":"Polygon"},"id":83,"properties":{"parentKey":"FJI:1159313271","sourceCountryId":"FJI","syntheticOperational":true,"territoryId":"territory:catalog:312456f770b3f1af5792fdddf7b0dd0ea4d87bfe3d7c404b253c73dbfc3e7343"},"type":"Feature"},{"geometry":{"coordinates":[[[179.2137236456,-16.402877697842],[179.258853478224,-16.402877697842],[179.240408,-16.398126],[179.222341,-16.399021],[179.216319,-16.402439],[179.2137236456,-16.402877697842]]],"type":"Polygon"},"id":84,"properties":{"parentKey":"FJI:1159313293","sourceCountryId":"FJI","syntheticOperational":true,"territoryId":"territory:catalog:2db9c983d687a8a2c4caaaefc9187bea93a20614f6ae4532a835aa0d5703c720"},"type":"Feature"},{"geometry":{"coordinates":[[[178.174904942966,-19.157259052009],[178.178966,-19.157485],[178.187836,-19.153253],[178.194672,-19.14658],[178.19752,-19.139337],[178.199474,-19.114028],[178.194998,-19.105564],[178.180186,-19.102309],[178.174904942966,-19.098909878968],[178.174904942966,-19.157259052009]]],"type":"Polygon"},"id":85,"properties":{"parentKey":"FJI:1159313273","sourceCountryId":"FJI","syntheticOperational":true,"territoryId":"territory:catalog:96b158878901808bf6ae0e17606e0d6b3169af984d8d01e6ace1a91fe5f0a1e7"},"type":"Feature"},{"geometry":{"coordinates":[[[177.175955,-17.163344],[177.203787,-17.16961],[177.203787,-17.157322],[177.20753,-17.148207],[177.21461,-17.14129],[177.224294,-17.135431],[177.227387,-17.141209],[177.230317,-17.143813],[177.233653,-17.145685],[177.238048,-17.149102],[177.24171,-17.132745],[177.271739,-17.112726],[177.279552,-17.094415],[177.287852,-17.085219],[177.291536050157,-17.075354460867],[177.291536050157,-17.057212141688],[177.290175019171,-17.054696912392],[177.287828090474,-17.05035971223],[177.28447721388,-17.05035971223],[177.27589,-17.074151],[177.272146,-17.080824],[177.26588,-17.080824],[177.261404,-17.075942],[177.249685,-17.057712],[177.248546,-17.053481],[177.240571,-17.056817],[177.218272,-17.073826],[177.211192,-17.080824],[177.207774,-17.090265],[177.206228,-17.101495],[177.202485,-17.111017],[177.193614,-17.114923],[177.186046,-17.120294],[177.184418,-17.132582],[177.186371,-17.146254],[177.190196,-17.155938],[177.186778,-17.156345],[177.175955,-17.155938],[177.175955,-17.163344]]],"type":"Polygon"},"id":86,"properties":{"parentKey":"FJI:1159313271","sourceCountryId":"FJI","syntheticOperational":true,"territoryId":"territory:catalog:5ca38f7d3305706d0e038042237de52ac8f1001be61690437c84f8939ca18415"},"type":"Feature"},{"geometry":{"coordinates":[[[178.108735,-18.403497],[178.126964,-18.41546],[178.142345,-18.411879],[178.152599,-18.397393],[178.156016,-18.376153],[178.150076,-18.357843],[178.138927,-18.348728],[178.127615,-18.351658],[178.122325,-18.369317],[178.121593,-18.375421],[178.12143,-18.380466],[178.120372,-18.384942],[178.116222,-18.389825],[178.12086,-18.395685],[178.121837,-18.399184],[178.118175,-18.401544],[178.108735,-18.403497]]],"type":"Polygon"},"id":87,"properties":{"parentKey":"FJI:1159313275","sourceCountryId":"FJI","syntheticOperational":true,"territoryId":"territory:catalog:e8aecf76caa3e5e5ce9319ac34f550084740581e3e3e1f4c3d69d37d54d4fbcc"},"type":"Feature"},{"geometry":{"coordinates":[[[179.945024290597,-16.618705035971],[179.952187937152,-16.618705035971],[179.951671,-16.607843],[179.945024290597,-16.618705035971]]],"type":"Polygon"},"id":88,"properties":{"parentKey":"FJI:1159313293","sourceCountryId":"FJI","syntheticOperational":true,"territoryId":"territory:catalog:b877684c9410fc50f25dbb09709e5f4142996dddde0a266b8aa165cff5c95ec7"},"type":"Feature"},{"geometry":{"coordinates":[[[179.904666503182,-16.187050359712],[179.979735932325,-16.187050359712],[179.998978,-16.169878],[180,-16.168951],[180,-16.149112],[179.998817,-16.149102],[179.983165,-16.149102],[179.910655,-16.179864],[179.904666503182,-16.187050359712]]],"type":"Polygon"},"id":89,"properties":{"parentKey":"FJI:1159313293","sourceCountryId":"FJI","syntheticOperational":true,"territoryId":"territory:catalog:6335937b276234db22adea1ed01e6becf60243323057d90f65565aae50b18305"},"type":"Feature"},{"geometry":{"coordinates":[[[178.813975,-16.597589],[178.81684522234,-16.618705035971],[178.874296435272,-16.618705035971],[178.875702685821,-16.618705035971],[178.875702685821,-16.539646],[178.869151,-16.539646],[178.86964,-16.550063],[178.867931,-16.557061],[178.863455,-16.562188],[178.855479,-16.56699],[178.854666,-16.560317],[178.850352,-16.551446],[178.848643,-16.546319],[178.81837,-16.586847],[178.813975,-16.597589]]],"type":"Polygon"},"id":90,"properties":{"parentKey":"FJI:1159313293","sourceCountryId":"FJI","syntheticOperational":true,"territoryId":"territory:catalog:6725ad3406ec71d442000e5470a1f5004e125ba4f0bbc2d804cb6aafc2aa79c7"},"type":"Feature"},{"geometry":{"coordinates":[[[177.63568158176,-18.561151079137],[177.636485,-18.562758],[177.648774,-18.579278],[177.663097,-18.588474],[177.659187025392,-18.561151079137],[177.63568158176,-18.561151079137]]],"type":"Polygon"},"id":91,"properties":{"parentKey":"FJI:1159313271","sourceCountryId":"FJI","syntheticOperational":true,"territoryId":"territory:catalog:3e530daceb50b1beb1853c3542dc70406732f04874a51ab487affefc9077a406"},"type":"Feature"},{"geometry":{"coordinates":[[[177.732997481108,-18.129496402878],[177.821530565895,-18.129496402878],[177.826076,-18.123028],[177.82649,-18.116723],[177.823906,-18.112693],[177.818635,-18.110936],[177.79507,-18.110057],[177.787732,-18.10923],[177.782358,-18.106956],[177.778741,-18.102771],[177.77564,-18.095536],[177.769439,-18.075486],[177.768199,-18.065977],[177.769232,-18.057709],[177.773315,-18.050319],[177.787422,-18.030992],[177.79228,-18.021794],[177.799411,-18.001898],[177.805612,-17.992597],[177.815224,-17.985362],[177.833363,-17.980091],[177.84592,-17.979626],[177.858012,-17.980969],[177.93532,-18.000451],[177.945087,-18.000813],[177.957179,-17.999418],[177.959697732997,-17.998825979947],[177.959697732997,-17.913669064748],[177.734424166142,-17.913669064748],[177.732997481108,-17.913669064748],[177.732997481108,-18.129496402878]]],"type":"Polygon"},"id":92,"properties":{"parentKey":"FJI:1159313271","sourceCountryId":"FJI","syntheticOperational":true,"territoryId":"territory:catalog:3220649a2ca9516651e5514cab6abf46f04f384493c8320551d34018478396f1"},"type":"Feature"},{"geometry":{"coordinates":[[[-179.157083193964,-17.26618705036],[-179.12818732351,-17.26618705036],[-179.127878,-17.264907],[-179.134389,-17.25213],[-179.146474,-17.247979],[-179.156687,-17.254083],[-179.157083193964,-17.26618705036]]],"type":"Polygon"},"id":93,"properties":{"parentKey":"FJI:1159313273","sourceCountryId":"FJI","syntheticOperational":true,"territoryId":"territory:catalog:ec3e11b67a51a5a6634fed41bf3a455aa31ec61c83c9b45b67f655966c8d195c"},"type":"Feature"},{"geometry":{"coordinates":[[[177.963544940289,-17.697841726619],[178.006264064948,-17.697841726619],[178.00684,-17.678972],[178.009114,-17.668895],[178.014282,-17.659439],[178.028545,-17.638665],[178.032575,-17.629363],[178.034022,-17.620009],[178.032885,-17.610708],[178.026064,-17.591536],[178.023894,-17.580942],[178.025651,-17.572726],[178.030922,-17.567558],[178.041567,-17.570917],[178.050559,-17.578462],[178.072056,-17.601974],[178.097894,-17.642282],[178.105542,-17.650499],[178.114224,-17.658043],[178.123991,-17.663934],[178.139235,-17.668224],[178.157322,-17.669929],[178.189817724701,-17.668935344974],[178.189817724701,-17.482014388489],[177.966101694915,-17.482014388489],[177.963544940289,-17.482014388489],[177.963544940289,-17.697841726619]]],"type":"Polygon"},"id":94,"properties":{"parentKey":"FJI:1159313271","sourceCountryId":"FJI","syntheticOperational":true,"territoryId":"territory:catalog:976d858891a62f72d868703c24a796e7ad2e0d3b1de1771dc155b9412fa67ed9"},"type":"Feature"},{"geometry":{"coordinates":[[[177.959697732997,-18.129496402878],[178.184110970996,-18.129496402878],[178.186397984887,-18.129496402878],[178.186397984887,-17.913669064748],[177.986090534311,-17.913669064748],[177.985911,-17.91441],[177.986532,-17.922472],[177.991854,-17.928363],[177.998314,-17.93353],[178.004205,-17.939473],[178.007357,-17.946449],[178.007616,-17.953322],[177.997384,-17.982985],[177.989322,-17.989651],[177.980485,-17.99394],[177.959697732997,-17.998825979947],[177.959697732997,-18.129496402878]]],"type":"Polygon"},"id":95,"properties":{"parentKey":"FJI:1159313275","sourceCountryId":"FJI","syntheticOperational":true,"territoryId":"territory:catalog:ac59a03e1e2ea9bb466334775635d39c5feb1b24a2a149b2c443a6913877a14b"},"type":"Feature"},{"geometry":{"coordinates":[[[177.737272155877,-17.697841726619],[177.960981749528,-17.697841726619],[177.963544940289,-17.697841726619],[177.963544940289,-17.482014388489],[177.74011299435,-17.482014388489],[177.737272155877,-17.482014388489],[177.737272155877,-17.697841726619]]],"type":"Polygon"},"id":96,"properties":{"parentKey":"FJI:1159313271","sourceCountryId":"FJI","syntheticOperational":true,"territoryId":"territory:catalog:de75e07bcc3e557210ba57908a5abbd760e53ecd7516765edab7d963a8231af2"},"type":"Feature"},{"geometry":{"coordinates":[[[179.775140537164,-16.412964663931],[179.781016,-16.403009],[179.78101551054,-16.402877697842],[179.775280898876,-16.402877697842],[179.775140537164,-16.402877697842],[179.775140537164,-16.412964663931]]],"type":"Polygon"},"id":97,"properties":{"parentKey":"FJI:1159313293","sourceCountryId":"FJI","syntheticOperational":true,"territoryId":"territory:catalog:38f850f2bc246f2e7fb3eb66844e6860b860aedc588778a3720ad26c471eb821"},"type":"Feature"},{"geometry":{"coordinates":[[[179.550561797753,-16.402877697842],[179.775140537164,-16.402877697842],[179.775280898876,-16.402877697842],[179.775280898876,-16.223072141979],[179.772716,-16.219415],[179.770681,-16.196547],[179.766749841379,-16.187050359712],[179.754273892023,-16.187050359712],[179.734711,-16.197931],[179.710297,-16.207778],[179.705251,-16.214044],[179.701834,-16.223077],[179.693533,-16.225763],[179.67449,-16.224298],[179.670665,-16.223077],[179.667491,-16.220636],[179.663341,-16.218194],[179.656423,-16.217462],[179.656505,-16.220636],[179.656016,-16.22796],[179.653331,-16.235284],[179.647146,-16.238539],[179.640147,-16.237563],[179.634044,-16.237888],[179.630138,-16.243422],[179.630138,-16.258966],[179.624848,-16.248305],[179.618907,-16.242608],[179.611501,-16.243341],[179.602794,-16.25213],[179.592947,-16.245701],[179.581879,-16.241957],[179.572927,-16.236423],[179.568044,-16.224298],[179.563162,-16.2374],[179.554373,-16.272638],[179.550561797753,-16.264035126127],[179.550561797753,-16.402877697842]]],"type":"Polygon"},"id":98,"properties":{"parentKey":"FJI:1159313293","sourceCountryId":"FJI","syntheticOperational":true,"territoryId":"territory:catalog:7513302249d95fdb60040559689ad9fe330b52fc49a554e905a5ce5c143c3c48"},"type":"Feature"},{"geometry":{"coordinates":[[[177.510999371465,-17.697841726619],[177.734424166142,-17.697841726619],[177.737272155877,-17.697841726619],[177.737272155877,-17.482014388489],[177.664239487784,-17.482014388489],[177.669281,-17.492364],[177.663097,-17.498468],[177.657237,-17.48797],[177.654938528751,-17.482014388489],[177.576533220636,-17.482014388489],[177.539561,-17.51214],[177.533376,-17.51214],[177.524425,-17.500746],[177.515147,-17.50506],[177.510999371465,-17.511089138942],[177.510999371465,-17.697841726619]]],"type":"Polygon"},"id":99,"properties":{"parentKey":"FJI:1159313271","sourceCountryId":"FJI","syntheticOperational":true,"territoryId":"territory:catalog:d734b98ff3501fcf85c2de25cfb81d62a6516e721aa48b9ce7eb71c102a0b16e"},"type":"Feature"},{"geometry":{"coordinates":[[[179.771863117871,-19.19136255943],[179.772146,-19.191339],[179.802013,-19.184259],[179.797537,-19.16839],[179.794119,-19.148045],[179.788585,-19.130466],[179.777517,-19.122817],[179.771863117871,-19.124136734762],[179.771863117871,-19.165237796642],[179.774099,-19.170668],[179.771863117871,-19.169699102481],[179.771863117871,-19.19136255943]]],"type":"Polygon"},"id":100,"properties":{"parentKey":"FJI:1159313273","sourceCountryId":"FJI","syntheticOperational":true,"territoryId":"territory:catalog:1540c1fb53f072f8da371912fbb9a8ab396bccb320d88c09fd8def4a7cc489d0"},"type":"Feature"},{"geometry":{"coordinates":[[[177.28447721388,-17.05035971223],[177.287828090474,-17.05035971223],[177.285818,-17.046645],[177.28447721388,-17.05035971223]]],"type":"Polygon"},"id":101,"properties":{"parentKey":"FJI:1159313271","sourceCountryId":"FJI","syntheticOperational":true,"territoryId":"territory:catalog:86acef87a1afefbdc1a40c62dfd2e8f4cfcbf3b2386f0d52439b7120f433303a"},"type":"Feature"},{"geometry":{"coordinates":[[[178.872886662492,-16.861724444424],[178.874034,-16.861098],[178.8838,-16.85768],[178.894542,-16.859308],[178.910004,-16.867852],[178.910004,-16.848077],[178.917003,-16.848077],[178.917247,-16.858331],[178.920258,-16.866957],[178.925955,-16.873142],[178.945323,-16.877537],[178.948904,-16.882989],[178.950206,-16.89072],[178.954438,-16.899021],[178.967459,-16.906345],[179.006847,-16.917739],[179.019867,-16.92311],[179.026866,-16.92311],[179.037283,-16.912693],[179.065603,-16.893487],[179.075206,-16.881524],[179.056651,-16.878025],[179.045421,-16.880141],[179.019867,-16.895196],[179.040757148994,-16.834532374101],[178.874296435272,-16.834532374101],[178.872886662492,-16.834532374101],[178.872886662492,-16.861724444424]]],"type":"Polygon"},"id":102,"properties":{"parentKey":"FJI:1159313293","sourceCountryId":"FJI","syntheticOperational":true,"territoryId":"territory:catalog:a3a534b219aa94b14009ffcaa8c597d597bea3c0d781ed1bd48801671bdabef7"},"type":"Feature"},{"geometry":{"coordinates":[[[178.471934,-18.907159],[178.499278,-18.9249],[178.508311,-18.926446],[178.513682,-18.915948],[178.520518,-18.906183],[178.533946,-18.910577],[178.537608,-18.900486],[178.538259,-18.892267],[178.534841,-18.884535],[178.526541,-18.87656],[178.531586,-18.860447],[178.516368,-18.857354],[178.49586,-18.86297],[178.485606,-18.873142],[178.483409,-18.880304],[178.474132,-18.895278],[178.471934,-18.907159]]],"type":"Polygon"},"id":103,"properties":{"parentKey":"FJI:1159313273","sourceCountryId":"FJI","syntheticOperational":true,"territoryId":"territory:catalog:9ce2280ae3e9a1d59be3f66d21cfd85a024904451bfe0d94daeddbe6678ede8a"},"type":"Feature"},{"geometry":{"coordinates":[[[-179.078704,-17.966642],[-179.069336,-17.989319],[-179.059122,-18.000657],[-179.046215,-18.007515],[-179.027865,-18.003014],[-179.027969,-17.9899],[-179.031831,-17.966329],[-179.050294,-17.955952],[-179.059511,-17.952518],[-179.078704,-17.966642]]],"type":"Polygon"},"id":104,"properties":{"parentKey":"FJI:1159313273","sourceCountryId":"FJI","syntheticOperational":true,"territoryId":"territory:catalog:db1059743c05b0e6c59631ee7991fdd46eda80de41f765945c2136fda5c9bd79"},"type":"Feature"},{"geometry":{"coordinates":[[[-179.320327249843,-17.770540049748],[-179.296457,-17.774184],[-179.280751,-17.760186],[-179.279734,-17.739435],[-179.298085,-17.72324],[-179.320302,-17.724867],[-179.320327249843,-17.724894465283],[-179.320327249843,-17.770540049748]]],"type":"Polygon"},"id":105,"properties":{"parentKey":"FJI:1159313273","sourceCountryId":"FJI","syntheticOperational":true,"territoryId":"territory:catalog:33baf5aa6bcb9ac189a7861650c97fec4199de39d707a7ea2b0f532ab65cd051"},"type":"Feature"},{"geometry":{"coordinates":[[[179.296886,-16.806817],[179.324577861163,-16.804787965497],[179.324577861163,-16.770780439359],[179.323416,-16.771173],[179.31422,-16.783298],[179.307953,-16.797459],[179.297862,-16.804457],[179.296886,-16.806817]]],"type":"Polygon"},"id":106,"properties":{"parentKey":"FJI:1159313293","sourceCountryId":"FJI","syntheticOperational":true,"territoryId":"territory:catalog:7c8930c21517e46a2be61eb7cc7edf2a517ec53c06d5c9295cf4dc9041fe9993"},"type":"Feature"},{"geometry":{"coordinates":[[[-179.871938,-18.993748],[-179.858266,-19.005955],[-179.84435,-19.00213],[-179.848429446528,-18.992805755396],[-179.871638557001,-18.992805755396],[-179.871938,-18.993748]]],"type":"Polygon"},"id":107,"properties":{"parentKey":"FJI:1159313273","sourceCountryId":"FJI","syntheticOperational":true,"territoryId":"territory:catalog:243a76a6d542315c6540747c5a7cfd300da4180df5092554a76c56d875c4bcf9"},"type":"Feature"},{"geometry":{"coordinates":[[[177.734424166142,-17.913669064748],[177.959697732997,-17.913669064748],[177.960981749528,-17.913669064748],[177.960981749528,-17.697841726619],[177.737272155877,-17.697841726619],[177.734424166142,-17.697841726619],[177.734424166142,-17.913669064748]]],"type":"Polygon"},"id":108,"properties":{"parentKey":"FJI:1159313271","sourceCountryId":"FJI","syntheticOperational":true,"territoryId":"territory:catalog:90ffe8cf725dbf41a3065a6a0034667c2d60714c5000c1648e56d60bb46eb03d"},"type":"Feature"},{"geometry":{"coordinates":[[[179.740001,-19.177423],[179.741873,-19.186212],[179.745942,-19.190118],[179.760427,-19.192315],[179.771863117871,-19.19136255943],[179.771863117871,-19.169699102481],[179.769216,-19.168552],[179.757986,-19.165704],[179.75294,-19.163832],[179.749522,-19.171482],[179.749034,-19.173272],[179.747244,-19.173923],[179.740001,-19.177423]]],"type":"Polygon"},"id":109,"properties":{"parentKey":"FJI:1159313273","sourceCountryId":"FJI","syntheticOperational":true,"territoryId":"territory:catalog:28da889ece9eb3552869c42470b8d840fa535990f0f428941d5ac98fd1705e2a"},"type":"Feature"},{"geometry":{"coordinates":[[[178.28004,-16.786716],[178.28297,-16.822361],[178.290212,-16.834405],[178.307384,-16.827569],[178.333669,-16.828871],[178.335623,-16.825128],[178.330089,-16.81406],[178.333995,-16.79339],[178.306407,-16.793878],[178.294688,-16.792087],[178.286306,-16.786716],[178.28004,-16.786716]]],"type":"Polygon"},"id":110,"properties":{"parentKey":"FJI:1159313293","sourceCountryId":"FJI","syntheticOperational":true,"territoryId":"territory:catalog:ad917538912f5a632aa92af1356fad7255c3eb3929388ac9aa62091b9d9fa6ba"},"type":"Feature"},{"geometry":{"coordinates":[[[-179.019968,-17.149102],[-179.018544,-17.156915],[-179.017079,-17.176528],[-179.013132,-17.183852],[-179.003774,-17.188653],[-178.982045,-17.19256],[-178.972157,-17.197442],[-178.960276,-17.205499],[-178.958323,-17.211358],[-178.958485,-17.224786],[-178.962839,-17.230239],[-178.970652,-17.233819],[-178.975779,-17.239841],[-178.972157,-17.252699],[-178.985341,-17.263767],[-178.986881440957,-17.26618705036],[-178.954919183929,-17.26618705036],[-178.946278,-17.25921],[-178.92748,-17.252699],[-178.925974,-17.247247],[-178.910715,-17.214532],[-178.917348,-17.201267],[-178.932932,-17.191502],[-178.964711,-17.176935],[-178.985422,-17.175877],[-178.996897,-17.166111],[-179.006052,-17.154718],[-179.019968,-17.149102]]],"type":"Polygon"},"id":111,"properties":{"parentKey":"FJI:1159313273","sourceCountryId":"FJI","syntheticOperational":true,"territoryId":"territory:catalog:1a54f77adc305d58e5aa73b84694163f3e87bd55319d1d8c4cb1d483d0ab866e"},"type":"Feature"},{"geometry":{"coordinates":[[[178.560395,-16.587335],[178.56365,-16.590916],[178.566742,-16.592462],[178.573985,-16.594171],[178.592459,-16.595636],[178.60613,-16.591729],[178.615733,-16.583754],[178.622569,-16.573012],[178.61378,-16.578058],[178.605154,-16.580011],[178.59669,-16.578383],[178.588227,-16.573012],[178.560395,-16.587335]]],"type":"Polygon"},"id":112,"properties":{"parentKey":"FJI:1159313293","sourceCountryId":"FJI","syntheticOperational":true,"territoryId":"territory:catalog:c7c0ae98d38438d1848fd0c334a5314eb4c6036a50c18008664a65bd25c615a8"},"type":"Feature"},{"geometry":{"coordinates":[[[-179.33613,-17.758477],[-179.322581,-17.770196],[-179.320327249843,-17.770540049748],[-179.320327249843,-17.724894465283],[-179.334218,-17.740004],[-179.33613,-17.758477]]],"type":"Polygon"},"id":113,"properties":{"parentKey":"FJI:1159313273","sourceCountryId":"FJI","syntheticOperational":true,"territoryId":"territory:catalog:ed2e52a7d55ab243d7229943090111bd42fcf4bd1f04855890d21b58182d9695"},"type":"Feature"},{"geometry":{"coordinates":[[[177.959697732997,-17.998825979947],[177.980485,-17.99394],[177.989322,-17.989651],[177.997384,-17.982985],[178.007616,-17.953322],[178.007357,-17.946449],[178.004205,-17.939473],[177.998314,-17.93353],[177.991854,-17.928363],[177.986532,-17.922472],[177.985911,-17.91441],[177.986090534311,-17.913669064748],[177.960981749528,-17.913669064748],[177.959697732997,-17.913669064748],[177.959697732997,-17.998825979947]]],"type":"Polygon"},"id":114,"properties":{"parentKey":"FJI:1159313271","sourceCountryId":"FJI","syntheticOperational":true,"territoryId":"territory:catalog:703e8bc961738e64beb90ac7c493472ffdfa2a8e2184bebc440de6273950ab1e"},"type":"Feature"},{"geometry":{"coordinates":[[[178.639798488665,-18.099544853067],[178.663585,-18.088149],[178.673106,-18.081476],[178.684581,-18.070408],[178.694509,-18.056899],[178.698416,-18.043145],[178.697927,-18.033787],[178.698416,-18.019301],[178.700694,-18.012872],[178.708995,-17.9992],[178.711436,-17.991957],[178.705333,-17.991957],[178.703298,-17.997003],[178.699229,-18.003839],[178.693858,-18.009942],[178.687673,-18.012384],[178.677013,-18.011407],[178.674571,-18.008722],[178.674164,-18.004327],[178.670421,-17.998793],[178.659679,-17.986993],[178.654307,-17.978448],[178.645763,-17.97324],[178.639798488665,-17.972695338816],[178.639798488665,-18.099544853067]]],"type":"Polygon"},"id":115,"properties":{"parentKey":"FJI:1159313275","sourceCountryId":"FJI","syntheticOperational":true,"territoryId":"territory:catalog:c716b7a088b9249c598b404e396ae9f2a1155d18ed3b9f4f9c26123958aaf39a"},"type":"Feature"},{"geometry":{"coordinates":[[[178.627452,-16.83766],[178.640636,-16.860528],[178.647463994991,-16.867075278939],[178.647463994991,-16.834532374101],[178.628367013793,-16.834532374101],[178.627452,-16.83766]]],"type":"Polygon"},"id":116,"properties":{"parentKey":"FJI:1159313293","sourceCountryId":"FJI","syntheticOperational":true,"territoryId":"territory:catalog:31c73c11e4fea2c40bd521c8e1dbd7c6e29b437ccd7672748f72820abe1e1376"},"type":"Feature"},{"geometry":{"coordinates":[[[178.189817724701,-17.668935344974],[178.213081,-17.668224],[178.245172,-17.660834],[178.261295,-17.655511],[178.271734,-17.647501],[178.274679,-17.642385],[178.275765,-17.638096],[178.276075,-17.634841],[178.27716,-17.629208],[178.279175,-17.625435],[178.282586,-17.62218],[178.290182,-17.622955],[178.297469,-17.626417],[178.322273,-17.643471],[178.331627,-17.646571],[178.341704,-17.647811],[178.360617,-17.647191],[178.368989,-17.648431],[178.376637,-17.650964],[178.385164,-17.655408],[178.407333,-17.664089],[178.416090509114,-17.665386699344],[178.416090509114,-17.530607170724],[178.403575,-17.522393],[178.399913,-17.518976],[178.397472,-17.515313],[178.379405,-17.500258],[178.375743,-17.498468],[178.374278,-17.491388],[178.376637914223,-17.482014388489],[178.19209039548,-17.482014388489],[178.189817724701,-17.482014388489],[178.189817724701,-17.668935344974]]],"type":"Polygon"},"id":117,"properties":{"parentKey":"FJI:1159313271","sourceCountryId":"FJI","syntheticOperational":true,"territoryId":"territory:catalog:3ae18ab3366a406b00b1f36f4612722bb3d32e2b5a18ac1aa6d3c31c35b7a9f7"},"type":"Feature"},{"geometry":{"coordinates":[[[178.403041825095,-19.044384169906],[178.40504,-19.044529],[178.416677,-19.047784],[178.425141,-19.043064],[178.428966,-19.036798],[178.428559,-19.029392],[178.424083,-19.02044],[178.443858,-19.023858],[178.453868,-19.026788],[178.460948,-19.032647],[178.475597,-19.023207],[178.496593,-19.013279],[178.498383,-18.996759],[178.497273407012,-18.992805755396],[178.405063291139,-18.992805755396],[178.403041825095,-18.992805755396],[178.403041825095,-19.044384169906]]],"type":"Polygon"},"id":118,"properties":{"parentKey":"FJI:1159313273","sourceCountryId":"FJI","syntheticOperational":true,"territoryId":"territory:catalog:1adcd3e5ffe5f703cf4e21d5219e60e0d941ed01055095cd963a77bab8cdea02"},"type":"Feature"},{"geometry":{"coordinates":[[[-178.516306,-18.649998],[-178.507151,-18.665216],[-178.498118,-18.665948],[-178.490305,-18.66074],[-178.486073,-18.651788],[-178.487986,-18.641371],[-178.499216,-18.633722],[-178.511098,-18.637953],[-178.516306,-18.649998]]],"type":"Polygon"},"id":119,"properties":{"parentKey":"FJI:1159313273","sourceCountryId":"FJI","syntheticOperational":true,"territoryId":"territory:catalog:1951454993cff7d1ba7ad1d1445fe6c462eb40648fc5135a88e32396cf13cdd8"},"type":"Feature"},{"geometry":{"coordinates":[[[179.325421611493,-16.618705035971],[179.549718574109,-16.618705035971],[179.550281074329,-16.618705035971],[179.550281074329,-16.402877697842],[179.40304893234,-16.402877697842],[179.403575,-16.407973],[179.396495,-16.405694],[179.392426,-16.40602],[179.388031,-16.407159],[179.379649,-16.407973],[179.372081,-16.40488],[179.371145708308,-16.402877697842],[179.339095141438,-16.402877697842],[179.338227,-16.403985],[179.329275,-16.407973],[179.325421611493,-16.404806848168],[179.325421611493,-16.618705035971]]],"type":"Polygon"},"id":120,"properties":{"parentKey":"FJI:1159313293","sourceCountryId":"FJI","syntheticOperational":true,"territoryId":"territory:catalog:8ff01e5c5ff184e4120a5d750c49e0842bc2605298241ba68cdff4b3bdb3b048"},"type":"Feature"},{"geometry":{"coordinates":[[[-178.23054,-19.835219],[-178.226796,-19.84002],[-178.220041,-19.827895],[-178.2176,-19.821873],[-178.216135,-19.815199],[-178.223622,-19.822198],[-178.228953,-19.829034],[-178.23054,-19.835219]]],"type":"Polygon"},"id":121,"properties":{"parentKey":"FJI:1159313273","sourceCountryId":"FJI","syntheticOperational":true,"territoryId":"territory:catalog:7f14f983cfa461ad31129b573366f033cd4dcd945ab17f7575ae668d79ed56d0"},"type":"Feature"},{"geometry":{"coordinates":[[[177.783376,-18.223158],[177.827159,-18.23447],[177.831391,-18.239923],[177.834483,-18.246677],[177.853689,-18.263116],[177.859386,-18.265802],[177.865408,-18.262872],[177.870453,-18.258559],[177.878429,-18.253676],[177.885753,-18.251642],[177.889008,-18.256036],[177.894054,-18.273126],[177.906098,-18.269301],[177.921072,-18.260675],[177.934093,-18.262872],[177.945811,-18.268731],[177.957124842371,-18.266297368097],[177.957124842371,-18.129496402878],[177.821530565895,-18.129496402878],[177.803235,-18.155532],[177.799515,-18.163284],[177.797344,-18.170208],[177.794554,-18.197442],[177.79135,-18.210206],[177.783376,-18.223158]]],"type":"Polygon"},"id":122,"properties":{"parentKey":"FJI:1159313275","sourceCountryId":"FJI","syntheticOperational":true,"territoryId":"territory:catalog:73524e92fe217569ad4cdcea768dc09ade380fe872a701cb475a4304ade91d6f"},"type":"Feature"},{"geometry":{"coordinates":[[[179.913704649347,-18.561151079137],[179.946576220396,-18.561151079137],[179.943427,-18.556346],[179.927671,-18.557989],[179.913704649347,-18.561151079137]]],"type":"Polygon"},"id":123,"properties":{"parentKey":"FJI:1159313273","sourceCountryId":"FJI","syntheticOperational":true,"territoryId":"territory:catalog:063aeb2de1184f70fc0b07410d8867efb3ca0404c5195a1843d114c211875d0e"},"type":"Feature"},{"geometry":{"coordinates":[[[174.588878,-21.681573],[174.596853,-21.698419],[174.615896,-21.711114],[174.627778,-21.702569],[174.631196,-21.68963],[174.626638,-21.676528],[174.614106,-21.668227],[174.594005,-21.668715],[174.588878,-21.681573]]],"type":"Polygon"},"id":124,"properties":{"parentKey":"FJI:1159313271","sourceCountryId":"FJI","syntheticOperational":true,"territoryId":"territory:catalog:51ae5e8a2272f8cd0faeb9940f49c80abe0405f2ec048e4a988f5786da52cb9e"},"type":"Feature"},{"geometry":{"coordinates":[[[-178.731028,-20.657647],[-178.727244,-20.664727],[-178.719065,-20.670994],[-178.711008,-20.671808],[-178.708119,-20.671319],[-178.715281,-20.666192],[-178.720815,-20.659275],[-178.724233,-20.650974],[-178.724965,-20.642348],[-178.730295,-20.650079],[-178.731028,-20.657647]]],"type":"Polygon"},"id":125,"properties":{"parentKey":"FJI:1159313273","sourceCountryId":"FJI","syntheticOperational":true,"territoryId":"territory:catalog:3079541dd37dfc5480bbd3a99a04c47a674ff7a3db716201ac89335163ccaed1"},"type":"Feature"},{"geometry":{"coordinates":[[[179.775280898876,-16.402877697842],[179.78101551054,-16.402877697842],[179.780935,-16.38128],[179.798106,-16.369561],[179.838145,-16.31406],[179.851248,-16.290948],[179.859141,-16.28631],[179.858246,-16.282647],[179.865408,-16.274509],[179.879649,-16.26214],[179.886485,-16.25449],[179.895681,-16.238702],[179.903819,-16.231134],[179.91212,-16.22796],[179.929942,-16.227146],[179.937999,-16.224298],[179.979735932325,-16.187050359712],[179.904666503182,-16.187050359712],[179.903331,-16.188653],[179.868175,-16.215997],[179.855968,-16.231134],[179.850841,-16.22796],[179.83961,-16.228123],[179.828787,-16.224298],[179.836599,-16.219496],[179.841319,-16.213474],[179.83961,-16.207696],[179.828787,-16.20436],[179.814464,-16.207696],[179.792979,-16.226495],[179.780935,-16.231134],[179.775280898876,-16.223072141979],[179.775280898876,-16.402877697842]]],"type":"Polygon"},"id":126,"properties":{"parentKey":"FJI:1159313293","sourceCountryId":"FJI","syntheticOperational":true,"territoryId":"territory:catalog:b58ae4707d33189de6b7d633148cf9fbe26a307da082d1636bc03705b6d09b81"},"type":"Feature"},{"geometry":{"coordinates":[[[177.410107490272,-18.129496402878],[177.437185,-18.136],[177.442556,-18.140232],[177.447602,-18.146091],[177.454275,-18.151951],[177.465099,-18.156427],[177.474457,-18.15781],[177.50315258512,-18.156421742443],[177.50315258512,-18.129496402878],[177.410107490272,-18.129496402878]]],"type":"Polygon"},"id":127,"properties":{"parentKey":"FJI:1159313271","sourceCountryId":"FJI","syntheticOperational":true,"territoryId":"territory:catalog:9334ba55c5f7f2eae5b31a46cbca37d4f175db94995f5b1ff0ccaa7ff62adcc0"},"type":"Feature"},{"geometry":{"coordinates":[[[179.713956790139,-16.618705035971],[179.774859287054,-16.618705035971],[179.775140537164,-16.618705035971],[179.775140537164,-16.568840470504],[179.765391,-16.571954],[179.756684,-16.576755],[179.75294,-16.583917],[179.749766,-16.592462],[179.742035,-16.596368],[179.732107,-16.599216],[179.722667,-16.604425],[179.716156,-16.613458],[179.713956790139,-16.618705035971]]],"type":"Polygon"},"id":128,"properties":{"parentKey":"FJI:1159313293","sourceCountryId":"FJI","syntheticOperational":true,"territoryId":"territory:catalog:fd5ec0166e018739aa6abcfba2e199c3ea26283d236351b3475ecc7ac4dc854b"},"type":"Feature"},{"geometry":{"coordinates":[[[178.56278816971,-16.618705035971],[178.588114270416,-16.618705035971],[178.581798,-16.614679],[178.571788,-16.615492],[178.56278816971,-16.618705035971]]],"type":"Polygon"},"id":129,"properties":{"parentKey":"FJI:1159313293","sourceCountryId":"FJI","syntheticOperational":true,"territoryId":"territory:catalog:3b6e88ab0305a6af8aa44f75927eb27b58eaa00e98a2d366b67020f56ef27b97"},"type":"Feature"},{"geometry":{"coordinates":[[[177.251638,-17.952244],[177.255138,-17.962823],[177.262055,-17.971368],[177.266449,-17.979425],[177.262462,-17.988539],[177.26295,-17.993829],[177.27959697733,-18.002861553767],[177.27959697733,-17.913669064748],[177.271979048689,-17.913669064748],[177.272146,-17.916925],[177.267914,-17.927179],[177.254568,-17.944594],[177.251638,-17.952244]]],"type":"Polygon"},"id":130,"properties":{"parentKey":"FJI:1159313271","sourceCountryId":"FJI","syntheticOperational":true,"territoryId":"territory:catalog:16b70eb1c3ffcae5836de42a1bbe19c9021be433508f49623f2a9bb105184419"},"type":"Feature"},{"geometry":{"coordinates":[[[178.19209039548,-17.482014388489],[178.376637914223,-17.482014388489],[178.377208,-17.47975],[178.375743,-17.471287],[178.364594,-17.452895],[178.348318,-17.440118],[178.327485,-17.432794],[178.303722,-17.430271],[178.285981,-17.438084],[178.258637,-17.468927],[178.245372,-17.471287],[178.253754,-17.465509],[178.258067,-17.457452],[178.256033,-17.44964],[178.245372,-17.443943],[178.254405,-17.431817],[178.279552,-17.407403],[178.286306,-17.396661],[178.286469,-17.383722],[178.275564,-17.363702],[178.272716,-17.351739],[178.262706,-17.335626],[178.239106,-17.320082],[178.211681,-17.307712],[178.19209039548,-17.301206930958],[178.19209039548,-17.482014388489]]],"type":"Polygon"},"id":131,"properties":{"parentKey":"FJI:1159313271","sourceCountryId":"FJI","syntheticOperational":true,"territoryId":"territory:catalog:30e24deda6ac0b3965fd7238da50112cd100fd546e691562b0c866cf39a4c00d"},"type":"Feature"},{"geometry":{"coordinates":[[[178.4140969163,-17.913669064748],[178.593238833608,-17.913669064748],[178.591075,-17.897556],[178.622732,-17.890232],[178.617931,-17.873793],[178.615896,-17.869073],[178.625824,-17.87363],[178.629568,-17.875909],[178.635997,-17.863702],[178.63502,-17.853448],[178.62794,-17.845798],[178.615896,-17.841078],[178.626313,-17.83408],[178.627208,-17.826837],[178.620616,-17.8235],[178.608409,-17.828058],[178.598888,-17.819431],[178.59962,-17.80934],[178.603038,-17.798435],[178.602306,-17.786554],[178.597504,-17.781834],[178.578949,-17.76922],[178.571137,-17.762628],[178.567719,-17.754978],[178.569347,-17.746515],[178.57252,-17.737726],[178.574229,-17.728204],[178.580577,-17.710056],[178.589678292797,-17.697841726619],[178.416090509114,-17.697841726619],[178.4140969163,-17.697841726619],[178.4140969163,-17.913669064748]]],"type":"Polygon"},"id":132,"properties":{"parentKey":"FJI:1159313275","sourceCountryId":"FJI","syntheticOperational":true,"territoryId":"territory:catalog:e124d80857c52e2e0d3584761c8520593c96bcef8c85e8bd7e48ebabe5ed6ff7"},"type":"Feature"},{"geometry":{"coordinates":[[[179.754273892023,-16.187050359712],[179.766749841379,-16.187050359712],[179.764415,-16.18141],[179.754273892023,-16.187050359712]]],"type":"Polygon"},"id":133,"properties":{"parentKey":"FJI:1159313293","sourceCountryId":"FJI","syntheticOperational":true,"territoryId":"territory:catalog:82928ddd7426d9cd40d7820567ed5adffffc37a31a25d2aaafa55a858a124293"},"type":"Feature"},{"geometry":{"coordinates":[[[-178.600331,-19.147719],[-178.591664,-19.156996],[-178.555857,-19.174981],[-178.536977,-19.177179],[-178.533315,-19.156996],[-178.548044,-19.159275],[-178.566355,-19.151056],[-178.58198,-19.137302],[-178.588572,-19.122817],[-178.575429,-19.120538],[-178.566355,-19.120864],[-178.559682,-19.118829],[-178.553822,-19.109145],[-178.581654,-19.111505],[-178.597117,-19.128513],[-178.600331,-19.147719]]],"type":"Polygon"},"id":134,"properties":{"parentKey":"FJI:1159313273","sourceCountryId":"FJI","syntheticOperational":true,"territoryId":"territory:catalog:a9e8ee31431c4f4e126e2d46a74c68f0aa1fa6345873e837c742af51c7ee43d0"},"type":"Feature"},{"geometry":{"coordinates":[[[-178.421986,-19.173761],[-178.421702,-19.176202],[-178.418813,-19.178643],[-178.409373,-19.171808],[-178.403041825095,-19.171280294043],[-178.403041825095,-19.136983480935],[-178.419789,-19.167413],[-178.421986,-19.173761]]],"type":"Polygon"},"id":135,"properties":{"parentKey":"FJI:1159313273","sourceCountryId":"FJI","syntheticOperational":true,"territoryId":"territory:catalog:653ab5213e679f624525cb087477b2d946e212ade3a712c5aa5a1b482719675b"},"type":"Feature"},{"geometry":{"coordinates":[[[178.006264064948,-17.697841726619],[178.064191131294,-17.697841726619],[178.072676,-17.692356],[178.081668,-17.688222],[178.089419,-17.68693],[178.09531,-17.689153],[178.098566,-17.693752],[178.099127264025,-17.697841726619],[178.187539332914,-17.697841726619],[178.189817724701,-17.697841726619],[178.189817724701,-17.668935344974],[178.157322,-17.669929],[178.139235,-17.668224],[178.123991,-17.663934],[178.114224,-17.658043],[178.105542,-17.650499],[178.097894,-17.642282],[178.072056,-17.601974],[178.050559,-17.578462],[178.041567,-17.570917],[178.030922,-17.567558],[178.025651,-17.572726],[178.023894,-17.580942],[178.026064,-17.591536],[178.032885,-17.610708],[178.034022,-17.620009],[178.032575,-17.629363],[178.028545,-17.638665],[178.014282,-17.659439],[178.009114,-17.668895],[178.00684,-17.678972],[178.006264064948,-17.697841726619]]],"type":"Polygon"},"id":136,"properties":{"parentKey":"FJI:1159313275","sourceCountryId":"FJI","syntheticOperational":true,"territoryId":"territory:catalog:cd1291871b120ea22903597ad7fd61030add9bb961457239f1f336779b87c7d9"},"type":"Feature"},{"geometry":{"coordinates":[[[178.187539332914,-17.913669064748],[178.413098236776,-17.913669064748],[178.4140969163,-17.913669064748],[178.4140969163,-17.697841726619],[178.189817724701,-17.697841726619],[178.187539332914,-17.697841726619],[178.187539332914,-17.913669064748]]],"type":"Polygon"},"id":137,"properties":{"parentKey":"FJI:1159313275","sourceCountryId":"FJI","syntheticOperational":true,"territoryId":"territory:catalog:43c3d8c4c7dc484e241f7decfcc41b06647b2f3ff023ae0b4e182a69ada26fa1"},"type":"Feature"},{"geometry":{"coordinates":[[[178.005135,-17.734834],[178.00622,-17.740209],[178.008081,-17.743309],[178.011181,-17.744705],[178.014799,-17.74424],[178.019863,-17.741759],[178.024514,-17.738038],[178.054176,-17.706154],[178.063323,-17.698403],[178.064191131294,-17.697841726619],[178.006264064948,-17.697841726619],[178.005135,-17.734834]]],"type":"Polygon"},"id":138,"properties":{"parentKey":"FJI:1159313275","sourceCountryId":"FJI","syntheticOperational":true,"territoryId":"territory:catalog:4c33b066d8df3429c4aad79f7b6c9daa6a519a1f1e0367c961a0a6d42edb8716"},"type":"Feature"},{"geometry":{"coordinates":[[[178.064191131294,-17.697841726619],[178.099127264025,-17.697841726619],[178.098566,-17.693752],[178.09531,-17.689153],[178.089419,-17.68693],[178.081668,-17.688222],[178.072676,-17.692356],[178.064191131294,-17.697841726619]]],"type":"Polygon"},"id":139,"properties":{"parentKey":"FJI:1159313271","sourceCountryId":"FJI","syntheticOperational":true,"territoryId":"territory:catalog:0e489beb6fd73121192e13368bb3c8a0f7fc8c09a8d3fab2d4676614bf2d0fbf"},"type":"Feature"},{"geometry":{"coordinates":[[[177.506297229219,-18.129496402878],[177.730138713745,-18.129496402878],[177.732997481108,-18.129496402878],[177.732997481108,-17.913669064748],[177.507866582756,-17.913669064748],[177.506297229219,-17.913669064748],[177.506297229219,-18.129496402878]]],"type":"Polygon"},"id":140,"properties":{"parentKey":"FJI:1159313271","sourceCountryId":"FJI","syntheticOperational":true,"territoryId":"territory:catalog:6b485ce2a63f92e8d716cae3dd3134d524be856f750452392a37c1f44f514446"},"type":"Feature"},{"geometry":{"coordinates":[[[178.186397984887,-18.129496402878],[178.31971011167,-18.129496402878],[178.322927,-18.125584],[178.330903,-18.122247],[178.336436,-18.12127],[178.348399,-18.116876],[178.355235,-18.115492],[178.36085,-18.117446],[178.366059,-18.122003],[178.369395,-18.126642],[178.368907,-18.129083],[178.378429,-18.127211],[178.385753,-18.123793],[178.391287,-18.118097],[178.396169,-18.108657],[178.393403,-18.106622],[178.392589,-18.106215],[178.389903,-18.101821],[178.403087,-18.101332],[178.413097,-18.103448],[178.413098236776,-18.103448659643],[178.413098236776,-17.913669064748],[178.187539332914,-17.913669064748],[178.186397984887,-17.913669064748],[178.186397984887,-18.129496402878]]],"type":"Polygon"},"id":141,"properties":{"parentKey":"FJI:1159313275","sourceCountryId":"FJI","syntheticOperational":true,"territoryId":"territory:catalog:5c222545139edc0c91de36d86e3c1ceb71c2d0ac561162b9b91e72a74fa7d394"},"type":"Feature"}],"type":"FeatureCollection"}
