{"features":[{"geometry":{"coordinates":[[[5.972350230415,49.443855462759],[5.978064,49.445097],[6.06333,49.448456],[6.078006,49.452021],[6.087721,49.461633],[6.099813,49.46463],[6.102087,49.470005],[6.101984,49.476413],[6.107255,49.48251],[6.114386,49.484371],[6.138248847926,49.485813004456],[6.138248847926,49.492224893707],[6.13609,49.495275],[6.138248847926,49.495430309017],[6.138248847926,49.532374100719],[5.972350230415,49.532374100719],[5.972350230415,49.443855462759]]],"type":"Polygon"},"id":1,"properties":{"parentKey":"LUX:1159310955","sourceCountryId":"LUX","syntheticOperational":true,"territoryId":"territory:catalog:fcf4a11aea9c0bd4c83f311e2a8803a8f7833251bca43a77f0be4f0e597f7d94"},"type":"Feature"},{"geometry":{"coordinates":[[[6.304147465438,49.464306321095],[6.325329,49.456724],[6.345307,49.455349],[6.34538,49.462718],[6.342279,49.493001],[6.348809,49.52529],[6.350241284397,49.532374100719],[6.304147465438,49.532374100719],[6.304147465438,49.464306321095]]],"type":"Polygon"},"id":2,"properties":{"parentKey":"LUX:1159310953","sourceCountryId":"LUX","syntheticOperational":true,"territoryId":"territory:catalog:c65dc664609529e8f60ce2f38fa6c255d1791b8a3d2a4b091f3c424b14be8741"},"type":"Feature"},{"geometry":{"coordinates":[[[6.246317,49.790553],[6.262181,49.779081],[6.266987,49.777065],[6.272568,49.77306],[6.274584,49.770089],[6.263712682408,49.748201438849],[6.327474560592,49.748201438849],[6.327474560592,49.8403376139],[6.325639,49.84037],[6.310653,49.834479],[6.302592,49.834944],[6.301558,49.838303],[6.295568,49.848616],[6.295203,49.848586],[6.277064,49.847087],[6.269623,49.844968],[6.263887,49.841092],[6.257996,49.832798],[6.256135,49.828096],[6.258306,49.823884],[6.261561,49.822179],[6.266832,49.820034],[6.266677,49.815693],[6.265902,49.812205],[6.246317,49.790553]]],"type":"Polygon"},"id":3,"properties":{"parentKey":"LUX:1159310953","sourceCountryId":"LUX","syntheticOperational":true,"territoryId":"territory:catalog:6941809b3f4d60ab696b7ab4a8b0c357ac3740eff6b149cd910b7f4b97991b05"},"type":"Feature"},{"geometry":{"coordinates":[[[6.493987049029,49.748201438849],[6.495913067526,49.748201438849],[6.495965,49.748231],[6.496378,49.752106],[6.493987049029,49.756061257561],[6.493987049029,49.748201438849]]],"type":"Polygon"},"id":4,"properties":{"parentKey":"LUX:1159310953","sourceCountryId":"LUX","syntheticOperational":true,"territoryId":"territory:catalog:f00cdbd3db5058804368e996476bd9cc7ea4c446257f9925a94d7de9b844c6e1"},"type":"Feature"},{"geometry":{"coordinates":[[[5.994449583719,49.640287769784],[6.138248847926,49.640287769784],[6.160962072155,49.640287769784],[6.160962072155,49.748201438849],[5.99483783648,49.748201438849],[5.994449583719,49.745154655904],[5.994449583719,49.640287769784]]],"type":"Polygon"},"id":5,"properties":{"parentKey":"LUX:1159310955","sourceCountryId":"LUX","syntheticOperational":true,"territoryId":"territory:catalog:221491d843744cd3f54acf43870da7fafd677572a4616f5ea028dc40e7e15c01"},"type":"Feature"},{"geometry":{"coordinates":[[[6.022304832714,49.964028776978],[6.147045394115,49.964028776978],[6.138777,49.979328],[6.121517,49.996278],[6.117177,50.004391],[6.119967,50.015501],[6.113766,50.036378],[6.107255,50.044595],[6.096403,50.048626],[6.105704,50.060305],[6.109425,50.06356],[6.107151,50.063767],[6.101157,50.063405],[6.0994,50.064129],[6.101152133034,50.071942446043],[6.050420168067,50.071942446043],[6.022304832714,50.071942446043],[6.022304832714,49.964028776978]]],"type":"Polygon"},"id":6,"properties":{"parentKey":"LUX:1159310951","sourceCountryId":"LUX","syntheticOperational":true,"territoryId":"territory:catalog:732e42fefddf3f36cb4f75e71857ee07e4dfc1603371a1b4001e0a057dd047e2"},"type":"Feature"},{"geometry":{"coordinates":[[[5.796890465099,49.532374100719],[5.806451612903,49.524086494516],[5.806451612903,49.532374100719],[5.796890465099,49.532374100719]]],"type":"Polygon"},"id":7,"properties":{"parentKey":"LUX:1159310955","sourceCountryId":"LUX","syntheticOperational":true,"territoryId":"territory:catalog:764356e3cd9eda48cf8da6cbf0bf42d963f55e9e97b4c1d491048ed8ee2597f8"},"type":"Feature"},{"geometry":{"coordinates":[[[5.806451612903,49.532374100719],[5.972350230415,49.532374100719],[5.972350230415,49.640287769784],[5.883372004166,49.640287769784],[5.879878,49.634853],[5.869957,49.628858],[5.861998,49.62276],[5.849183,49.599713],[5.841224,49.589687],[5.829959,49.582763],[5.846909,49.576717],[5.8374,49.56111],[5.814456,49.545142],[5.806451612903,49.542653908786],[5.806451612903,49.532374100719]]],"type":"Polygon"},"id":8,"properties":{"parentKey":"LUX:1159310955","sourceCountryId":"LUX","syntheticOperational":true,"territoryId":"territory:catalog:0006d979552f2e5070187a72a6667856edf00a7102de5029b5fc8b2b7019ae1e"},"type":"Feature"},{"geometry":{"coordinates":[[[5.882352941176,50.071942446043],[6.022304832714,50.071942446043],[6.050420168067,50.071942446043],[6.050420168067,50.14961876967],[6.038628,50.148413],[6.027363,50.149447],[6.022967,50.15082],[6.014134,50.153581],[6.008036,50.160919],[6.004729,50.170479],[5.998321,50.174975],[5.982921,50.167068],[5.96163,50.165621],[5.953156,50.156371],[5.949021,50.142677],[5.941063,50.128311],[5.92618,50.118337],[5.888973,50.106607],[5.882352941176,50.102717675407],[5.882352941176,50.071942446043]]],"type":"Polygon"},"id":9,"properties":{"parentKey":"LUX:1159310951","sourceCountryId":"LUX","syntheticOperational":true,"territoryId":"territory:catalog:e14c0c15e715a8d97666f408e345138244c6380a4e5462f3e377f40edce32296"},"type":"Feature"},{"geometry":{"coordinates":[[[6.493987049029,49.764513275431],[6.498549,49.785386],[6.499996,49.786058],[6.500099,49.794481],[6.502269,49.795876],[6.502579,49.79567],[6.497205,49.799442],[6.493987049029,49.799569013598],[6.493987049029,49.764513275431]]],"type":"Polygon"},"id":10,"properties":{"parentKey":"LUX:1159310953","sourceCountryId":"LUX","syntheticOperational":true,"territoryId":"territory:catalog:a961d3934dd565a50d79452a7d5731db3eb053ee9c0d998a414639c57cb81ce0"},"type":"Feature"},{"geometry":{"coordinates":[[[5.797880062279,49.748201438849],[5.802054,49.742856],[5.803604,49.738154],[5.805774,49.724201],[5.805361,49.721876],[5.811769,49.718517],[5.825721,49.715778],[5.827937095282,49.714975474086],[5.827937095282,49.748201438849],[5.797880062279,49.748201438849]]],"type":"Polygon"},"id":11,"properties":{"parentKey":"LUX:1159310951","sourceCountryId":"LUX","syntheticOperational":true,"territoryId":"territory:catalog:db5e95df4a21e391de3326db4f8118d7cabdcdca9fe9a08330f5fe2c5da73a30"},"type":"Feature"},{"geometry":{"coordinates":[[[6.050420168067,50.071942446043],[6.101152133034,50.071942446043],[6.105704,50.092241],[6.110562,50.105987],[6.117487,50.120456],[6.102604,50.124745],[6.10033,50.132652],[6.101467,50.142108],[6.097126,50.151307],[6.084207,50.159317],[6.076456,50.158645],[6.070048,50.154201],[6.061366,50.150738],[6.050420168067,50.14961876967],[6.050420168067,50.071942446043]]],"type":"Polygon"},"id":12,"properties":{"parentKey":"LUX:1159310951","sourceCountryId":"LUX","syntheticOperational":true,"territoryId":"territory:catalog:1b2ae5a4b6e3d72db2b875da7bf22b89817fe9ebde993bcf5ed416a3122e21b6"},"type":"Feature"},{"geometry":{"coordinates":[[[6.327474560592,49.640287769784],[6.417771892365,49.640287769784],[6.417003,49.645756],[6.410905,49.649632],[6.404498,49.652474],[6.402741,49.655782],[6.418243,49.669889],[6.491727,49.700792],[6.489764,49.702962],[6.482942,49.708078],[6.486353,49.712936],[6.491004,49.714434],[6.493987049029,49.713670542854],[6.493987049029,49.717167018925],[6.492554,49.718413],[6.4878,49.725596],[6.485526,49.733761],[6.48625,49.742701],[6.493987049029,49.747105105109],[6.493987049029,49.748201438849],[6.327474560592,49.748201438849],[6.327474560592,49.640287769784]]],"type":"Polygon"},"id":13,"properties":{"parentKey":"LUX:1159310953","sourceCountryId":"LUX","syntheticOperational":true,"territoryId":"territory:catalog:1a2d4708d4e09ab0cf21be92032592d6d4fcbc0eb384989de4b2997783c27a77"},"type":"Feature"},{"geometry":{"coordinates":[[[5.827937095282,49.748201438849],[5.994449583719,49.748201438849],[5.994449583719,49.856115107914],[5.855018587361,49.856115107914],[5.827937095282,49.856115107914],[5.827937095282,49.748201438849]]],"type":"Polygon"},"id":14,"properties":{"parentKey":"LUX:1159310951","sourceCountryId":"LUX","syntheticOperational":true,"territoryId":"territory:catalog:1293193a28bb8f35ad47bfb7be154d9c5f96dac9c72d7632ded41c0b99aa5167"},"type":"Feature"},{"geometry":{"coordinates":[[[5.994449583719,49.745154655904],[5.99483783648,49.748201438849],[5.994449583719,49.748201438849],[5.994449583719,49.745154655904]]],"type":"Polygon"},"id":15,"properties":{"parentKey":"LUX:1159310951","sourceCountryId":"LUX","syntheticOperational":true,"territoryId":"territory:catalog:2e390a3332b5600137e60081ec5bd60cbe1f3b90c0f9dd2a82f91e408df05c49"},"type":"Feature"},{"geometry":{"coordinates":[[[5.827937095282,49.714975474086],[5.831716,49.713607],[5.837297,49.712936],[5.843705,49.714331],[5.850216,49.714021],[5.856004,49.708078],[5.856403,49.705807],[5.875952,49.709989],[5.919102,49.71092],[5.934294,49.713658],[5.959409,49.721565],[5.994032,49.728851],[5.993722,49.739445],[5.994449583719,49.745154655904],[5.994449583719,49.748201438849],[5.827937095282,49.748201438849],[5.827937095282,49.714975474086]]],"type":"Polygon"},"id":16,"properties":{"parentKey":"LUX:1159310951","sourceCountryId":"LUX","syntheticOperational":true,"territoryId":"territory:catalog:630021833e8cc7e9e918c27650c945363e8a6ce0ce9c1780ad46cc4c07b6fb19"},"type":"Feature"},{"geometry":{"coordinates":[[[6.160962072155,49.823236217903],[6.184718,49.819388],[6.193865,49.812412],[6.214536,49.799906],[6.246317,49.790553],[6.265902,49.812205],[6.266677,49.815693],[6.266832,49.820034],[6.261561,49.822179],[6.258306,49.823884],[6.256135,49.828096],[6.257996,49.832798],[6.263887,49.841092],[6.269623,49.844968],[6.277064,49.847087],[6.295203,49.848586],[6.295568,49.848616],[6.291533,49.855563],[6.29105377396,49.856115107914],[6.189591078067,49.856115107914],[6.160962072155,49.856115107914],[6.160962072155,49.823236217903]]],"type":"Polygon"},"id":17,"properties":{"parentKey":"LUX:1159310951","sourceCountryId":"LUX","syntheticOperational":true,"territoryId":"territory:catalog:cbce6e361b0d54eba1517e99f4bd899cab1171abfc130a3ced4919f2794f08a1"},"type":"Feature"},{"geometry":{"coordinates":[[[6.160962072155,49.640287769784],[6.301387955073,49.640287769784],[6.295048,49.647978],[6.285591,49.674333],[6.278304,49.680224],[6.264817,49.68627],[6.251123,49.68875],[6.174642,49.689991],[6.220117,49.736913],[6.228333,49.741874],[6.241046,49.747093],[6.248022,49.746266],[6.262957,49.74668],[6.263712682408,49.748201438849],[6.160962072155,49.748201438849],[6.160962072155,49.640287769784]]],"type":"Polygon"},"id":18,"properties":{"parentKey":"LUX:1159310955","sourceCountryId":"LUX","syntheticOperational":true,"territoryId":"territory:catalog:e3c5cd3c525f86f969f7aed4463543fa446425d30b862410a3ebb3c8c6f09e50"},"type":"Feature"},{"geometry":{"coordinates":[[[6.301387955073,49.640287769784],[6.304147465438,49.636940542595],[6.304147465438,49.640287769784],[6.301387955073,49.640287769784]]],"type":"Polygon"},"id":19,"properties":{"parentKey":"LUX:1159310953","sourceCountryId":"LUX","syntheticOperational":true,"territoryId":"territory:catalog:a01bcc3519ebfe253cca9b193a70694d48b864f4dfcfee791dc84be5740b3905"},"type":"Feature"},{"geometry":{"coordinates":[[[5.842258,49.67392],[5.845772,49.666582],[5.852593,49.663223],[5.872644,49.661724],[5.879878,49.657745],[5.885459,49.643534],[5.883372004166,49.640287769784],[5.972350230415,49.640287769784],[5.994449583719,49.640287769784],[5.994449583719,49.745154655904],[5.993722,49.739445],[5.994032,49.728851],[5.959409,49.721565],[5.934294,49.713658],[5.919102,49.71092],[5.875952,49.709989],[5.856403,49.705807],[5.857347,49.70043],[5.853627,49.696296],[5.848769,49.69273],[5.847219,49.687201],[5.846702,49.68069],[5.843705,49.677486],[5.842258,49.67392]]],"type":"Polygon"},"id":20,"properties":{"parentKey":"LUX:1159310955","sourceCountryId":"LUX","syntheticOperational":true,"territoryId":"territory:catalog:b6ebbb633a0f977f29f11a90bc5394e44088c109a7b9ec6d57e086556228ef79"},"type":"Feature"},{"geometry":{"coordinates":[[[6.174642,49.689991],[6.251123,49.68875],[6.264817,49.68627],[6.278304,49.680224],[6.285591,49.674333],[6.295048,49.647978],[6.301387955073,49.640287769784],[6.304147465438,49.640287769784],[6.327474560592,49.640287769784],[6.327474560592,49.748201438849],[6.263712682408,49.748201438849],[6.262957,49.74668],[6.248022,49.746266],[6.241046,49.747093],[6.228333,49.741874],[6.220117,49.736913],[6.174642,49.689991]]],"type":"Polygon"},"id":21,"properties":{"parentKey":"LUX:1159310953","sourceCountryId":"LUX","syntheticOperational":true,"territoryId":"territory:catalog:7a3e5f5ff7c7258eca688e6731678ff415cd5539098ed15bc88f54e9e73bc929"},"type":"Feature"},{"geometry":{"coordinates":[[[6.493987049029,49.747105105109],[6.495599196498,49.748022776288],[6.495913067526,49.748201438849],[6.493987049029,49.748201438849],[6.493987049029,49.747105105109]]],"type":"Polygon"},"id":22,"properties":{"parentKey":"LUX:1159310953","sourceCountryId":"LUX","syntheticOperational":true,"territoryId":"territory:catalog:fa81c8148251b215aa96f25282b20318cf6d41d369cb9e036a73389001a4dc8e"},"type":"Feature"},{"geometry":{"coordinates":[[[5.720198,49.824712],[5.721645,49.812775],[5.727743,49.800217],[5.738285,49.788848],[5.748414,49.785644],[5.759162,49.784456],[5.771875,49.779392],[5.778489,49.773035],[5.797880062279,49.748201438849],[5.827937095282,49.748201438849],[5.827937095282,49.856115107914],[5.731945332565,49.856115107914],[5.73198,49.854167],[5.730533,49.85117],[5.728673,49.848845],[5.726916,49.845227],[5.736528,49.83944],[5.724642,49.834272],[5.720198,49.824712]]],"type":"Polygon"},"id":23,"properties":{"parentKey":"LUX:1159310951","sourceCountryId":"LUX","syntheticOperational":true,"territoryId":"territory:catalog:e76062d3188fd1bf719e53aeb616cd0d34d41cb6f2c941f837fc0abf6b9f1be9"},"type":"Feature"},{"geometry":{"coordinates":[[[6.160962072155,49.748201438849],[6.263712682408,49.748201438849],[6.274584,49.770089],[6.272568,49.77306],[6.266987,49.777065],[6.262181,49.779081],[6.246317,49.790553],[6.214536,49.799906],[6.193865,49.812412],[6.184718,49.819388],[6.160962072155,49.823236217903],[6.160962072155,49.748201438849]]],"type":"Polygon"},"id":24,"properties":{"parentKey":"LUX:1159310955","sourceCountryId":"LUX","syntheticOperational":true,"territoryId":"territory:catalog:929a113826a6c7e8ac3fff1fe5f3c3a89760bd187e3984183720ec60ad848f4c"},"type":"Feature"},{"geometry":{"coordinates":[[[6.189591078067,49.856115107914],[6.29105377396,49.856115107914],[6.286779,49.86104],[6.272206,49.867138],[6.238306,49.876905],[6.2227,49.887137],[6.189834,49.938297],[6.189591078067,49.938550880817],[6.189591078067,49.856115107914]]],"type":"Polygon"},"id":25,"properties":{"parentKey":"LUX:1159310951","sourceCountryId":"LUX","syntheticOperational":true,"territoryId":"territory:catalog:8e4f44263a8f89a7f7dff20efa8470cbca8c61b1cc8a3a6f855a25836bb62947"},"type":"Feature"},{"geometry":{"coordinates":[[[5.714927,49.881866],[5.726709,49.878197],[5.748827,49.867293],[5.758129,49.858198],[5.731877,49.859955],[5.731945332565,49.856115107914],[5.827937095282,49.856115107914],[5.855018587361,49.856115107914],[5.855018587361,49.964028776978],[5.801802416745,49.964028776978],[5.80164,49.963825],[5.793372,49.958812],[5.778593,49.95659],[5.771565,49.953541],[5.76371,49.946823],[5.759989,49.941604],[5.757612,49.93654],[5.753581,49.930183],[5.718958,49.891374],[5.714927,49.881866]]],"type":"Polygon"},"id":26,"properties":{"parentKey":"LUX:1159310951","sourceCountryId":"LUX","syntheticOperational":true,"territoryId":"territory:catalog:b30e3b252087e858cedea767baf572534d67798bbb3e774d59892d85ba729d2a"},"type":"Feature"},{"geometry":{"coordinates":[[[5.855018587361,49.856115107914],[5.994449583719,49.856115107914],[6.022304832714,49.856115107914],[6.022304832714,49.964028776978],[5.855018587361,49.964028776978],[5.855018587361,49.856115107914]]],"type":"Polygon"},"id":27,"properties":{"parentKey":"LUX:1159310951","sourceCountryId":"LUX","syntheticOperational":true,"territoryId":"territory:catalog:1ca159dae2f45c802324b98fd2e0f1b5a645fa4eb0ec2066a20f662db01a0bdf"},"type":"Feature"},{"geometry":{"coordinates":[[[5.972350230415,49.532374100719],[6.138248847926,49.532374100719],[6.138248847926,49.640287769784],[5.994449583719,49.640287769784],[5.972350230415,49.640287769784],[5.972350230415,49.532374100719]]],"type":"Polygon"},"id":28,"properties":{"parentKey":"LUX:1159310955","sourceCountryId":"LUX","syntheticOperational":true,"territoryId":"territory:catalog:66f5a8aa51025ff9aa5ba9dfe53af838597e62666106810862a7fcf3b801560d"},"type":"Feature"},{"geometry":{"coordinates":[[[6.233914,49.553565],[6.234845,49.540026],[6.23760938969,49.532374100719],[6.304147465438,49.532374100719],[6.304147465438,49.622901951836],[6.291172,49.615887],[6.287141,49.612631],[6.285126,49.609117],[6.289001,49.6055],[6.294428,49.602244],[6.299543,49.59842],[6.301249,49.593614],[6.298768,49.587542],[6.28063,49.584932],[6.273033,49.582349],[6.240891,49.56204],[6.233914,49.553565]]],"type":"Polygon"},"id":29,"properties":{"parentKey":"LUX:1159310953","sourceCountryId":"LUX","syntheticOperational":true,"territoryId":"territory:catalog:ac4ceb48bd77b4360140dc22aadc27d62f40325cb13dd6b8358807d728c2dedc"},"type":"Feature"},{"geometry":{"coordinates":[[[5.99483783648,49.748201438849],[6.160962072155,49.748201438849],[6.160962072155,49.823236217903],[6.157278,49.823833],[6.147356,49.8236],[6.113818,49.81758],[6.104517,49.819104],[6.095525,49.821895],[6.081056,49.828096],[6.069428,49.829724],[6.059817,49.82962],[6.043073,49.824453],[6.033772,49.817166],[6.031601,49.813006],[6.029121,49.806314],[6.018682,49.797374],[6.013721,49.79032],[6.001319,49.781251],[5.999303,49.775412],[5.998683,49.761252],[5.995118,49.7504],[5.99483783648,49.748201438849]]],"type":"Polygon"},"id":30,"properties":{"parentKey":"LUX:1159310955","sourceCountryId":"LUX","syntheticOperational":true,"territoryId":"territory:catalog:cb518a6afa29a7088a58216cf4e694b11de5b89b8ee2b30079330dc3bd0ac87b"},"type":"Feature"},{"geometry":{"coordinates":[[[6.493987049029,49.713670542854],[6.499686,49.712212],[6.493987049029,49.717167018925],[6.493987049029,49.713670542854]]],"type":"Polygon"},"id":31,"properties":{"parentKey":"LUX:1159310953","sourceCountryId":"LUX","syntheticOperational":true,"territoryId":"territory:catalog:d0d9a05c2de8c2d8d6021c0435c3f1f52fab8796aaadfd81d6875cae2b23461a"},"type":"Feature"},{"geometry":{"coordinates":[[[5.790685,49.537753],[5.796890465099,49.532374100719],[5.806451612903,49.532374100719],[5.806451612903,49.542653908786],[5.790685,49.537753]]],"type":"Polygon"},"id":32,"properties":{"parentKey":"LUX:1159310955","sourceCountryId":"LUX","syntheticOperational":true,"territoryId":"territory:catalog:adf27a5c7868d40761fd2e288fdf85a5d6cea99c3d271ea882931d1029d297a6"},"type":"Feature"},{"geometry":{"coordinates":[[[6.022304832714,49.856115107914],[6.160962072155,49.856115107914],[6.189591078067,49.856115107914],[6.189591078067,49.938550880817],[6.172677,49.956228],[6.161928,49.942482],[6.15397,49.951216],[6.147045394115,49.964028776978],[6.022304832714,49.964028776978],[6.022304832714,49.856115107914]]],"type":"Polygon"},"id":33,"properties":{"parentKey":"LUX:1159310951","sourceCountryId":"LUX","syntheticOperational":true,"territoryId":"territory:catalog:1e2e5039e4b6573ff34095e9569605be71d2f22fd7fd7e84f10812569db6a133"},"type":"Feature"},{"geometry":{"coordinates":[[[6.23760938969,49.532374100719],[6.247092,49.506126],[6.251117,49.48946],[6.298768,49.466232],[6.304147465438,49.464306321095],[6.304147465438,49.532374100719],[6.23760938969,49.532374100719]]],"type":"Polygon"},"id":34,"properties":{"parentKey":"LUX:1159310953","sourceCountryId":"LUX","syntheticOperational":true,"territoryId":"territory:catalog:5cb5be53c41e7e47f61b2a0b9f9ce517932f87271a6876bcc65f36645af06d45"},"type":"Feature"},{"geometry":{"coordinates":[[[6.138248847926,49.485813004456],[6.142601,49.486076],[6.138248847926,49.492224893707],[6.138248847926,49.485813004456]]],"type":"Polygon"},"id":35,"properties":{"parentKey":"LUX:1159310955","sourceCountryId":"LUX","syntheticOperational":true,"territoryId":"territory:catalog:0ee739c002197d334d20dfe0995e3cf798ddee3f40cfc312cc87ad94707554e9"},"type":"Feature"},{"geometry":{"coordinates":[[[6.304147465438,49.622901951836],[6.312153,49.62723],[6.304147465438,49.636940542595],[6.304147465438,49.622901951836]]],"type":"Polygon"},"id":36,"properties":{"parentKey":"LUX:1159310955","sourceCountryId":"LUX","syntheticOperational":true,"territoryId":"territory:catalog:1177bf461e587ca7737ea091d141ece29236155758f8f132c32c78388a78084c"},"type":"Feature"},{"geometry":{"coordinates":[[[5.806451612903,49.524086494516],[5.822104,49.510519],[5.839571,49.499874],[5.864686,49.492174],[5.928142643341,49.482304211009],[5.928144,49.482304],[5.946954,49.469953],[5.9607,49.441324],[5.972350230415,49.443855462759],[5.972350230415,49.532374100719],[5.806451612903,49.532374100719],[5.806451612903,49.524086494516]]],"type":"Polygon"},"id":37,"properties":{"parentKey":"LUX:1159310955","sourceCountryId":"LUX","syntheticOperational":true,"territoryId":"territory:catalog:348750af81df9d823f0a25b2319a06126b865ff0cfb170c224b9657fe79809dd"},"type":"Feature"},{"geometry":{"coordinates":[[[5.994449583719,49.748201438849],[5.99483783648,49.748201438849],[5.995118,49.7504],[5.998683,49.761252],[5.999303,49.775412],[6.001319,49.781251],[6.013721,49.79032],[6.018682,49.797374],[6.029121,49.806314],[6.031601,49.813006],[6.033772,49.817166],[6.043073,49.824453],[6.059817,49.82962],[6.069428,49.829724],[6.081056,49.828096],[6.095525,49.821895],[6.104517,49.819104],[6.113818,49.81758],[6.147356,49.8236],[6.157278,49.823833],[6.160962072155,49.823236217903],[6.160962072155,49.856115107914],[6.022304832714,49.856115107914],[5.994449583719,49.856115107914],[5.994449583719,49.748201438849]]],"type":"Polygon"},"id":38,"properties":{"parentKey":"LUX:1159310951","sourceCountryId":"LUX","syntheticOperational":true,"territoryId":"territory:catalog:3f6dfd797338173ff6ecaa98b230865fdb7bce3069e8aa5770dcd8442d4aa34b"},"type":"Feature"},{"geometry":{"coordinates":[[[6.327474560592,49.748201438849],[6.493987049029,49.748201438849],[6.493987049029,49.756061257561],[6.493691,49.756551],[6.493794,49.76363],[6.493987049029,49.764513275431],[6.493987049029,49.799569013598],[6.493278,49.799597],[6.462478,49.805488],[6.414523,49.805488],[6.397056,49.808589],[6.380106,49.815565],[6.351374,49.83329],[6.334424,49.840215],[6.327474560592,49.8403376139],[6.327474560592,49.748201438849]]],"type":"Polygon"},"id":39,"properties":{"parentKey":"LUX:1159310953","sourceCountryId":"LUX","syntheticOperational":true,"territoryId":"territory:catalog:571788825bb9e207f7f75f92812178b0f06225b6dc143ad9ea554513202a912d"},"type":"Feature"},{"geometry":{"coordinates":[[[5.855018587361,49.964028776978],[6.022304832714,49.964028776978],[6.022304832714,50.071942446043],[5.882352941176,50.071942446043],[5.865995214138,50.071942446043],[5.864375,50.067488],[5.858278,50.061803],[5.855018587361,50.059976807439],[5.855018587361,49.964028776978]]],"type":"Polygon"},"id":40,"properties":{"parentKey":"LUX:1159310951","sourceCountryId":"LUX","syntheticOperational":true,"territoryId":"territory:catalog:1c2cfa92ea108fa0e65fc2ac6b7f2b49f792f86b554ceaf9f04130c6de318b02"},"type":"Feature"},{"geometry":{"coordinates":[[[6.138248847926,49.495430309017],[6.193554,49.499409],[6.221976,49.497445],[6.249365,49.490314],[6.251117,49.48946],[6.247092,49.506126],[6.23760938969,49.532374100719],[6.138248847926,49.532374100719],[6.138248847926,49.495430309017]]],"type":"Polygon"},"id":41,"properties":{"parentKey":"LUX:1159310955","sourceCountryId":"LUX","syntheticOperational":true,"territoryId":"territory:catalog:1dd8c48362a56337695f79fdd8ff12dda925d047b0265b2f36554acb04856b85"},"type":"Feature"},{"geometry":{"coordinates":[[[5.865995214138,50.071942446043],[5.882352941176,50.071942446043],[5.882352941176,50.102717675407],[5.872437,50.096892],[5.86882,50.090535],[5.866856,50.074309],[5.865995214138,50.071942446043]]],"type":"Polygon"},"id":42,"properties":{"parentKey":"LUX:1159310951","sourceCountryId":"LUX","syntheticOperational":true,"territoryId":"territory:catalog:317c0ab9597b36f64801840560b310a6dcc68b11b89be5c21cdd4a9b3f7c379a"},"type":"Feature"},{"geometry":{"coordinates":[[[6.138248847926,49.532374100719],[6.23760938969,49.532374100719],[6.234845,49.540026],[6.233914,49.553565],[6.240891,49.56204],[6.273033,49.582349],[6.28063,49.584932],[6.298768,49.587542],[6.301249,49.593614],[6.299543,49.59842],[6.294428,49.602244],[6.289001,49.6055],[6.285126,49.609117],[6.287141,49.612631],[6.291172,49.615887],[6.304147465438,49.622901951836],[6.304147465438,49.636940542595],[6.301387955073,49.640287769784],[6.160962072155,49.640287769784],[6.138248847926,49.640287769784],[6.138248847926,49.532374100719]]],"type":"Polygon"},"id":43,"properties":{"parentKey":"LUX:1159310955","sourceCountryId":"LUX","syntheticOperational":true,"territoryId":"territory:catalog:5e8f38c38002c5f465ff4df270ffeed05b57e265d666807b98665ac8b4ea45fc"},"type":"Feature"},{"geometry":{"coordinates":[[[5.801537,49.988681],[5.808565,49.9831],[5.812596,49.977571],[5.801802416745,49.964028776978],[5.855018587361,49.964028776978],[5.855018587361,50.059976807439],[5.843705,50.053638],[5.83771,50.047437],[5.838847,50.035862],[5.838847,50.026457],[5.836367,50.01855],[5.829132,50.013589],[5.808875,50.007801],[5.802674,50.002479],[5.801537,49.988681]]],"type":"Polygon"},"id":44,"properties":{"parentKey":"LUX:1159310951","sourceCountryId":"LUX","syntheticOperational":true,"territoryId":"territory:catalog:434f3591a7e6f168411b1f12f999559aa15f888b717b5583371f64169917a310"},"type":"Feature"},{"geometry":{"coordinates":[[[6.304147465438,49.532374100719],[6.350241284397,49.532374100719],[6.350754,49.53491],[6.350754,49.566588],[6.356438,49.577595],[6.371528,49.592995],[6.397573,49.613872],[6.407701,49.627411],[6.415246,49.634646],[6.417933,49.639142],[6.417771892365,49.640287769784],[6.327474560592,49.640287769784],[6.304147465438,49.640287769784],[6.304147465438,49.636940542595],[6.312153,49.62723],[6.304147465438,49.622901951836],[6.304147465438,49.532374100719]]],"type":"Polygon"},"id":45,"properties":{"parentKey":"LUX:1159310953","sourceCountryId":"LUX","syntheticOperational":true,"territoryId":"territory:catalog:4dc77d11b46f978cd0744117a0651124d08b98af9d0c7d9c7d9c85f1223ba2be"},"type":"Feature"}],"type":"FeatureCollection"}
