{"features":[{"geometry":{"coordinates":[[[6.174642,49.689991],[6.247107820453,49.688815151316],[6.247107820453,49.746374375356],[6.241046,49.747093],[6.228333,49.741874],[6.220117,49.736913],[6.174642,49.689991]]],"type":"Polygon"},"id":1,"properties":{"parentKey":"LUX:1159310953","sourceCountryId":"LUX","syntheticOperational":true,"territoryId":"territory:catalog:541beae804e11925da84e82246daf7fdda47a59aae8fc73c71ea906b56335209"},"type":"Feature"},{"geometry":{"coordinates":[[[5.99483783648,49.748201438849],[6.011131725417,49.748201438849],[6.011131725417,49.788426585132],[6.001319,49.781251],[5.999303,49.775412],[5.998683,49.761252],[5.995118,49.7504],[5.99483783648,49.748201438849]]],"type":"Polygon"},"id":2,"properties":{"parentKey":"LUX:1159310955","sourceCountryId":"LUX","syntheticOperational":true,"territoryId":"territory:catalog:5fbc5f5e6d2a41719df6254e7d0cbd1575ce86b08d74938639385c26e891bf9f"},"type":"Feature"},{"geometry":{"coordinates":[[[6.247107820453,49.640287769784],[6.301387955073,49.640287769784],[6.295048,49.647978],[6.285591,49.674333],[6.278304,49.680224],[6.264817,49.68627],[6.251123,49.68875],[6.247107820453,49.688815151316],[6.247107820453,49.640287769784]]],"type":"Polygon"},"id":3,"properties":{"parentKey":"LUX:1159310955","sourceCountryId":"LUX","syntheticOperational":true,"territoryId":"territory:catalog:bd7bd502587c7b44fce381c82455e49edd74da2d6bdded36826c7314f2646f38"},"type":"Feature"},{"geometry":{"coordinates":[[[6.149584487535,49.532374100719],[6.23760938969,49.532374100719],[6.234845,49.540026],[6.233914,49.553565],[6.240891,49.56204],[6.273033,49.582349],[6.28063,49.584932],[6.298768,49.587542],[6.301249,49.593614],[6.299543,49.59842],[6.294428,49.602244],[6.289001,49.6055],[6.285126,49.609117],[6.287141,49.612631],[6.291172,49.615887],[6.312153,49.62723],[6.301387955073,49.640287769784],[6.247107820453,49.640287769784],[6.149584487535,49.640287769784],[6.149584487535,49.532374100719]]],"type":"Polygon"},"id":4,"properties":{"parentKey":"LUX:1159310955","sourceCountryId":"LUX","syntheticOperational":true,"territoryId":"territory:catalog:2d89f250e2deb0018691bc6c8b822082c004d6daf4f4a2f60d269e6abf5244d1"},"type":"Feature"},{"geometry":{"coordinates":[[[5.714927,49.881866],[5.726709,49.878197],[5.748827,49.867293],[5.758129,49.858198],[5.731877,49.859955],[5.731945332565,49.856115107914],[5.774058577406,49.856115107914],[5.774058577406,49.954622803858],[5.771565,49.953541],[5.76371,49.946823],[5.759989,49.941604],[5.757612,49.93654],[5.753581,49.930183],[5.718958,49.891374],[5.714927,49.881866]]],"type":"Polygon"},"id":5,"properties":{"parentKey":"LUX:1159310951","sourceCountryId":"LUX","syntheticOperational":true,"territoryId":"territory:catalog:899c3e321fb1f688c5c9a528ad8ae18e02ec8cfa8a1919fef833b6b8cca13191"},"type":"Feature"},{"geometry":{"coordinates":[[[6.23760938969,49.532374100719],[6.247092,49.506126],[6.251117,49.48946],[6.298768,49.466232],[6.304147465438,49.464306321095],[6.304147465438,49.532374100719],[6.23760938969,49.532374100719]]],"type":"Polygon"},"id":6,"properties":{"parentKey":"LUX:1159310953","sourceCountryId":"LUX","syntheticOperational":true,"territoryId":"territory:catalog:fdbc5da7fa3859965915a2441d270bf341114f9005cc4cb5361e7f9df9c06b70"},"type":"Feature"},{"geometry":{"coordinates":[[[6.276150627615,49.856115107914],[6.29105377396,49.856115107914],[6.286779,49.86104],[6.276150627615,49.865487390023],[6.276150627615,49.856115107914]]],"type":"Polygon"},"id":7,"properties":{"parentKey":"LUX:1159310951","sourceCountryId":"LUX","syntheticOperational":true,"territoryId":"territory:catalog:c184cb438fa626f480f42a8ab9b3caeb1538eefd14ab091649ca00787a700b08"},"type":"Feature"},{"geometry":{"coordinates":[[[5.801537,49.988681],[5.808565,49.9831],[5.812596,49.977571],[5.801802416745,49.964028776978],[5.871388630009,49.964028776978],[5.871388630009,50.071942446043],[5.865995214138,50.071942446043],[5.864375,50.067488],[5.858278,50.061803],[5.843705,50.053638],[5.83771,50.047437],[5.838847,50.035862],[5.838847,50.026457],[5.836367,50.01855],[5.829132,50.013589],[5.808875,50.007801],[5.802674,50.002479],[5.801537,49.988681]]],"type":"Polygon"},"id":8,"properties":{"parentKey":"LUX:1159310951","sourceCountryId":"LUX","syntheticOperational":true,"territoryId":"territory:catalog:b72807f6e2280c280e86b61a4168577f824f6668efd8a0d018e6883df8aaaaba"},"type":"Feature"},{"geometry":{"coordinates":[[[5.720198,49.824712],[5.721645,49.812775],[5.727743,49.800217],[5.738285,49.788848],[5.748414,49.785644],[5.759162,49.784456],[5.771875,49.779392],[5.778489,49.773035],[5.797880062279,49.748201438849],[5.844155844156,49.748201438849],[5.844155844156,49.856115107914],[5.774058577406,49.856115107914],[5.731945332565,49.856115107914],[5.73198,49.854167],[5.730533,49.85117],[5.728673,49.848845],[5.726916,49.845227],[5.736528,49.83944],[5.724642,49.834272],[5.720198,49.824712]]],"type":"Polygon"},"id":9,"properties":{"parentKey":"LUX:1159310951","sourceCountryId":"LUX","syntheticOperational":true,"territoryId":"territory:catalog:1121d7fdc9a63a249376753e1070f10eaefa8b5edf4994396f6e951b460aa840"},"type":"Feature"},{"geometry":{"coordinates":[[[6.108786610879,49.856115107914],[6.178107606679,49.856115107914],[6.276150627615,49.856115107914],[6.276150627615,49.865487390023],[6.272206,49.867138],[6.238306,49.876905],[6.2227,49.887137],[6.189834,49.938297],[6.172677,49.956228],[6.161928,49.942482],[6.15397,49.951216],[6.147045394115,49.964028776978],[6.108786610879,49.964028776978],[6.108786610879,49.856115107914]]],"type":"Polygon"},"id":10,"properties":{"parentKey":"LUX:1159310951","sourceCountryId":"LUX","syntheticOperational":true,"territoryId":"territory:catalog:0d6acd9a0260a48b1b0ee3744e714c9d2e0b3297968baa21689bee61e912f54d"},"type":"Feature"},{"geometry":{"coordinates":[[[5.983379501385,49.532374100719],[6.138248847926,49.532374100719],[6.149584487535,49.532374100719],[6.149584487535,49.640287769784],[6.080518278575,49.640287769784],[5.983379501385,49.640287769784],[5.983379501385,49.532374100719]]],"type":"Polygon"},"id":11,"properties":{"parentKey":"LUX:1159310955","sourceCountryId":"LUX","syntheticOperational":true,"territoryId":"territory:catalog:cc9571d2a6a1b64c10c4e886eae98ee3be109096e24e3f6f5f6d8844ee15e253"},"type":"Feature"},{"geometry":{"coordinates":[[[6.011131725417,49.788426585132],[6.013721,49.79032],[6.018682,49.797374],[6.029121,49.806314],[6.031601,49.813006],[6.033772,49.817166],[6.043073,49.824453],[6.059817,49.82962],[6.069428,49.829724],[6.081056,49.828096],[6.095525,49.821895],[6.104517,49.819104],[6.113818,49.81758],[6.147356,49.8236],[6.157278,49.823833],[6.178107606679,49.820458816265],[6.178107606679,49.856115107914],[6.108786610879,49.856115107914],[6.011131725417,49.856115107914],[6.011131725417,49.788426585132]]],"type":"Polygon"},"id":12,"properties":{"parentKey":"LUX:1159310951","sourceCountryId":"LUX","syntheticOperational":true,"territoryId":"territory:catalog:709c5e97e0a5d51b14c81a90276b8d3319c75d3f85f84a1bcc06bce53f85abe0"},"type":"Feature"},{"geometry":{"coordinates":[[[6.233914,49.553565],[6.234845,49.540026],[6.23760938969,49.532374100719],[6.304147465438,49.532374100719],[6.315789473684,49.532374100719],[6.315789473684,49.640287769784],[6.301387955073,49.640287769784],[6.312153,49.62723],[6.291172,49.615887],[6.287141,49.612631],[6.285126,49.609117],[6.289001,49.6055],[6.294428,49.602244],[6.299543,49.59842],[6.301249,49.593614],[6.298768,49.587542],[6.28063,49.584932],[6.273033,49.582349],[6.240891,49.56204],[6.233914,49.553565]]],"type":"Polygon"},"id":13,"properties":{"parentKey":"LUX:1159310953","sourceCountryId":"LUX","syntheticOperational":true,"territoryId":"territory:catalog:84c37e9dbb36420e631e364b15ba48d8bf4f5e9d7f885bb0f6c0932ef5020939"},"type":"Feature"},{"geometry":{"coordinates":[[[5.806451612903,49.524086494516],[5.822104,49.510519],[5.839571,49.499874],[5.864686,49.492174],[5.928142643341,49.482304211009],[5.928144,49.482304],[5.946954,49.469953],[5.9607,49.441324],[5.972350230415,49.443855462759],[5.972350230415,49.532374100719],[5.817174515235,49.532374100719],[5.806451612903,49.532374100719],[5.806451612903,49.524086494516]]],"type":"Polygon"},"id":14,"properties":{"parentKey":"LUX:1159310955","sourceCountryId":"LUX","syntheticOperational":true,"territoryId":"territory:catalog:77cb98e4bf42c101758feede05961fcdaa0ca2406dcd2b043d462de6e1dbcb56"},"type":"Feature"},{"geometry":{"coordinates":[[[5.865995214138,50.071942446043],[5.871388630009,50.071942446043],[5.882352941176,50.071942446043],[5.882352941176,50.102717675407],[5.872437,50.096892],[5.86882,50.090535],[5.866856,50.074309],[5.865995214138,50.071942446043]]],"type":"Polygon"},"id":15,"properties":{"parentKey":"LUX:1159310951","sourceCountryId":"LUX","syntheticOperational":true,"territoryId":"territory:catalog:904ca1a7f1228c3b137b11e06992635f5fe2c86ef83ca1d81c113cb0dac88eba"},"type":"Feature"},{"geometry":{"coordinates":[[[5.913928736696,49.710808382198],[5.919102,49.71092],[5.934294,49.713658],[5.959409,49.721565],[5.994032,49.728851],[5.993722,49.739445],[5.99483783648,49.748201438849],[5.913928736696,49.748201438849],[5.913928736696,49.710808382198]]],"type":"Polygon"},"id":16,"properties":{"parentKey":"LUX:1159310951","sourceCountryId":"LUX","syntheticOperational":true,"territoryId":"territory:catalog:208f275ce98e4c3d3f82e40ca0e9457660ae7317ce43cd80bb8804c862bcf83a"},"type":"Feature"},{"geometry":{"coordinates":[[[5.790685,49.537753],[5.796890465099,49.532374100719],[5.806451612903,49.532374100719],[5.817174515235,49.532374100719],[5.817174515235,49.547033965275],[5.814456,49.545142],[5.790685,49.537753]]],"type":"Polygon"},"id":17,"properties":{"parentKey":"LUX:1159310955","sourceCountryId":"LUX","syntheticOperational":true,"territoryId":"territory:catalog:1ac6d590d80b4fb0daa0343472eab0ec4820f39e191dc55c9940235ebd171c96"},"type":"Feature"},{"geometry":{"coordinates":[[[5.817174515235,49.532374100719],[5.972350230415,49.532374100719],[5.983379501385,49.532374100719],[5.983379501385,49.640287769784],[5.913928736696,49.640287769784],[5.883372004166,49.640287769784],[5.879878,49.634853],[5.869957,49.628858],[5.861998,49.62276],[5.849183,49.599713],[5.841224,49.589687],[5.829959,49.582763],[5.846909,49.576717],[5.8374,49.56111],[5.817174515235,49.547033965275],[5.817174515235,49.532374100719]]],"type":"Polygon"},"id":18,"properties":{"parentKey":"LUX:1159310955","sourceCountryId":"LUX","syntheticOperational":true,"territoryId":"territory:catalog:1cd261cf384555a536183e2c267df9d08ca41bd98a2aad9ff1bb36202b3888d6"},"type":"Feature"},{"geometry":{"coordinates":[[[6.050420168067,50.071942446043],[6.101152133034,50.071942446043],[6.105704,50.092241],[6.110562,50.105987],[6.117487,50.120456],[6.102604,50.124745],[6.10033,50.132652],[6.101467,50.142108],[6.097126,50.151307],[6.084207,50.159317],[6.076456,50.158645],[6.070048,50.154201],[6.061366,50.150738],[6.050420168067,50.14961876967],[6.050420168067,50.071942446043]]],"type":"Polygon"},"id":19,"properties":{"parentKey":"LUX:1159310951","sourceCountryId":"LUX","syntheticOperational":true,"territoryId":"territory:catalog:6b610ea7ddcb6118c16671fdf27a37643179fc71b1a2afe0c27b19341dddda34"},"type":"Feature"},{"geometry":{"coordinates":[[[5.941422594142,49.856115107914],[6.011131725417,49.856115107914],[6.108786610879,49.856115107914],[6.108786610879,49.964028776978],[6.039142590867,49.964028776978],[5.941422594142,49.964028776978],[5.941422594142,49.856115107914]]],"type":"Polygon"},"id":20,"properties":{"parentKey":"LUX:1159310951","sourceCountryId":"LUX","syntheticOperational":true,"territoryId":"territory:catalog:f50683c98a726c7ec3a824f06e39b96ca85a5e17d10c6431d1c5927e1cd0d56d"},"type":"Feature"},{"geometry":{"coordinates":[[[5.972350230415,49.443855462759],[5.978064,49.445097],[6.06333,49.448456],[6.078006,49.452021],[6.087721,49.461633],[6.099813,49.46463],[6.102087,49.470005],[6.101984,49.476413],[6.107255,49.48251],[6.114386,49.484371],[6.138248847926,49.485813004456],[6.138248847926,49.492224893707],[6.13609,49.495275],[6.138248847926,49.495430309017],[6.138248847926,49.532374100719],[5.983379501385,49.532374100719],[5.972350230415,49.532374100719],[5.972350230415,49.443855462759]]],"type":"Polygon"},"id":21,"properties":{"parentKey":"LUX:1159310955","sourceCountryId":"LUX","syntheticOperational":true,"territoryId":"territory:catalog:2890548fce1f6b336077b1d43bb3277ae3224f1d4203c7fb51a47439b62620f6"},"type":"Feature"},{"geometry":{"coordinates":[[[6.080518278575,49.640287769784],[6.149584487535,49.640287769784],[6.247107820453,49.640287769784],[6.247107820453,49.688815151316],[6.174642,49.689991],[6.220117,49.736913],[6.228333,49.741874],[6.241046,49.747093],[6.247107820453,49.746374375356],[6.247107820453,49.748201438849],[6.178107606679,49.748201438849],[6.080518278575,49.748201438849],[6.080518278575,49.640287769784]]],"type":"Polygon"},"id":22,"properties":{"parentKey":"LUX:1159310955","sourceCountryId":"LUX","syntheticOperational":true,"territoryId":"territory:catalog:068a37ef8a622903ba1d095abe8fb915df8804bf2a1137f42813f1cedb0e88d2"},"type":"Feature"},{"geometry":{"coordinates":[[[6.345083487941,49.748201438849],[6.413697362332,49.748201438849],[6.495913067526,49.748201438849],[6.495965,49.748231],[6.496378,49.752106],[6.493691,49.756551],[6.493794,49.76363],[6.498549,49.785386],[6.499996,49.786058],[6.500099,49.794481],[6.502269,49.795876],[6.502579,49.79567],[6.497205,49.799442],[6.493278,49.799597],[6.462478,49.805488],[6.414523,49.805488],[6.397056,49.808589],[6.380106,49.815565],[6.351374,49.83329],[6.345083487941,49.835860017464],[6.345083487941,49.748201438849]]],"type":"Polygon"},"id":23,"properties":{"parentKey":"LUX:1159310953","sourceCountryId":"LUX","syntheticOperational":true,"territoryId":"territory:catalog:24add5bb8c338a51e412632080ec18c77c232a3fcd85c9893d01fa9dd4d7d01b"},"type":"Feature"},{"geometry":{"coordinates":[[[5.774058577406,49.856115107914],[5.844155844156,49.856115107914],[5.941422594142,49.856115107914],[5.941422594142,49.964028776978],[5.871388630009,49.964028776978],[5.801802416745,49.964028776978],[5.80164,49.963825],[5.793372,49.958812],[5.778593,49.95659],[5.774058577406,49.954622803858],[5.774058577406,49.856115107914]]],"type":"Polygon"},"id":24,"properties":{"parentKey":"LUX:1159310951","sourceCountryId":"LUX","syntheticOperational":true,"territoryId":"territory:catalog:2c579c523c496bbe6ed754d7b7f51caff9a68865c5c348f041468ee26eb97c31"},"type":"Feature"},{"geometry":{"coordinates":[[[5.842258,49.67392],[5.845772,49.666582],[5.852593,49.663223],[5.872644,49.661724],[5.879878,49.657745],[5.885459,49.643534],[5.883372004166,49.640287769784],[5.913928736696,49.640287769784],[5.913928736696,49.710808382198],[5.875952,49.709989],[5.856403,49.705807],[5.857347,49.70043],[5.853627,49.696296],[5.848769,49.69273],[5.847219,49.687201],[5.846702,49.68069],[5.843705,49.677486],[5.842258,49.67392]]],"type":"Polygon"},"id":25,"properties":{"parentKey":"LUX:1159310955","sourceCountryId":"LUX","syntheticOperational":true,"territoryId":"territory:catalog:85dd5f96c2b8cb0d61db92d280d7e60a0ab4599eef76891dd11ac4a2184cf729"},"type":"Feature"},{"geometry":{"coordinates":[[[6.315789473684,49.532374100719],[6.350241284397,49.532374100719],[6.350754,49.53491],[6.350754,49.566588],[6.356438,49.577595],[6.371528,49.592995],[6.397573,49.613872],[6.407701,49.627411],[6.415246,49.634646],[6.417933,49.639142],[6.417771892365,49.640287769784],[6.413697362332,49.640287769784],[6.315789473684,49.640287769784],[6.315789473684,49.532374100719]]],"type":"Polygon"},"id":26,"properties":{"parentKey":"LUX:1159310953","sourceCountryId":"LUX","syntheticOperational":true,"territoryId":"territory:catalog:fe986ecf8e548e7817d6aa02cdcef0cbad24e0e9348b8bd525aa7fc50aace72e"},"type":"Feature"},{"geometry":{"coordinates":[[[6.304147465438,49.464306321095],[6.325329,49.456724],[6.345307,49.455349],[6.34538,49.462718],[6.342279,49.493001],[6.348809,49.52529],[6.350241284397,49.532374100719],[6.315789473684,49.532374100719],[6.304147465438,49.532374100719],[6.304147465438,49.464306321095]]],"type":"Polygon"},"id":27,"properties":{"parentKey":"LUX:1159310953","sourceCountryId":"LUX","syntheticOperational":true,"territoryId":"territory:catalog:db0bd500abeb8e3682d943b92c523090779ae594cbc16cc9f2ef6939d57b5b94"},"type":"Feature"},{"geometry":{"coordinates":[[[6.138248847926,49.485813004456],[6.142601,49.486076],[6.138248847926,49.492224893707],[6.138248847926,49.485813004456]]],"type":"Polygon"},"id":28,"properties":{"parentKey":"LUX:1159310955","sourceCountryId":"LUX","syntheticOperational":true,"territoryId":"territory:catalog:c8726a03a2bd15dda0b74f24fad6d32c075eaf04628aabaae33da1eb3ab9608f"},"type":"Feature"},{"geometry":{"coordinates":[[[6.247107820453,49.746374375356],[6.248022,49.746266],[6.262957,49.74668],[6.263712682408,49.748201438849],[6.247107820453,49.748201438849],[6.247107820453,49.746374375356]]],"type":"Polygon"},"id":29,"properties":{"parentKey":"LUX:1159310955","sourceCountryId":"LUX","syntheticOperational":true,"territoryId":"territory:catalog:11040f162b7946220831c7678e8d9c9a072158b54bae5425232d8a5ff04c3337"},"type":"Feature"},{"geometry":{"coordinates":[[[5.871388630009,49.964028776978],[5.941422594142,49.964028776978],[6.039142590867,49.964028776978],[6.039142590867,50.071942446043],[5.882352941176,50.071942446043],[5.871388630009,50.071942446043],[5.871388630009,49.964028776978]]],"type":"Polygon"},"id":30,"properties":{"parentKey":"LUX:1159310951","sourceCountryId":"LUX","syntheticOperational":true,"territoryId":"territory:catalog:3bac93d9007ad787f34a7d3a0d2d8b528d751d80473c82fb31ad4a329ecdfed6"},"type":"Feature"},{"geometry":{"coordinates":[[[6.039142590867,49.964028776978],[6.108786610879,49.964028776978],[6.147045394115,49.964028776978],[6.138777,49.979328],[6.121517,49.996278],[6.117177,50.004391],[6.119967,50.015501],[6.113766,50.036378],[6.107255,50.044595],[6.096403,50.048626],[6.105704,50.060305],[6.109425,50.06356],[6.107151,50.063767],[6.101157,50.063405],[6.0994,50.064129],[6.101152133034,50.071942446043],[6.050420168067,50.071942446043],[6.039142590867,50.071942446043],[6.039142590867,49.964028776978]]],"type":"Polygon"},"id":31,"properties":{"parentKey":"LUX:1159310951","sourceCountryId":"LUX","syntheticOperational":true,"territoryId":"territory:catalog:12a522df1d0c296df36afd50164c49ee530b150345b9840dd7f4da634375f0bc"},"type":"Feature"},{"geometry":{"coordinates":[[[6.178107606679,49.748201438849],[6.247107820453,49.748201438849],[6.263712682408,49.748201438849],[6.274584,49.770089],[6.272568,49.77306],[6.266987,49.777065],[6.262181,49.779081],[6.246317,49.790553],[6.214536,49.799906],[6.193865,49.812412],[6.184718,49.819388],[6.178107606679,49.820458816265],[6.178107606679,49.748201438849]]],"type":"Polygon"},"id":32,"properties":{"parentKey":"LUX:1159310955","sourceCountryId":"LUX","syntheticOperational":true,"territoryId":"territory:catalog:2ab1e4b1cfc28179f210f91474d73cf7e07709be2508356cb6c66779e906ea39"},"type":"Feature"},{"geometry":{"coordinates":[[[5.796890465099,49.532374100719],[5.806451612903,49.524086494516],[5.806451612903,49.532374100719],[5.796890465099,49.532374100719]]],"type":"Polygon"},"id":33,"properties":{"parentKey":"LUX:1159310955","sourceCountryId":"LUX","syntheticOperational":true,"territoryId":"territory:catalog:b38cb54ed8675a8e9c49127f642ad1952f163ae36a2c6502be879e943751494b"},"type":"Feature"},{"geometry":{"coordinates":[[[6.011131725417,49.748201438849],[6.080518278575,49.748201438849],[6.178107606679,49.748201438849],[6.178107606679,49.820458816265],[6.157278,49.823833],[6.147356,49.8236],[6.113818,49.81758],[6.104517,49.819104],[6.095525,49.821895],[6.081056,49.828096],[6.069428,49.829724],[6.059817,49.82962],[6.043073,49.824453],[6.033772,49.817166],[6.031601,49.813006],[6.029121,49.806314],[6.018682,49.797374],[6.013721,49.79032],[6.011131725417,49.788426585132],[6.011131725417,49.748201438849]]],"type":"Polygon"},"id":34,"properties":{"parentKey":"LUX:1159310955","sourceCountryId":"LUX","syntheticOperational":true,"territoryId":"territory:catalog:533fa58d3253539752f5c503b0ca2078e3a017a7dcf9ef94968ad8ef099d8d42"},"type":"Feature"},{"geometry":{"coordinates":[[[6.413697362332,49.640287769784],[6.417771892365,49.640287769784],[6.417003,49.645756],[6.413697362332,49.647857123582],[6.413697362332,49.640287769784]]],"type":"Polygon"},"id":35,"properties":{"parentKey":"LUX:1159310953","sourceCountryId":"LUX","syntheticOperational":true,"territoryId":"territory:catalog:2df4e188da1554954a4e65d438af07a578ad4736255992c6e07a56b47df924b9"},"type":"Feature"},{"geometry":{"coordinates":[[[5.844155844156,49.748201438849],[5.913928736696,49.748201438849],[5.99483783648,49.748201438849],[5.995118,49.7504],[5.998683,49.761252],[5.999303,49.775412],[6.001319,49.781251],[6.011131725417,49.788426585132],[6.011131725417,49.856115107914],[5.941422594142,49.856115107914],[5.844155844156,49.856115107914],[5.844155844156,49.748201438849]]],"type":"Polygon"},"id":36,"properties":{"parentKey":"LUX:1159310951","sourceCountryId":"LUX","syntheticOperational":true,"territoryId":"territory:catalog:ed9b5237f4d34cbfac7e623c3c8f7068409c98eda7ecfc029e507d4997979fe1"},"type":"Feature"},{"geometry":{"coordinates":[[[6.178107606679,49.820458816265],[6.184718,49.819388],[6.193865,49.812412],[6.214536,49.799906],[6.246317,49.790553],[6.265902,49.812205],[6.266677,49.815693],[6.266832,49.820034],[6.261561,49.822179],[6.258306,49.823884],[6.256135,49.828096],[6.257996,49.832798],[6.263887,49.841092],[6.269623,49.844968],[6.277064,49.847087],[6.295203,49.848586],[6.295568,49.848616],[6.291533,49.855563],[6.29105377396,49.856115107914],[6.276150627615,49.856115107914],[6.178107606679,49.856115107914],[6.178107606679,49.820458816265]]],"type":"Polygon"},"id":37,"properties":{"parentKey":"LUX:1159310951","sourceCountryId":"LUX","syntheticOperational":true,"territoryId":"territory:catalog:97e311ca63dfdd23da0c9507f7b8c04e6f649de0dc3aeaebce3e32eee6ee416e"},"type":"Feature"},{"geometry":{"coordinates":[[[5.797880062279,49.748201438849],[5.802054,49.742856],[5.803604,49.738154],[5.805774,49.724201],[5.805361,49.721876],[5.811769,49.718517],[5.825721,49.715778],[5.831716,49.713607],[5.837297,49.712936],[5.843705,49.714331],[5.850216,49.714021],[5.856004,49.708078],[5.856403,49.705807],[5.875952,49.709989],[5.913928736696,49.710808382198],[5.913928736696,49.748201438849],[5.844155844156,49.748201438849],[5.797880062279,49.748201438849]]],"type":"Polygon"},"id":38,"properties":{"parentKey":"LUX:1159310951","sourceCountryId":"LUX","syntheticOperational":true,"territoryId":"territory:catalog:5657a3918d3520496419e57df12ada23b5ddcbe43374bcf8db0c11fb7f20a027"},"type":"Feature"},{"geometry":{"coordinates":[[[6.138248847926,49.495430309017],[6.193554,49.499409],[6.221976,49.497445],[6.249365,49.490314],[6.251117,49.48946],[6.247092,49.506126],[6.23760938969,49.532374100719],[6.149584487535,49.532374100719],[6.138248847926,49.532374100719],[6.138248847926,49.495430309017]]],"type":"Polygon"},"id":39,"properties":{"parentKey":"LUX:1159310955","sourceCountryId":"LUX","syntheticOperational":true,"territoryId":"territory:catalog:0c4522e368836a53708a6550287750d9228487287ad04837423581e4c18b8c5a"},"type":"Feature"},{"geometry":{"coordinates":[[[5.913928736696,49.640287769784],[5.983379501385,49.640287769784],[6.080518278575,49.640287769784],[6.080518278575,49.748201438849],[6.011131725417,49.748201438849],[5.99483783648,49.748201438849],[5.993722,49.739445],[5.994032,49.728851],[5.959409,49.721565],[5.934294,49.713658],[5.919102,49.71092],[5.913928736696,49.710808382198],[5.913928736696,49.640287769784]]],"type":"Polygon"},"id":40,"properties":{"parentKey":"LUX:1159310955","sourceCountryId":"LUX","syntheticOperational":true,"territoryId":"territory:catalog:6feb2d6bd48937fb1090f317f3fbbe06b2f2b4c4716d408dbe5bc46d71d66bbb"},"type":"Feature"},{"geometry":{"coordinates":[[[5.882352941176,50.071942446043],[6.039142590867,50.071942446043],[6.050420168067,50.071942446043],[6.050420168067,50.14961876967],[6.038628,50.148413],[6.027363,50.149447],[6.022967,50.15082],[6.014134,50.153581],[6.008036,50.160919],[6.004729,50.170479],[5.998321,50.174975],[5.982921,50.167068],[5.96163,50.165621],[5.953156,50.156371],[5.949021,50.142677],[5.941063,50.128311],[5.92618,50.118337],[5.888973,50.106607],[5.882352941176,50.102717675407],[5.882352941176,50.071942446043]]],"type":"Polygon"},"id":41,"properties":{"parentKey":"LUX:1159310951","sourceCountryId":"LUX","syntheticOperational":true,"territoryId":"territory:catalog:fb5742d9f537b3aa0c088152c393ea107e290ef8e2b78a63f0482dc4dea73286"},"type":"Feature"},{"geometry":{"coordinates":[[[6.413697362332,49.665752416941],[6.418243,49.669889],[6.491727,49.700792],[6.489764,49.702962],[6.482942,49.708078],[6.486353,49.712936],[6.491004,49.714434],[6.499686,49.712212],[6.492554,49.718413],[6.4878,49.725596],[6.485526,49.733761],[6.48625,49.742701],[6.495913067526,49.748201438849],[6.413697362332,49.748201438849],[6.413697362332,49.665752416941]]],"type":"Polygon"},"id":42,"properties":{"parentKey":"LUX:1159310953","sourceCountryId":"LUX","syntheticOperational":true,"territoryId":"territory:catalog:c2a11fa97a287e192f1c9cd773be899232ffe00405157b29db5b507228f26a92"},"type":"Feature"},{"geometry":{"coordinates":[[[6.247107820453,49.688815151316],[6.251123,49.68875],[6.264817,49.68627],[6.278304,49.680224],[6.285591,49.674333],[6.295048,49.647978],[6.301387955073,49.640287769784],[6.315789473684,49.640287769784],[6.413697362332,49.640287769784],[6.413697362332,49.647857123582],[6.410905,49.649632],[6.404498,49.652474],[6.402741,49.655782],[6.413697362332,49.665752416941],[6.413697362332,49.748201438849],[6.345083487941,49.748201438849],[6.263712682408,49.748201438849],[6.262957,49.74668],[6.248022,49.746266],[6.247107820453,49.746374375356],[6.247107820453,49.688815151316]]],"type":"Polygon"},"id":43,"properties":{"parentKey":"LUX:1159310953","sourceCountryId":"LUX","syntheticOperational":true,"territoryId":"territory:catalog:fd9ffb39b25339af908e22856afe0432c3c29ea6304a98929cd7051634b31287"},"type":"Feature"},{"geometry":{"coordinates":[[[6.246317,49.790553],[6.262181,49.779081],[6.266987,49.777065],[6.272568,49.77306],[6.274584,49.770089],[6.263712682408,49.748201438849],[6.345083487941,49.748201438849],[6.345083487941,49.835860017464],[6.334424,49.840215],[6.325639,49.84037],[6.310653,49.834479],[6.302592,49.834944],[6.301558,49.838303],[6.295568,49.848616],[6.295203,49.848586],[6.277064,49.847087],[6.269623,49.844968],[6.263887,49.841092],[6.257996,49.832798],[6.256135,49.828096],[6.258306,49.823884],[6.261561,49.822179],[6.266832,49.820034],[6.266677,49.815693],[6.265902,49.812205],[6.246317,49.790553]]],"type":"Polygon"},"id":44,"properties":{"parentKey":"LUX:1159310953","sourceCountryId":"LUX","syntheticOperational":true,"territoryId":"territory:catalog:32ce8b6d1d1399e6f326f044641afd02ca1d7aa69a8764b2be115fecf48ccb1f"},"type":"Feature"}],"type":"FeatureCollection"}
